Company name,Country,Site address,Latitude,Longitude,Province,City
Proteins Australia Pty Ltd,Australia,"3260 Princes Hwy, Moruya NSW 2537, Australia",-35.9502,150.098,New South Wales,Moruya
BHP Impex Canada,Canada,"720 Kennedy Rd, Scarborough, ON M1K 2B7, Canada",43.729687,-79.267287,Ontario,Toronto
Abideen And Company,Pakistan,"14-B / 16-A, Deh Ibrahim Hyderi, Korangi Creek, Karachi, Pakistan",24.8278,67.20735,,Karachi
Mundo Branco S. A.,Argentina,Independencia y Nahuel Ruca - Vivorata - Buenos Aires,-34.61829,-58.38077,,
Australian Fishmeal Company,Australia,"Suite 503/227 Collins St, Melbourne VIC 3000, Australia",-37.8158,144.9663,Victoria,Melbourne
NuBlend Pty Ltd,Australia,"78 Freestone Point Rd, Triabunna TAS 7190, Australia
",-42.51835,147.92905,Tasmania,Triabunna
Huatai Pharma Inc,China,"No.  37, Section 6, North Chengdu Avenue, Guanghan City, Deyang, Sichuan Province, P.R. China.",30.9225,104.2489,Sichuan,Deyang
Comeau,Canada,"60 Saulnierville Rd, Saulnierville, NS B0W 2Z0, Canada",44.2618,-66.1335,Nova Scotia,Saulnierville
Akash Fishmeal & Fish Oil Private Limited,India,"67/10 & 66/6, Khavaneshwar Mandir Rd",15.925022,73.59071,Maharashtra,"Kelus, Vengurla, Sindhudurg, 416520"
CSF Proteins Pty Ltd,Australia,"1 Merino St, Laverton North VIC 3026, Australia",-37.823,144.8131,Victoria,Laverton North
Liaoyu Antarctic Krill Technology Development Co. Ltd.,China,"No.  188, Dalianwan Street, Ganjingzi District, Dalian City, Liaoning Province, P.R. China.",39.0278,121.7122,Liaoning,Dalian
"Fujian Evergreen Feed Co., Ltd.",China,"No. 527, Sunshine, Fengming Village, Dongyuan Town, Longhai District, Zhangzhou City, Fujian Province",24.37059,117.89607,Fujian,Zhangzhou
"Novosana(Taicang) Bio Feed Co., Ltd",China,"No. 9 Changzhou Road, Taicang City, Jiangsu, China",,,Jiangsu,Taicang
Exportadora PMT,Costa Rica,"WQM8+R65, San José Province, Brasil District, Costa Rica",9.9351,-84.2348,San José Province,Brasil District
ASK Andaman Ltd,Myanmar,"Myeik Industrial Zone,Myeik Taung Village, Myeik Township,Tanintharyi Region",12.45725,98.62166,,
Valofish,France,"172 Rue Pierre et Auguste Vaneeckhoet, 62480 Le Portel, France",50.722361,1.5849,Samsun,Samsun
DSM Nutritional Products Canada Inc.,Canada,"39 England Ave, Mulgrave, NS B0E 2G0, Canada",45.6178,-61.3954,Nova Scotia,Mulgrave
Abalıoğlu Balık İşleme,Turkey,"Yörükler, 09500 Çine/Aydın, Türkiye / Kocabaş Mah. Ankara Bulv. Abalı Çiftliği No:6 Honaz / DENİZLİ",27.9698189,37.6361879,"Aydın, Aegean Region",09500 Aydın
Iceberg-2 LLC.,Georgia,"7 4400 Larnaca St, Poti, Georgia",42.1668,41.6805,Samegrelo-Zemo Svaneti,Poti
Olvea Fish Oils,France,"110 Rte de Valmont, 76400 Fécamp, France",49.75636,0.394645,Normandy,Fecamp
San Arawa S.A.,Argentina,"Perito Francisco Moreno 2552, V9410KTN Ushuaia, Tierra del Fuego",-54.794587,-68.26695,,
Aller Aqua A/S,Denmark,"Allervej 130, 6070 Christiansfeld, Denmark",55.3578,9.52369,,Christiansfeld
Aksha Fish Meal & Oil Company,India,"Veraval Coastal Highway, Near Narvai Mataji Temple",21.48166,69.76295,Gujarat,"Gosa, Porbandar, 360576"
Sanford Limited trading as ENZAQ,New Zealand,"14 Bristol Street, Blenheim 7274, New Zealand",-41.52965,174.008752,Marlborough,Blenheim
Agustiner S.A.,Argentina,"Calle 1007, entre 1002 y 1004 - Puerto de Mar del Plata - Buenos Aires",-37.9784,-57.5903,Provincia de Buenos Aires,Mar del Plata
Coomarpes Ltda.,Argentina,Calle 1003 E/ 1004 y 1006 - Puerto de Mar del Plata - Buenos Aires,-38.0462,-57.5459,Provincia de Buenos Aires,Mar del Plata
Gihon- Laboratorios Químicos SRL,Argentina,"Calle 6 S/N, Mar del Plata, Provincia de Buenos Aires, Argentina",-38.0015,-57.6648,Provincia de Buenos Aires,Mar del Plata
Al Faizal Dry Fish,India,Prabhas Patan,20.8996,70.39363,Gujarat,"Somnath, Gir Somnath, 362268"
Calvo Conservas El Salvador SA de CV,El Salvador,"Calle Playitas, El Salvador",13.2855,-87.7957,,
IQI BV,United States of America,"3834 Duck Creek Dr Unit A, Stockton, CA 95215",37.935187,-121.22505,,Stockton
Aker Biomarine Manufacturing LLC,United States of America,4494 Campbell Road Houston Texas 77041,29.83724,-95.52722,"Texas County,
Missouri",Houston
WUDI HUAXIANG AQUACULTURE CO.，LTD.,China,No. 30 FULU STREET WUDI COUNTY SHANDONG CHINA,37.73057,117.633263,Shandong,Binzhou
"Wudi Deda Agriculture Co., Limited",China,"26 Gong Yuan Yi Hao Dong Yuan, Cheng Yang Qu, Qing Dao Shi, Shan Dong Sheng, China, 266109",36.2783,120.4027,Shandong,Qing Dao Shi
Bioceval GmbH & Co. KG.,Germany,"Neufelder Str. 44X, 27472 Cuxhaven, Germany",53.8567,8.7174,Niedersachsen,Cuxhaven
Henry Lamotte Oils GmbH,Germany,"Merkurstraße 47, 28197 Bremen, Germany",53.0906,8.7162,Bremen,Bremen
Brim,Iceland,"Hafnarbraut 2-4, 300 Akranes",64.3139,-22.08551,Akraneskaupstaður,Akranes
Brim,Iceland,"Hafnarbyggð 12, 690 Vopnafjörður",65.75525,-14.82537,Akraneskaupstaður,Akranes
Huaneng Bio-technology Co.Ltd,China,"3G2M+66 Xinhua Town, Bayannur, Linhe District, Bayannur, Inner Mongolia, China",41.0539,107.5325,Inner Mongolia,Bayannur
Zhoushan Sinomega Biotech Engineering Co. Ltd,China,"3XMX+RX Dinghai District, Zhoushan, Zhejiang, China",30.0846,121.9999,Zhe Jiang Sheng,Zhoushan
Fujian High Fortune Bio-Tech Corp,China,"China, Fu Jian Sheng, Fu Zhou Shi, Fu Qing Shi, 育才路18-1号 邮政编码: 350307",25.5975,119.3001,Fu Jian Sheng,Fu Zhou Shi
Isfelag,Iceland,"Eyrarvegur 12d, 680 Þórshöfn, Iceland",66.1973,-15.3381,Langanesbyggð,Þórshöfn
Loðnuvinnslan hf. (LVF),Iceland,"Hafnargata 1, 750 Fáskrúðsfjörður",64.92425,-13.9905,Eastern Region,750 Fáskrúðsfjörður
Harinas Patagonicas S.R.L,Argentina,"Nino Incorvay 976, U9120 Puerto Madryn, Chubut, Argentina",-42.7223,-65.0332,Chubut,Puerto Madryn
Huatai Pharma Inc,China,"Development Zone, Xiaohan Town, Deyang City, Sichuan Province, P.R. China",30.7142,104.1214,Sichuan,Deyang
AZROW GUINEE,Guinea,Préfecture de Coyah Quartier Gomboya,,,Kindia,030 Coyah
Nguyen Thi Sau Fish Meal Production Facility,Vietnam,"Ấp Bà Bài, Xã Vĩnh Tế, Vĩnh Tế, Châu Đốc, An Giang, Vietnam // M2HX+56 Chau Doc, An Giang, Vietnam",10.677791,105.048216,An Giang,Chau Doc
NovoSana (Taicang) Bio Feed Co. Ltd,China,"No.  9, Changzhou Road, Taicang Economic Development Zone.",31.3076,120.6295,Sichuan,Su Zhou
"Binzhou City Public Sen Industry And Trade Co., Ltd.",China,"GFMW+V2 Huimin County, Binzhou, Shandong, China",37.5361,117.4972,Shandong,Binzhou
"Qingdao Zhuosidaer International Trading Co., Ltd",China,"Huan Wan Lu, Shi Bei Qu, Qing Dao Shi, Shan Dong Sheng, China, 266042",36.1568,120.3607,Shandong,Qing Dao Shi
"Yutong Industrial Co., Limited",China,"China, Zhe Jiang Sheng, Shao Xing Shi, Zhu Ji Shi, 解放路303号 邮政编码: 311814",29.9216,120.3386,Zhe Jiang Sheng,Shao Xing Shi
"Qingdao Zhenchangshen Commercial And Trade Co., Ltd.",China,"Huan Wan Lu, Shi Bei Qu, Qing Dao Shi, Shan Dong Sheng, China, 266042",36.1568,120.3607,Shandong,Qing Dao Shi
Mien Tay Aquafeed Ltd Co.,Vietnam,"4 Pham Ngoc Thach St., Cai Khe Ward, Can Tho, Ninh Kieu, Vietnam",,,An Giang,Châu Phú District
"Pacific Bio Products, LLC",United States of America,"Warrenton, 1935 NW Warrenton Dr, Warrenton, OR 97146",46.194722,-123.935278,,Newport
Sao Mai Group,Vietnam,"8FMV+HH2, Bến phà Vàm Cống, QL80, Bình Thành, Lấp Vò, An Giang, Vietnam",10.33445,105.494383,An Giang,Lấp Vò
Encompass,United States of America,"2090 SE 12th Pl, Warrenton, OR 97146, USA",46.1525,-123.885833,An Giang,Warrenton
Síldaravinnslan hf (SVN),Iceland,Naustahvammur 67-69 740 Neskaupstaður,65.1397,-13.7366,Fjarðabyggð,Neskaupstadur
Amar Sterilised Fish Meal,India,Jawar Naka,21.64799,69.57801,Gujarat,"Javar Village, Porbandar, 360579"
Panfast Marketing (M) Sdn. Bhd.,Malaysia,"Penang Sciense Park,1102,Jalan Perindustrian Bukit Minyak 18,Taman Perindustrian Bukit Mintak,14100 Simpang Ampat, Penang, Malaysia",5.30072,100.45052,,#REF!
GOLD FIN INTERNATIONAL L.L.C,Oman,"P.O. BOX 2582, AZAIBAH 130 SULTANATE OF OMAN",19.444895,57.709888,Muscat,112 Azaibah
"Rongcheng Rixin Aquatic Products Co., Ltd.",China,"200 meters west of the intersection of Fuhai Road and Yongxing Road, Rongcheng City, Weihai City, Shandong Province",37.1808,122.4456,Shandong,Weihai
Scotia Garden Seafood,Canada,"105 Short Beach Rd, Yarmouth, NS B5A 4A9, Canada",43.9405,-66.1527,Nova Scotia,Yarmouth
Binh Minh Im-Export Joint Stock Company,Vietnam,"National Highway 91, An Thoi Hamlet, My Thoi Ward, Long Xuyen City, An Giang Province",105.465637,10.351,An Giang,Long Xuyen
Ambitious Fishmeal Product,India,"Station Rd, near Kanchan Hotel",17.00218,73.352068,Maharashtra,"Ratnagiri, Ratnagiri, 415639"
Bio-Marine Ingredients Ireland Ltd.,Ireland,"355P+HR Lough Egish Food Park, County Monaghan, Ireland",54.059,-6.8129,County Monaghan,Lough Egish Food Park
"Shandong Hongji Biology Technology Co., Ltd",China,"46JV+PV Chengyang District, Qingdao, Shandong, China",36.9481,122.3872,Shandong,Hezei
"Shandong Rongfeng Bio-Technology Development Co., Ltd",China,"46JV+PV Chengyang District, Qingdao, Shandong, China",36.0011,120.2389,Shandong,Qingdao
BioMar A/S,Denmark,"Mylius-Erichsensvej 35, 7330 Brande, Denmark",55.949,9.12761,,Brande
Rongcheng Blue Ocean Biotech,China,"No.  599 Yunxi Road, Dongwangmen Village, Rongcheng City, Weihai City, Shandong Province",36.8764,122.3597,Shandong,Weihai
"Kalajoen Jäähdyttämö Oy, käsittelylaitos",Finland,SAARELANTIE 5,64.280698,23.915906,"Keski-Pohjanmaa,
Western and Central Finland,
Western Finland,
Mainland Finland",69100 Kannus
"Wudi Fengtai Aquaculture Co., Ltd.",China,"46JV+PV Chengyang District, Qingdao, Shandong, China",36.0011,120.2389,Shandong,Qingdao
Lunar FPR Ltd,United Kingdom,"1 Ship St, Peterhead AB42 1DP, UK",57.5021,-1.7717,"Aberdeenshire,
Scotland",AB42 Peterhead
Marine Biotechnology Products Ltd,Mauritius,"Motorway M2,Riche Terre",-20.13847,57.514221,Pamplemousses District,Port Louis
Ananda Feed Factory,India,"4, Gollavanitippa, Seesali Rd",16.415218,81.457717,Andhra Pradesh,"Kotha Pusalamarru, 534294"
PT. Argopuro Berkat Indonesia,Indonesia,"Jl. Imam Bonjol No. 55, Tukangkayu, Kec. Banyuwangi, Kabupaten Banyuwangi, Jawa Timur 68411, Indonesia",-8.215,114.3766,,
"Qingzhou Ekato Commercial Co., Ltd.",China,"China, Yun Nan Sheng, Kun Ming Shi, Guan Du Qu, 站前路119号 邮政编码: 650200",25.0172,102.7242,Shandong,Weifang
Rongcheng Jinghai Dingqian Xingyang Fish Meal Factory,China,"Dingzhiqian Village, Renhe Town, Rongcheng City, Weihai City, Shandong Province",37.1808,122.4456,Shandong,Weihai
Matti Halme Oy,Finland,"Hirvitie 401, 25250 Märynummi",61.92411,25.748151,"Finland Proper,
South-Western Finland,
Southern Finland,
Mainland Finland",25500 Salo
Síldaravinnslan hf (SVN),Iceland,"Strandarvegur 1- 11, 710 Seyðisfjörður",65.2694,-13.9874,Fjarðabyggð,Neskaupstadur
"Baja Marine Foods,S.A.P.I. De C.V.",Mexico,"Calle Cinco Manzana 8,Lote 3,El Sauzal,C.P.22760",31.894718,-116.706565,Baja California,22850 Ensenada
Rongcheng Xingyang Fishmeal Factory,China,"Dingzhiqian Village, Renhe Town, Rongcheng City, Weihai City, Shandong Province",36.9481,122.3872,Shandong,Weihai
PT. Argopuro Berkat Indonesia,Indonesia,"JG29+4WJ, Krajan II, Wringinanom, Kec. Wringinanom, Kabupaten Gresik, Jawa Timur 61176, Indonesia",-7.4,112.5196,,
"California Bahías, S.A. De C.V.",Mexico,"Calle 1, Lote 6 y 7, Parque Industrial Fondeport El Sauzal de Rodríguez, C.P. 22760, Ensenada, Baja California",31.89976,-116.708626,Baja California,22850 Ensenada
Guaymas Protein Company SA de CV,Mexico,"Lote 3 y 4 Manzana H sin número, Colonia Parque Industrial Pesquero Rodolfo Sánchez Taboada, C.P. 85486, Guaymas, Sonora, México.",27.88309,-110.872404,Sonora,Guaymas
"Industrial Pesquera Heras, S.A. de C.V.",Mexico,"Calle Central Lote 2 Manzana H (14), Colonia Parque Industrial Rodolfo Sánchez Taboada, Guaymas, Sonora México.",19.37366,-99.20933,Sonora,Guaymas
Maz Industrial SA de CV,Mexico,"Estero de Urías sin número Interior C, Colonia Urías, C.P. 82099, Mazatlán, Sinaloa, México.",23.21033,-106.41886,Sinaloa,82000 Mazatlán
Shandong Qilong Group Co. Ltd.,China,"Wudi Encomic and Development Zone, Binzhou, Shandong, China",37.7292,117.6639,Shandong,Binzhou
"Pescaharina de Guaymas, S.A. de C.V.",Mexico,"Calle 1 Sur, Lote 5 Manzana H, sin número, Colonia Parque Industrial Pesquero Rodolfo Sánchez Taboada, C.P. 85486, Guaymas, Sonora, México.",27.91214,-110.89134,Sonora,Mexico
Auqi Marine Bio-Tech Co. Ltd.,China,"No.  54, Jinsanjiao East Road, Caqiao, Xueyan Town, Wujin District, Changzhou City, Jiangsu Province, P.R. China.",31.52,120.0139,Jiangsu,Changzhou
"Shandong Bohai Group Co., Ltd.",China,"No.  100, Kongquehe Sanlu, Jimo District, Qingdao City, Shandong Province",36.3881,120.4469,Shandong,Qingdao
Pestell Nutrition,Canada,"141 Hamilton Rd, New Hamburg, ON N3A 2H1, Canada",43.386,-80.6986,Ontario,New Hamburg
West Coast Reduction Ltd.,Canada,"West Coast Reduction Ltd.
900 Maughan Road
Nanaimo, British Columbia
V9X 1J2",49.14,-123.878,British Columbia,Nanaimo
West Coast Reduction Ltd.,Canada,"West Coast Reduction Ltd.
105 Commercial Drive North
Vancouver, British Columbia
V5L 4V7",49.2849,-123.0713,British Columbia,Nanaimo
Kenney & Ross Limited,Canada,6493 Shore Rd,43.58936,-65.432211,Port Saxon,Nova Scotia
Pelagia Aberdeen,United Kingdom,"Depot, Greenwell Pl, East, Aberdeen AB12 3AY, UK",57.127,-2.075,Scotland,AB12 Aberdeen
Pelagia Greenock,United Kingdom,"20 Drumfrochar Rd, Greenock PA15 4TS, UK",55.9411,-4.7565,"Inverclyde,
Scotland",PA15 Greenock
Pelagia Grimsby,United Kingdom,"5 Gilbey Rd, Grimsby DN31 2SL, UK",53.5801,-0.1018,Alaska,Grimsby
Pelagia Killybegs,Ireland,"36 Parkhead, Corporation, Killybegs, Co. Donegal, F94 RX74, Ireland",54.645,-8.4313,County Donegal,Killybegs
"Procesadora Mar De Ensenada, S. De R.L. De C.V.",Mexico,"Calle Bonardi 148, El Sauzal, C.P 22760",31.907215,-116.695024,Baja California,22850 Ensenada
Manarthon,Tunisia,Route de Benguerden KM. 20 4170 Zarzis,33.5022,11.1118,Muğla,Zarzis
"SERCONOMAR, S.A DE C.V.",Mexico,"Lote 3, Manzana B del Parque Industrial Pesquero, Rodolfo Sánchez Taboada",27.883906,-110.871404,Sonora,85486 Guaymas
"Selecta de Guaymas, S.A. de C.V.",Mexico,"Lote 1 Manzana A, sin número, Colonia Parque Industrial Pesquero Rodolfo Sánchez Tabuada, C.P. 85489, Guaymas, Sonora.",27.8861,-110.9008,Sonora,Guaymas
Sea Pride LLC,Oman,"Plot No 132, Sur Industrial EstatE, Muscat, Oman",,,Ash Sharqiyah,Balad Bani Bu Hassan
Omega Protein Inc.,United States of America,"5735 Elder Ferry Rd, Moss Point, MS 39563, USA",30.4228,-88.5156,California,Eureka
Omega Protein Inc.,United States of America,"9730 Andrew Road Abbeville, LA 70510",29.8219,-92.1333,Louisiana,Abbeville
"Omega Protein, Inc.",United States of America,"610 Menhaden Road Reedville, VA 22539",37.8286,-76.2772,,Reedville
Pacific Seafood,United States of America,"1 Commercial St, Eureka, CA 95501, USA",40.8042,-124.1748,Alaska,Sand Point
Sonac Kiel GmbH,Germany,Ottostraße 8,54.27345,10.15415,"Kiel,
Schleswig-Holstein",24145 Kiel
Skinney-Þinganes,Iceland,"6RX2+V7G, Krosseyjarvegur, 780 Höfn í Hornafirði, Iceland / Miðósi 17",64.2499,-15.199,Sveitarfélagið Hornafjörður,Höfn í Hornafirði
Anhui Xinzhou Marine Biological Products Co. Ltd.,China,"Industrial Park, Daliang Village, Meicun Town, Langxi County, Xuancheng City, Anhui Province, P.R. China.",29.9142,116.495,Anhui,Xuancheng
Sonac Mering GmbH,Germany,Lechfeldstraße 2,48.269063,10.951768,"Landkreis Aichach-Friedberg,
Swabia,
Bavaria",86415 Mering
Aroma (N.Z.) Limited,New Zealand,"12 Senior Place, Bromley",-43.529764,172.693768,"Christchurch City,
Canterbury",8011 Christchurch
"Binzhou Shengying Aquaculture Co., Ltd. (BSY) / BINZHOU CITY SHENGYING AQUATIC PRODUCTS CO., LTD",China,"380 meters east of Liangcai Health Center, Yellow River Seventh Road, Bincheng District, Binzhou City, Shandong Province, P.R. China.",37.4275,118.0233,Shandong,Binzhou
Ocean Aquatic Proteins,Oman,"HGC8+852, Dawanji, Oman",24.570255,56.515935,,#REF!
Mowi Nutrition Goleniów Spolka z o.o.,Poland,"Boczna 14, 72-100 Łozienica, Poland",53.5299,14.7939,Województwo zachodniopomorskie,Łozienica
VSV,Iceland,"Strandvegur 82, 900 Vestmannaeyjabær, Iceland",63.444,-20.277,Vestmannaeyjabær,Vestmannaeyjabær
Manar Thon- Fishmeal,Tunisia,"G3VJ+64V, Dhouiher, Tunisia",33.543182,11.080314,Médenine,Zarzis
Eskja,Iceland,"Strandgata 2, 735 Eskifjörður",65.07576,-14.03014,Eastern Region,735 Eskifjörður
Fóðurverksmiðjan Laxá hf,Iceland,Krossanesi 2,65.7028,-18.1158,Northeastern Region,Akureyri
Trident Seafoods Corporation,United States of America,"46M6+26 Akutan, AK, USA",54.132222,-165.789167,Oregon,Warrenton
Trident Seafoods Corporation,United States of America,"73 Trident Way, Akutan, AK 99553",55.3354,-160.5024,Oregon,Warrenton
Ísfélag Vestmannaeyja hf,Iceland,"Tangagata, 900 Vestmannaeyjabær, Iceland",63.4429093,-20.27074731,Southern Region,Vestmannaeyjar
Ísfélag Vestmannaeyja hf,Iceland,,,,Southern Region,Vestmannaeyjar
"UniSea, Inc.",United States of America,"88 Salmon Way Dutch Harbor, AK 99692",53.88,-166.551944,Đồng Nai,Dutch Harbor
LYSI hf,Iceland,"Fiskislóð 5-9, 101 Reykjavík",64.155448,-21.953711,,Reykjavik
"Trident Seafoods Corporation (Sand Point, AK Shore Plant)",United States of America,"229 Main Street, Sand Point, AK 99661",55.33538,-160.50241,,Sand Point
"Westward Seafoods, Inc.",United States of America,"1 Mile Captain's Bay Rd., P.O. Box 920608 Dutch Harbor, AK 99692",53.871111,-166.543611,,Dutch Harbor/Unalaska (evidently pronounced Uhn rather than Yune)
Daybrook Fisheries Inc.,United States of America,"136 Daybrook Lane Empire, LA 70050",29.3819,-89.5931,Alaska,Empire
Icicle Seafoods Corporation Northern Victor (shore plant),United States of America,"1 Cannery Row, Egegik, AK 99579",-157.37599,58.21529,,Seattle
Icicle Seafoods Corporation Northern Victor (shore plant),United States of America,"88 Salmon Way, Unalaska, AK 99692
",-166.55212,53.880265,,Seattle
"Daybrook Fisheries, Inc.",United States of America,Empire,-89.5933416,29.3819741,"Plaquemines Parish,
Louisiana",Empire
Kodiak Fishmeal Company,United States of America,"915 Gibson Cove Rd, Kodiak, AK 99615; QHH3+QW Kodiak, Alaska",57.77941,-152.445217,"Kodiak Island,
Alaska",Kodiak
Aung Myat Phyo Int'l Fish Meal Plant,Myanmar,"Pa Htaw Kyaye Ywar, Kyun Su Township, Tanintheryi Region.",12.47187,98.453528,,#REF!
Anfal Marine Products,India,"Beside Mudga Fishing Harbour, Port Rd",14.74767,74.229623,Karnataka,"Mudga Post, Amdalli Gram, Uttara Kannada, 581324"
Triada Foods S.A.C.,Peru,"Av. Los Pescadores Mz. A, Lt. 1A-02, Zona Industrial 27 De Octubre",-9.0561,-78.5767,Áncash,Chimbote
"Taiwan Hung Kuo Industrial Co., Ltd.",Taiwan,"No.  7 Te Hsing 7th Rd., Su-Ao, I-Lan, Taiwan, R.O.C",24.63496512,121.8289623,"Yilan County,
Taiwan Province",Suao Township
RENETA SIA,Latvia,"Rīgas - Liepājas šoseja 101C, Saldus pagasts, Saldus novads, LV-3862",56.681901,22.45224,"Saldus novads,
Courland",LV-3801 Saldus
Nacionālās Zvejniecības Ražotāju Organizācija,Latvia,"""Dīriņi"", Blāzma, Puzes pagasts, Ventspils novads",56.981265,24.118054,"Ventspils novads,
Courland",Blāzma
Biovast,Latvia,"BIOVAST Saldus SIA RENETA 101C Rigas-Liepajas highway, Saldus municipality, Saldus parish, LV-3862, Latvia",56.6634,22.4926,Saldus novads,Saldus
Maruha (NZ) Corporation Limited on contract to Sealord Group Limited,New Zealand,"149 Vickerman Street, Port Nelson, Nelson 7010, New Zealand; P7VH+6R Nelson, New Zealand",-41.256534,173.279784,South Island,Nelson
Kalifeks,Latvia,"Akācijas iela 72, Pārolaine, Olaines pagasts, Olaines novads, LV-2127, Latvia",56.785833,23.957778,Olaines novads,Pārolaine
Valofish,Tunisia,Sidi El Heni,35.68042,10.324227,Samsun,Samsun
"Alyeska Seafoods, Inc.",United States of America,"551 W. Broadway Unalaska, AK 99685",53.87815612,-166.5399197,,Unalaska
PT. Argopuro Berkat Indonesia,Indonesia,"P777+Q2 Bareng, Banyuwangi Regency, East Java, Indonesia",-8.2856,114.2626,,
Pacific Bio Products,United States of America,"1935 NW Warrenton Dr.
Warrenton, OR 97146; ",46.1951149,-123.9350673,"Clatsop County,
Oregon",Warrenton
"Pacific Bio Products, LLC",United States of America,"1310 SE Bay Blvd Newport, OR 97365",44.62692839,-124.0356299,,Newport
Ocean Protein Llc,United States of America,"518 22nd St, Hoquiam, WA 98550",46.97397261,-123.8738322,"Grays Harbor County,
Washington",Hoquiam
A&R Nutricao Animal,Brazil,"CP54+V2, Cafelândia - State of Paraná, 85410-000, Brazil",-24.5886,-53.2962,Paraná,Nova Aurora
A&R Nutricao Animal,Brazil,"Av. Ver. João Batista Sanches, 371 - Parque Industrial, Maringá - PR, 87065-130, Brazil",-23.4541,-51.9991,Paraná,Nova Aurora
Kurzeme Fisheries Producers Organization,Latvia,"Jaunlatvieši, Jaunlatvieši, Ārlavas pagasts, Talsu novads, LV-3260, Latvia",57.3465,22.6434,Talsu novads,Jaunlatvieši
Empresa Pesquera Gamma S.A.,Peru,Av. Pascual Corcino N° 126,-9.09714219,-78.56350733,Áncash,Chimbote
Trident Seafoods Corporation,United States of America,"391 Alaska Peninsula Hwy, Naknek, AK 99633, USA",58.7287,-157.0088,Oregon,Warrenton
UAB Nord Baltic Fishery Group,Latvia,"Kārkliņi, Kārkliņi, Ķekava, Ķekavas pagasts, Ķekavas novads, LV-2123, Latvia",56.801944,24.268056,Ķekavas novads,Ķekava
(Quirola),Ecuador,kl 1.5 vía Arenillas- Chacras,-3.5481833,-80.19265,,
Air Buana,Indonesia,"Jl. Tratas No. 11, Dusun Curah, Tambakrejo, Kec. Muncar, Kabupaten Banyuwangi, Jawa Timur 68472, Indonesia",-8.4494,114.34665,,
Dhofar Fisheries & Food Industries Company SAOG,Oman,"Raysut Industrial Area, Road No.  3, Block A/2, PC: 211, Salalah, Oman",16.9727,53.9825,Dhofar Governorate,Raysut
"Venta FM, SIA",Latvia,"XHPC+4CV Alsunga, Alsungas pagasts, Kuldīga Municipality, Latvia
",56.98534185,21.57086287,Kuldīgas novads,Venta
PhilBest Canning Corporation,Philippines,"Talisay, Tambler General Santos City, 346V+X7P, General Santos City, South Cotabato, Philippines",6.0632,125.1438,Region XII,General Santos City
Liaoyu Antarctic Krill Technology Development Co. Ltd.,China,"No.  8-147, Dalianwan, Ganjingzi District, Dalian City, Liaoning Province, P.R. China",,,Liaoning,Dalian
CFG Investment S.A.C.,Peru,"Pasaje Santa Martha N° 704, Zona Industrial 27 De Octubre",-9.104760384,-78.56350516,Áncash,Chimbote
Luhua Biomarine (Shandong) Co. Ltd.,China,"No.  12, Zheng'an North Road, Jibei Development Zone, Jiyang Street, Jiyang District, Jinan, Shandong Province.",37.1186,117.2675,Shandong,Jinan
Arbee Aquatic Proteins Pvt Ltd,India,"AP-II/723, Aroor Industrial Area",9.884354,76.296174,Kerala,"Aroor, Cherthala, Alleppey, 688534"
Arbee Biomarine Extracts Private Limited,India,"Plot No. 13/P2, Thandya Industrial Area",12.158542,76.687173,Karnataka,"Nanjangud, Mysore, 570302"
General Tuna Corporation,Philippines,"XWFP+WHR, Zamboanga, Zamboanga Sibugay, Philippines",6.9747,121.936,Zamboanga Peninsula,Zamboanga
CFG Investment S.A.C.,Peru,Altura Del Km 754 De La Panamericana Sur,-16.61254,-72.70633,Áncash,Chimbote
Mega Fishing Corporation,Philippines,"2506 1, Santo Tomas, 4234 Batangas, Philippines",14.11262026,121.1437513,Batangas,Batangas
Havsbrun,Faroe Islands,"48 Bakkavegur, Fuglafjørður 530, Faroe Islands",62.2389,-6.8035,Eysturoy,Fuglafjørður
Atlantic Marine Products Private Limited,India,"Survey No.  224/1, plot No. 3",20.88165,71.37804,Gujarat,"Jafrabad, Amreli, 365540"
Alliance Select Foods International Inc.,Philippines,"24RR+HHJ, Purok Saydala, Makar - Siguel Rd, Lungsod ng General Santos, 9500 Timog Cotabato, Philippines",6.041481258,125.141374,,General Santos City
CFG Investment S.A.C.,Peru,"Lt. Acumulado A-D, Pasaje Com⁄N N° 180, Zona Industrial 27 De Octubre",-9.1126,-78.562,Áncash,Chimbote
Pesquera Capricornio S.A.,Peru,"Av. Enrique Meiggs N° 1798, Miramar Bajo",-9.0893,-78.5735,Áncash,Chimbote
Pesquera Jada S.A.,Peru,"Mz. B, Lt. 4 Y 5 Zona Industrial Gran Trapecio",-9.1078,-78.5617,Áncash,Chimbote
Corporacion Industrial Milagros Del Mar S.A.,Peru,"Carretera Panamericana Norte Km. 441, Sector La Primavera, Huamanchacate",-9.056,-78.577,Áncash,Chimbote
Beltran Peru E.I.R.L.,Peru,"Av. Brea Y Pari, As N° 151, Zona Ind. Gran Trapecio",-9.056,-78.577,Áncash,Chimbote
Pesquera Capricornio S.A.,Peru,"Av. Prolongación Centenario N° 2620-2628, Zona Los Ferroles",-11.9984,-77.1333,Áncash,Chimbote
Bransomar S.A.C.,Peru,"Av Los Pescadores N° 1200, Zona Industrial 27 De Octubre",-9.1139,-78.5438,Áncash,Chimbote
CFG INVESTMENT S.A.C.,Peru,Av. La Marina N° 370,-10.79290108,-77.74403446,Áncash,Chimbote
Shandong Kangjing Marine Bioengineering Co. Ltd.,China,"Near Provincial Highway 219, Gaomi City, Weifang, Shandong Province",119.9717,36.4731,Shandong,Weifang
Syarikat Kilang Serbok Ikan (Asia) Sdn. Bhd.,Malaysia,"(Factory): Kampung Sematang Pinang, 06600 Kuala Kedah, Kedah.
No. 47, Susuran Tuanku Haminah, Pusat Perdagangan Tuanku Haminah Mergong, Alor Setar, Kedah.",100.30881,6.09457,,#REF!
ALIMENTSA S.A.,Ecuador,"Aparnor - Alborada 5, Km 6., Av Isidro Ayora, Durán 090508, Ecuador",-2.200515724,-79.81358169,Guayas,Durán
FF Skagen A/S,Denmark,"Havnevagtvej 5, 9990 Skagen, Denmark",10.5981,57.7215,Skagen,Skagen
Cantarana S.A.C,Peru,"Calle 3 Mz. A, Lt.s N° 1A, 3, 6, 13, 5A, 5B, De La Zona Industrial Gran Trapecio",-9.108662,-78.564501,Áncash,Chimbote
BALANCEADOS NOVA S.A. BALNOVA,Ecuador,"Vía a la Costa, Guayaquil, Ecuador",-2.1871,-80.019,Guayas,Guayaquil
Avanti Feeds Ltd,India,"Balda vav faliya, Kumbhariya",20.5092318,72.9793537,Gujarat,"Balda, Killa-pardi, 396125"
Thai Union Marine Nutrients GmbH,Germany,"Hansestraße 12a, 18182 Bentwisch, Germany, 459H+62 Bentwisch, Germany",12.177582,54.118066,Rostock,Bentwisch
Aquatic Food Manufacturing Corporation,Philippines,"XX44+6MJ, Zamboanga, Zamboanga del Sur, Philippines",6.955575112,121.9566143,Zamboanga Peninsula,Zamboanga
CFG Investment S.A.C.,Peru,Av. Industrial s/n Ex Fundo Canchamana,-13.4328,-76.1874,Áncash,Chimbote
Agromey Gıda ve Yem San. Tic. A.Ş.Torbalı Yem Fabrikası,Turkey,29 Ekim Mah. Simge Cad. No:22 Yazıbaşı Torbalı / İZMİR,38.22503,27.323,,
CFG Investment S.A.C.,Peru,"Zona Industrial Norte Mza. Vi Lt. A, Puerto Malabrigo",-7.6829,-79.433,Áncash,Chimbote
Pesquera Hillary E.I.R.L.,Peru,"Av. Los Pescadores N° 1150, Mz. A, Lt. 5, Zona Industrial",-9.1139,-78.5438,Áncash,Chimbote
BARACAMAR S.A.,Ecuador,km 1.5 vía Sta. Elena - Guayaquil,-2.2398917,-80.8160806,,
Tangawira Sdn. Bhd.,Malaysia,"Jayadiri Compound, No.  1A, Jalan Jayadiri, P.O.Box 448, 89058 Kudat, Sabah.",116.8501461,6.877635075,,#REF!
Avanti Feeds Limited - SSMD,India,"Unnamed road, Kanuru",16.8639657,81.6924814,Andhra Pradesh,"Atlapadu, East Godavari, 534329"
Avanti Feeds Ltd,India,beside Railway station,17.007284,81.72961,Andhra Pradesh,"Kovvur, Vemuluru, 534350"
CFG Investment S.A.C.,Peru,"Carretera Pisco, Paracas Km 15.5",-13.78210412,-76.238552,Áncash,Chimbote
Pesquera Miguel Angel S.A.C.,Peru,Au. Panamericana Norte. 100,-9.012629,-78.618426,Áncash,Chimbote
Cmm Products S.A.C.,Peru,"Av. Per⁄ Mz. N, Lt. 1-6, Pueblo Joven Villa Marõa",-9.1194,-78.5506,Áncash,Chimbote
Bawa Fish Meal & Oil Co.,India,"15-5/1 Sasihithlu, Mukka",13.031824,74.784847,Karnataka,"Mangaluru, Dakshina Kannada, 574146"
PT. Argopuro Berkat Indonesia,Indonesia,"JG29+4WJ, Krajan II, Wringinanom, Kec. Wringinanom, Kabupaten Gresik, Jawa Timur 61176, Indonesia",-7.4,112.5196,,
PT. Argopuro Berkat Indonesia,Indonesia,"Jl. Imam Bonjol No. 55, Tukangkayu, Kec. Banyuwangi, Kabupaten Banyuwangi, Jawa Timur 68411, Indonesia",-8.215077,114.376695,,
CV Indo Jaya Pratama,Indonesia,"H84P+QHH, Jl. Kedung Rejo, Dusun Kalimati, Kedungrejo, Kec. Muncar, Kabupaten Banyuwangi, Jawa Timur 68472, Indonesia",-8.443,114.3365,,
Marjan Seafood Company,Iran,"6CX7+J9M, Abadan, Khuzestan Province, Iran",30.2486,48.4133,,Cavib-deh
Inversiones Oslo S.A.C.,Peru,"Av. Principal S/N, Zona Industrial Gran Trapecio",-9.0561,-78.5767,Áncash,Chimbote
Pesquera Op7 & Bell S.A.C. / Op7 & Bell S.A.C.,Peru,"Calle 03, Mz. B, Sub Lt. 1 A, Zona Industrial Gran Trapecio",-9.106960638,-78.56186974,Áncash,Nuevo Chimbote
Group Corporation Reye's S.A.C.,Peru,"Av. Principal Mz. C, Lt. 9, 10 Y 11, Zona Industrial Gran Trapecio",-9.1547,-78.5018,Áncash,Nuevo Chimbote
Inversiones Regal S.A,Peru,"Esquina De Las Calles Brasil Y Kennedy S/N, Mz. L. Lt. 1-8, Villa Maria",-9.1462,-78.4993,Áncash,Nuevo Chimbote
Sarana Tani Pratama,Indonesia,"JH8G+JF5, West Tegal Badeng, Negara, Jembrana Regency, Bali, Indonesia",-8.3837,114.576,,
Conservera San Lucas S.A.C.,Peru,"Pueblo Joven Villa Marõa Mz. O, Lt. 1-8",-9.1462,-78.4993,Áncash,Nuevo Chimbote
"Century Pacific Food, Inc.",Philippines,"9500 National Hwy, General Santos City, South Cotabato, Philippines",6.121641152,125.1440814,,General Santos City
Bawa Fishmill & Oil Co.,India,"1-15(1) & 1-15(2), Kotepura",12.834715,74.832957,Karnataka,"Ullal Industrial Area, Mangaluru, 575020"
"Universal Canning, Inc.",Philippines,"XW4X+HQ7, Calle San Isidro, Zamboanga, 7000 Zamboanga Sibugay, Philippines",6.956412136,121.9494144,Zamboanga Peninsula,Zamboanga
Southwest Asian Canning Corporation (SACC),Philippines,"Purok 1, Zamboanga, 7000 Zamboanga del Sur, Philippines",6.975164965,121.9355069,Zamboanga Peninsula,Zamboanga
Bismi Aquatic Products,India,"No 50/1, Paandukudi Rd, Machur Village, Vattanam Post",9.78345,79.04104,Tamil Nadu,"Thondi, Thiruvadanai, Ramanathapuram, 623409"
Sumber Protein,Indonesia,"H85P+2Q3, Dusun Sampangan, Kedungrejo, Kec. Muncar, Kabupaten Banyuwangi, Jawa Timur 68472, Indonesia",-8.4425,114.3371,,
SLORD Development Corporation,Philippines,"FDA Fishport Complex Navotas, Metro Manila, Philippines 1485",14.638435,120.955051,,Manila
FKS Multi Agro,Indonesia,"H86P+4C3, Dusun Muncar, Kedungrejo, Kec. Muncar, Kabupaten Banyuwangi, Jawa Timur 64872, Indonesia",-8.4394,114.3357,,
Copacol (Cooperativa Agroindustrial Consolata),Brazil,"9MCG+C9 Centro, Cafelândia - PR, Brazil",-24.6289,-53.3241,Paraná,Cafelândia
ZC E & L Corporation,Philippines,"XW9P+PXH, Zamboanga, Zamboanga Sibugay, Philippines",6.969326605,121.9374834,Zamboanga Peninsula,Zamboanga
PT. Sahabat Nelayan Jaya Mandiri,Indonesia,"47GX+CH Demangharjo, Tegal Regency, Central Java, Indonesia",-6.873624,109.298914,,
Permex Producer and Exporter Corporation,Philippines,"Zone 8, Calle Fatima, Ayala, 7000, Zamboanga City, Philippines",6.96663763,121.9397445,,#REF!
Bismi Fisheries Pvt. Ltd,India,"R.S.No. 738/1B, Thoduvai Main Road",11.23913664,79.83751255,Tamil Nadu,"Thirumullaivasal, Sirkali, 609113"
Gold Star Seafoods,Philippines,"XWGM+5QV, Zamboanga, Zamboanga Sibugay, Philippines",6.975540891,121.9344047,,#REF!
Fábrica de Conservas - La Gondola Lda,Portugal,"R. Dom Marcos da Cruz Lotes 19-20, 4455-482 Perafita, Portugal; 6883+X3 Perafita, Portugal",41.217438,-8.697254,Matoshinos,Perafita
PT. Sari Laut Jaya Food Products,Indonesia,"Jl Sampangan B1/A, Dusun Kedungrejo, Kec. Muncar, Kabupaten Banyuwangi, Jawa Timur 68472",-8.44102,114.341752,,
PT Sumber Yalasamudra,Indonesia,"Jl. Sampangan No. 19, Dusun Sampangan, Kedungrejo, Kec. Muncar, Kabupaten Banyuwangi, Jawa Timur 68472, Indonesia",-8.4411,114.341,,
"Empresa Figueirense de Pesca, LDA",Portugal,"R. Maj. Humberto Cruz 43, 3090 Figueira da Foz, Portugal / RUA DA VOLTINHA S/N ARMAZENS DE LAVOS",40.1434,-8.846,Coimbra,Figueira da Foz
PT. Toba Surimi Industries,Indonesia,"PQCX+5G8, Pasir Bidang, Sarudik, Central Tapanuli Regency, North Sumatra 22524, Indonesia",1.720479,98.799124,,
AR Global Fishmeal,Indonesia,"6V4Q+49 Glondonggede, Tuban Regency, East Java, Indonesia",-6.79468,111.88834,,
Biji Sesawi,Indonesia,"Desa Kedungrejo, Kec. Muncar, 58252 Jawa Timur // H84P+88 Kedungrejo, Banyuwangi Regency, East Java, Indonesia",-8.44431,114.33578,,
Blue Aqua Products,India,"2/128, Survey no 204, 3B 5B",8.909633,78.175661,Tamil Nadu,"Pattinamartur Village, Ottipadaram, Thoothukudi, 628105"
"Narciso Dias & Filhos, Lda.",Portugal,"Apartado 8 Zona Portuária, Ajuda",39.35318,-9.365073,"Grande Lisboa,
Área Metropolitana de Lisboa",2520-206 Peniche
"Bombana Raya, CV",Indonesia,"Jl. Perkuburan Kel.Lampopala Desa Lampopala, Kec. Rumbia, 93771 Sulawesi Tenggara",,,,
CV SUMBER REJEKI MAKMUR SEJAHTERA,Indonesia,"H82Q+G96, Dusun Stoplas, Kedungrejo, Kec. Muncar, Kabupaten Banyuwangi, Jawa Timur 68472, Indonesia",-8.44867,114.33887,,
Blueline Foods (India) Pvt. Ltd. Unit-IV,India,"Khammam, Devarapalli Rd",17.0633374,81.55309,Andhra Pradesh,"Brundhavanapuram, Bandapuram, Gollagudem, 534316"
Blueline foods India Pvt. Ltd Unit - I,India,"Near Mogaveera Higher Primary School, Beach Rd",12.820523,74.838554,Karnataka,"Ullal, Mangaluru, 575020"
Blueline Foods India Pvt. Ltd Unit - III,India,"Door No. 1-5, Kotepura",12.832806,74.833764,Karnataka,"Ullal, Mangaluru, 575020"
C P Aquaculture-Chennai,India,"104, GNT Rd, Red Hills",13.21458277,80.16910885,Tamil Nadu,"Siruniam, Chennai, 600052"
Coastal Aquatic Proteins,India,"1st Floor, Coastal Building, Goods Shed Rd, behind Rosario School",12.857255,74.835081,Karnataka,"Dakshina Kannada, Mangaluru, 575001"
Diamond Aqua Fishes Meal,India,"2/148, Survey No. 204/3B5B",8.909587,78.175505,Tamil Nadu,"Pattinamartur Village, Ottipadaram, Thoothukudi, 628105"
Fahad Fishmeal & Oil Company,India,"Door No.  1-1-6, Sea Rd",12.837659,74.832018,Karnataka,"Kotepura, Ullal, Mangalore, 575020"
Finley Marine Products,India,"Survey No.  372/2, Uralvoimozhi Rd, Irukanthurai Village Part-II",8.206909,77.662529,Tamil Nadu,"Nakkaneri, Radhapuram, Valliyoor, 627111"
Global Marine Exports,India,"Plot No.  G2, Taloja MIDC Industrial Area",19.06295,73.12095,Maharashtra,"Panvel, Navi Mumbai, 410208"
Godrej Agrovet Limited - Barabanki Plant,India,"Plot C-1/4, Phase 2 Agro Park, Kusri Rd",27.01563667,81.04044359,Uttar Pradesh,"Barabanki, 225001"
Godrej Agrovet Limited - Kondapalli Plant,India,"Plot No.  111A-135, Industrial Development Area",16.645045,80.5525466,Andhra Pradesh,"Kondapally, Krishna, 521228"
Hameed Marine Private Limited,India,"Door No.  2/1-D, Survey No.  886/3C, Irrukandurai Village",8.20932,77.65694,Tamil Nadu,"Radhapuram, Tirunelveli, 627106"
Hind Aquatic,India,Darad Vadh Rd,23.20783,68.708952,Gujarat,"Jakhau, Kutch, 370640"
HKA Bawa & Sons,India,"15-5/1, Sasihithlu, Mukka",13.030958,74.785234,Karnataka,"Mangaluru, Dakshina Kannada, 574146"
Austral Group S.A.A.,Peru,Av. Villa Del Mar S/N (Km. 439),-9.0219,-78.6209,Áncash,Puerto Huarmey
Indo Fish Meal & Oil Company Private Limited,India,"Door No. 1-1/11, Kotepura Beach Rd",12.834017,74.833034,Karnataka,"Ullal, Dakshina Kannada, 575020"
"INDAH KEMILAU ALAM NUSANTARA, CV",Indonesia,"Jl. Jongor Komp. Ppp Jongor Blok B1 No. 17 Dan 18 Kel. Tegalsari, Kec. Tegal Barat, 52111 Jawa Tengah",,,,
Industri Tepung,Indonesia,"JFGC+99R, Jl. Polda Sabari, Manderan II, Puger Kulon, Kec. Puger, Kabupaten Jember, Jawa Timur 68164, Indonesia",-8.37393,113.47082,,
J.M. Sea Foods,India,"Plot No. 315, 316",20.90445,70.39492,Gujarat,"Veraval, Gir Somnath, 362269"
Jaimar Enterprises,India,"5/388, Kovankadu Main Rd",8.692379927,78.09382309,Tamil Nadu,"Palayakkayal, Thoothukudi, 628152"
Janatha Fish Meal and Oil Products,India,Manoor Fisheries Rd,13.523805,74.695512,Karnataka,"Kota, Udupi, 576221"
Ayazım Yem,Turkey,MUSABEY MH. Menemen Maltepe Yolu SK. No: 60/1 MENEMEN -İZMİR,38.6263342,27.0332061,"İzmir, Aegean Region",35660 İzmir
Janatha Ocean Products,India,"Weigh Bridge Campus, 7/191 Irukkanthurai Post",8.208723,77.654258,Tamil Nadu,"Kudankulam, Tirunelveli, 627106"
Jenefa India,India,"Survey No. 764/1,2,3, Vadakku Karacheri Village",8.764907,77.924319,Tamil Nadu,"Srivaikundam, Thoothukudi, 628601"
King Fish Products,India,Bhalpara Part,20.90854,70.3944,Gujarat,"Somnath, Gir Somnath, 362265"
PT Lautan Kembar Sejati,Indonesia,"874X+V9 Purworejo, Rembang Regency, Central Java, Indonesia",-6.69249,111.29831,,
M/s Blueline Foods (India) Pvt. Ltd. Unit-II,India,"Door No. 1-312 Kambla Padav, Kurnad",12.813917,74.936007,Karnataka,"Bantwal, Dakshina Kannada, 574153"
Mangalore Marine Products,India,"Door No. 1-2-1-2, Sea Rd Kotepura",12.834551,74.833435,Karnataka,"Ullal, Dakshina Kannada, 575020"
"Marksmen Aquatic Products, LLP",India,"6/84, Vadakkukariseri",8.766840619,77.93230215,Tamil Nadu,"Vadakkukariseri, Thoothukudi, 628851"
Mulia abadi tepung ikan (Noble perennial fishmeal),Indonesia,"H84P+MQ Dusun Sampangan, Kedungrejo, Banyuwangi Regency, East Java, Indonesia",-8.44342,114.33687,,
Marksmen Marine Products Pvt Ltd,India,"Plot No. 188, Edayar Industrial Development Area, Binanipuram",10.077997,76.308328,Kerala,"Edayar, Ernakulam, 683502"
PT Munchar,Indonesia,"H86R+988, Dusun Sampangan, Kedungrejo, Kec. Muncar, Kabupaten Banyuwangi, Jawa Timur 68472, Indonesia",-8.43912,114.34062,,
Austral Group S.A.A.,Peru,Carr. Costanera N° 1861,-17.571086,-71.356345,Áncash,Puerto Huarmey
MM Ashraf LLP - Manufacturer of Fish Meal and Fish Oil,India,"Plot No: B-14/1, MIDC Mirjole, near Hotel Kanchan",17.001505,73.350506,Maharashtra,"Ratnagiri, Ratnagiri, 415639"
Austral Group S.A.A.,Peru,Av. Prolongaci N Roosevelt N° 1008,-11.5788,-77.2693,Áncash,Puerto Huarmey
Pabrik Tepung Ikan PPP Tegalsari (PPP Tegalsari Fish Meal Factory),Indonesia,"542G+3WW, Tegalsari, Tegal Barat, Tegal City, Central Java 52111, Indonesia",-6.84969,109.12724,,
PT. Bali Omega,Indonesia,"JHH8+6F Cupel, Jembrana Regency, Bali, Indonesia",-8.372022,114.566346,,
Mukka Proteins Limited,India,"Door No. 1-5(1), 1-1/17, 17(1) Kotepura",13.037,74.7874,Karnataka,"Ullal, Dakshina Kannada, 575020"
PT. CNL Maju Bersatu,Indonesia,"4MPQ+QH Panjang Wetan, Pekalongan City, Central Java, Indonesia",-6.862913,109.689053,,
Mukka Proteins Limited,India,"Plot No. 58, Javar Naka",21.651319,69.578141,Gujarat,"Javar Village, Porbandar, 360575"
Ud Samudra Kencana,Indonesia,"JH5H+XWP, Pengambengan, Negara, Jembrana Regency, Bali 82218, Indonesia",-8.390126,114.579818,,
Mukka Sea Food Industries Pvt Ltd,India,"Door No. 14-161 to 164, Sasihithlu Rd, Mukka",13.028752,74.78687,Karnataka,"Mangaluru, Dakshina Kannada, 575021"
Austral Group S.A.A.,Peru,Lot. Santa Elena De Paracas Mz. D Lt 1-6,-13.78910587,-76.24038318,Áncash,Puerto Huarmey
PT Sarifeed Indojaya,Indonesia,"H85R+79 Kedungrejo, Banyuwangi Regency, East Java, Indonesia",-8.4422,114.34101,,
NatNov Bioscience Pvt. Ltd.,India,"Bhagatpur, Khantapda",21.409075,86.831513,Odisha,"Balasore, Balasore, 756043"
PT Pahala Bahari Nusantara,Indonesia,"M4FX+VJF, Pasirsari, Cikarang Selatan, Bekasi Regency, West Java 17530, Indonesia",-6.3249,107.1494,,
NPM Aquatic Fish Links Private Limited,India,Near Kadangode Quarry,10.716096,76.132599,Kerala,"Vellatheri, Thrissur, 680604"
Om Sai Aqua,India,Santhavelur Village,13.702545,79.928511,Andhra Pradesh,"Kuvvakolli, Chittoor, 524121"
Industrias Barda SA de CV,Mexico,"Calle Isla de la Aduana sin número, Parque Industrial Fondeport Yavaros, Huatabampo, Sonora, México.",26.8472,-109.6328,Sonora,Huatabampo
Austral Group S.A.A.,Peru,Pampa Caliche S/N Km. 7.5 Pacocha,-17.571082,-71.356325,Áncash,Puerto Huarmey
Omega Fishmeal And Oil Private Limited,India,"Plot No. G-3, Mirjole Industrial Complex",17.0071,73.33874,Maharashtra,"Ratnagiri, Ratnagiri, 415639"
Pacific Marine Products,India,"Plot No. 1, R.S. No. 1763, Gujarat Industrial Complex",20.905628,70.396948,Gujarat,"Somnath, Gir Somnath, 362268"
Tepung Ikan Bangkit Jaya (Bangkit Jaya Fish Meal),Indonesia,"542J+3HX, Jl. Jongor, Tegalsari, Kec. Tegal Bar., Kota Tegal, Jawa Tengah 52111, Indonesia",-6.850137,109.131503,,
TEPUNG IKAN BYPASS KRIAN,Indonesia,"JH4R+H5 Sidomojo, Sidoarjo Regency, East Java, Indonesia",-7.39364,112.590436,,
Pearl City Marine Products Pvt. Ltd,India,"No. 193/2, 7, 8, Pallakulam Village",9.041476,78.251153,Tamil Nadu,"Ottapidaram, Thoothukudi, 628903"
Prime Bio Proteins,India,"Plot No. 610/1, Gujarat Industrial Complex",20.9027967,70.392642,Gujarat,"Veraval, Gir Somnath, 362269"
Tepung Ikan Manual Muncar (Muncar manual fish meal),Indonesia,"H86R+H5 Kedungrejo, Banyuwangi Regency, East Java, Indonesia",-8.438539,114.340478,,
TEPUNG IKAN MURNI BEKASI (BEKASI PURE FISH FLOUR),Indonesia,"P3Q4+QH Mekarsari, Bekasi Regency, West Java, Indonesia",-6.260578,107.056405,,
Tepung ikan/minyak ikan SBR (SBR fish meal/fish oil),Indonesia,"H82Q+F2 Kedungrejo, Banyuwangi Regency, East Java, Indonesia",-8.448792,114.337608,,
Progress Frozen and Fish Sterilization,India,"Survey No. 15/3, Jawar Naka",18.498703,73.9531515,Gujarat,"Porbandar, Porbandar, 360575"
PT. Sais Jaya Abadi,Indonesia,"JG48+78 Sumberrame, Gresik Regency, East Java, Indonesia",-7.394115,112.515846,,
Quality foods,India,"Plot No. Sb-39 & Sb-50a, Cuncolim Industrial Estate",15.18208,74.03192,Goa,"Cuncolim, South Goa, 403703"
Don Raul S.A.C.,Peru,"Av. Pardo N° 6125, Zona Industrial 27 De Octubre",-9.1159,-78.5367,Áncash,Samanco
Productora Amg S.A.C.,Peru,La Primavera 440 Sector La Huaca,-8.9864,-78.6129,Áncash,Santa
Pesquera Natalia S.A.C.,Peru,Zona Valle De Pescadores,-16.587,-72.7063,Arequipa,Camana
AFRIC AZOTE,Senegal,Avenue Félix Eboué Bel-air BP 909 Dakar,14.6984214,-17.4251288,Dakar,00000 Dakar
CV Bumi Indo,Indonesia,"Jl. Tirta Suam No. 1, Mergelo, Kedundung, Kec. Magersari, Kota Mojokerto, Jawa Timur 61312, Indonesia",-7.46674,112.46107,,
Pabrik Tepung Ikan,Indonesia,"6MVQ+PFJ, Kapitan River, Kumai, West Kotawaringin Regency, Central Kalimantan 74181, Indonesia",-2.75573,111.68871,,
PT Bumi Indo Jaya,Indonesia,"46M2+5J Kramat, Tegal Regency, Central Java, Indonesia // Jl. Raya Tegal - Pemalang No. KM, RW.7, Area Sawah/Kebun, Kramat, Kec. Kramat, Kabupaten Tegal, Jawa Tengah 52181, Indonesia",-6.8635,109.20145,,
PT Indocitra Jaya Sumadera,Indonesia,"Jl. Raya Pati - Juwana No. km 6, Pondohan, Purworejo, Kec. Pati, Kabupaten Pati, Jawa Tengah, Indonesia",-6.73349,111.09176,,
IQI BV,Netherlands,"De Mars 23, 7742 PT Coevorden, Netherlands",52.64437,6.733679,,Coevorden
San Fernando S.A.,Peru,Calle Alberto Briceño N° 217-219,-17.02366846,-72.01980721,Arequipa,Mollendo
Pesquera Hayduk S.A.,Peru,Av. Santa Marina S/N,-9.021,-78.6193,"Ascope,
La Libertad",Rázuri
BISNESMUN S.A.,Ecuador,"P775+XH, Ecuador",-2.293477,-80.737068,Guayas,Guayaquil
Borsea S.A.,Ecuador,KM 12 1/2 Via a Daule junto a Galapesca,-2.0940972,-79.9327278,Guayas,Guayaquil
Pesquera Hayduk S.A.,Peru,Caleta Végueta,-12.06143,-77.06987,"Ascope,
La Libertad",Rázuri
PESQUERA HAYDUK S.A.,Peru,Av. Simon Bolivar S/N,-12.091043,-76.973583,"Ascope,
La Libertad",Rázuri
Pesquera Hayduk S.A.,Peru,"Carretera Pisco, Paracas Km. 17, Lt. B De Lotizaci N Industrial De Santa Elena De Paracas",-13.80025019,-76.24401429,"Ascope,
La Libertad",Rázuri
Raj Fishmeal & Oil Company,India,"Door No. 1-23 B, 3rd Cross, Malpe-Madhwaraj Rd",13.3541,74.7027,Karnataka,"Malpe, Udupi, 576108"
PESQUERA HAYDUK S.A.,Peru,Caleta Végueta,-12.091043,-76.973583,"Ascope,
La Libertad",Rázuri
Pesquera Hayduk S.A.,Peru,Caleta Cata Cata S/N,-17.67822156,-71.36251604,"Ascope,
La Libertad",Rázuri
Pesquera Hayduk S.A.,Peru,Panamericana Norte Km. 163.4,-11.00067178,-77.64737739,"Ascope,
La Libertad",Rázuri
Kakariki Proteins Limited,New Zealand,"1567 Halcombe Road, Halcombe 4779, New Zealand",-40.1291,175.4458,Manawatū-Whanganui,Halcombe
Baysun Su Ürünleri,Turkey,"Karaağaç, 57662 Karaağaç/Dikmen/Sinop",41.6537964,35.3780205,"Sinop, Black Sea Region",57662 Sinop
Intermarket International,Pakistan,"F-16, Sector 50-C, Korangi, Karachi, Pakistan
Postal Address:
309/311, Business & Finance Centre, I.I. Chundrigar Road, Karachi, Pakistan",24.82471,67.17456,,Karachi
Pesquera Hayduk S.A.,Peru,"Av. Playa Norte S/N, Puerto Malabrigo",-7.683605982,-79.43371198,"Ascope,
La Libertad",Rázuri
Agouzzal & CIE S.A.,Morocco,Port d'Essaouira Quartier Industriel B.P. 41,31.5092,-9.7744,,
Compania Pesquera del Pacifico Centro S.A.,Peru,"Playa Norte, Calle 4/N",-7.68768789,-79.43334057,"Ascope, La Libertad",13730 Paiján
Tan Long Seafoods Company,Vietnam,"Tổ 27,ấp An Hải, xã Lộc An, huyện Đất Đỏ, Lộc An, Đất Đỏ, Bà Rịa - Vũng Tàu, Vietnam // F88P+GQ Đất Đỏ District, Ba Ria - Vung Tau, Vietnam",10.466537,107.336742,Bà Rịa-Vũng Tàu,Vung Tau
CORPORACION DE PROYECTOS MULTIPLES MULT .I. PROYECTOS S.A.,Ecuador,ZONA INDUSTRIAL CHANDUY S/N,-2.399837,-80.70089,Santa Elena Province,Chanduy
Tan Tien Fish Meal Processing Factory,Vietnam,"F88Q+64Q, Vũng Tàu - Bình Châu, Lộc An, Đất Đỏ, Bà Rịa - Vũng Tàu, Vietnam",10.465611,107.337759,Bà Rịa-Vũng Tàu,Vung Tau
Truong Phuc Seafood Co. Ltd.,Vietnam,Canh Dien Hamlet - Long Dien Tay Commune - Dong Hai District - Bac Lieu Province.,9.056941,105.406783,Bac Lieu,Dong Hai
Tecnológica de Alimentos S.A. (TASA),Peru,"Caleta Cata Cata, Altura Del Km. 4.5 De La Carretera Costanera Sur",-5.23487,-80.63835,"Barranca,
Lima",Supe
Corporacion De Proyectos Multiples Mult.I.Proyectos S.A.,Ecuador,CDLA. LOS OLIVOS 1 AV. LEOPOLDO CARRERA SOLAR 1 MZ 62 EDIF. OLIVOS TOWER PISO 6 OF 606 - ZONA INDUSTRIAL CHANDUY,-2.399748,-80.700941,,
Beşyem Tarım Hayvancılık Gıda Sanayi ve Ticaret A. Ş.Yem Fabrikası,Turkey,3.Organize Sanayi Bölgesi 83303 Nolu Cad. No: 9 Başpınar / Şehitkamil / GAZİANTEP,37.17636,37.32734,,
Pesquera Diamante S.A.,Peru,Km.15.5 De La Carretera Pisco,-5.074943,-81.0732879,"Barranca,
Lima",Supe
Tecnológica de Alimentos S.A. (TASA),Peru,Carretera Paracas Km 17.1,-13.79749532,-76.24304857,"Barranca,
Lima",Supe
Biomar Sagun Yem Sanayi Ticaret Anonim Şirketi Yem Fabrikası,Turkey,"BioMar-Sagun Yem San. ve Tic. A.Ş.
Söke OSB 1. Cadde No: 27
09200 Aydın
Türkiye",37.75762,27.44048,,
Tecnológica de Alimentos S.A. (TASA),Peru,Av. La Marina N° 369,-10.79525649,-77.74401681,"Barranca,
Lima",Supe
Pesquera Diamante S.A.,Peru,"Playa Norte Lt. 1B-1 y 1B-2, Puerto Malabrigo",-7.689618842,-79.43342304,"Barranca,
Lima",Supe
Shri Rozy Fish Meal and oil,India,Javar Naka,21.659283,69.570232,Gujarat,"Javar Village, Porbandar, 360579"
Siddhivinayak Fish Meal,India,"Plot No. G2, Taloja, Mirjole Industrial Complex",19.0901,73.12103,Maharashtra,"Panvel, Raigad, 410208"
Sonia Marine Exports Private Limited,India,"Mirjole Industrial Complex, Dongrepada",19.078642,73.141724,Maharashtra,"Panvel, Raigad, 410208"
Span Aquatic Products,India,Ullal Industrial Area,12.833264,74.833662,Karnataka,"Ullal, Dakshina Kannada, 575020"
The Waterbase,India,Ananthapuram Village,14.354811,80.139414,Andhra Pradesh,"Ananthapuram, Nellore, 524344"
Tirupati Fish Meal,India,Near Bharat Petroleum,20.889743,71.384802,Gujarat,"Jafarabad, Amreli, 365540"
TJ Marine Products Pvt Ltd,India,"Plot No. B-27/28, Mirjole Industrial Complex",17.003585,73.349969,Maharashtra,"Ratnagiri, Ratnagiri, 415639"
Ullal Fish Meal And Oil Company,India,"Door No. 1-19-1, Sea Rd, Kotepura",12.832987,74.834118,Karnataka,"Ullal, Dakshina Kannada, 575020"
United Marine Products,India,"Plot No. L-28, Cuncolim Industrial Estate",15.18172,74.029563,Goa,"Cuncolim, South Goa, 403703"
"United Marine Products, Ullal plant",India,Ullal Industrial Area,12.8391447,74.831888,Karnataka,"Ullal, Dakshina Kannada, 575020"
Sandhya Marines Ltd.,India,"National Highway 214, Poolapalli Village",16.525081,81.704166,Andhra Pradesh,"Palakollu, West Godavari, 534261"
Yashaswi Fish Meal and Fish Oil Company,India,Katipalla,12.98936,74.87409,Karnataka,"Mangaluru, Dakshina Kannada, 574142"
Htoo Htoo Toe International Company Limited,Myanmar,"Inlay Myaing Industrial Zone South Myeik Qr,Myeik Township Tanintharyi Region.",12.45725,98.62166,,#REF!
Yashaswi Fish Meal and Fish Oil Company,India,"9-184B, Fishing Industrial Area, Post Pithrody",13.2903,74.73054,Karnataka,"Udyavara, Udupi, 574118"
Shree Ulka LLP,India,,13.000239,74.858251,,
Growel Feeds Pvt Ltd,India,"R.S. No.  57, Chevuru Village, Sriharipuram, Panchayat, Mudinepalli, Singarayapalem, Andhra Pradesh 521329, India",16.4233527,81.1583052,,
Çamlı Yem Besicilik San. ve Tic. A.Ş.,Turkey,Selvilitepe OSB Mah. 1453 Cad. No:7 Organize Sanayi Bölgesi 45400 Turgutlu/ Manisa,38.48888,27.64384,,
Godrej Agrovet Limited - Hanuman Junction Plant,India,"Krishna Kaanumolu, Hanuman Junction, Andhra Pradesh 521106, India",16.5869507,80.9681112,Andhra Pradesh,
Gurunathan Aqua Products,India,near Sri isakki amman temple,8.31946,77.92051,Tamil Nadu,"Radhapuram, Tirunelveli, 627651"
Hiravati Marine Products Pvt Ltd,India,"Jawar Naka, Subhashnagar",21.649153,69.578082,Gujarat,"Javar Village, Porbandar, 360575"
Can Kardeşler Su Ürünleri San. Tic. A.Ş. Yem İşletmesi,Turkey,Karaağaç Köyü Güzelceçay Mevkii Dikmen,41.001926,39.73921,"Sinop,
Black Sea Region",57000 Sinop
NPM Fish Meal and Oil Products,India,"NH 138, Pottalurani",8.733185,77.93705,Tamil Nadu,"Ellainayakkanpatti, Thoothukudi, 628851"
Kanpa International Sales.,Pakistan,"15-A / 16A, Deh Ibrahim Hyderi, Korangi Creek, Karachi, Pakistan Postal Address:D-3/D-4, Fish Harbour, West Wharf, Karachi, Pakistan",24.80596,67.1071,,Karachi
Rehoboth Fish Meal & Oil Plant,India,Rehoboth Fish Meal & Oil Plant Rd.,9.099652,78.32345,Tamil Nadu,"Vilathikulam, Thoothukudi, 628851"
Aliment et Proteine Du Nord,Morocco,"Km 24, Route de Tétouan Fahs El Anjra, Tangier, Morocco",35.61100814,-5.664605241,,
Corporacion De Proyectos Multiples Mult.I.Proyectos S.A.,Ecuador,"SITIO COMUNA EL REAL, PARROQUIA CHANDUY, CANTÓN SANTA ELENA, PROVINCIA SANTA ELENA.",-2.399735,-80.700857,,
Almeve SARL,Morocco,Route du Jorf El Youdi B.P. 74,32.25876365,-9.259691606,,
FASA,Brazil,"R. João Eckert, 1000, Cruzeiro do Sul - RS, 95930-000, Brazil",-29.5099,-52.0675,Rio Grande do Sul,Cruzeiro do Sul
Tecnológica de Alimentos S.A. (TASA),Peru,Km.15 Carretera Pisco-Paracas,-16.22865648,-73.60944495,"Barranca,
Lima",Supe
Alpha Atlantic De Sahara Marocaine SA,Morocco,Zone Industrielle,27.9283,-12.9332,Laâyoune-Sakia El Hamra,Tarfaya
M.A. Proteins,Pakistan,"Plot # 121, Sector # 7/A. Korangi Industrial Area, Karachi, Pakistan
Postal Address:
Plot # 19, Sector # 16, Korangi Industrial Area, Karachi, Pakistan",24.84266,67.1544,,Karachi
Tecnológica de Alimentos S.A. (TASA),Peru,Pasaje Santa Rosa N° S/N A.H. Miraflores Alto,-13.78401321,-76.23962007,"Barranca,
Lima",Supe
Can.Kardeşler Su Ürün.San.Ve Tic.A.Ş. Bal.Un.Fab.,Turkey,,41.083257,39.377095,Trabzon,Çarşıbaşı
M/S. Shamsi Industries.,Pakistan,"C-20, IBRAHIM HYDARI, INDUSTRIAL AREA, KORANGI CREEK KARACHI-PAKISTAN",24.80596,67.1071,,Karachi
Harina de Pescado PINDHAGON,Ecuador,AV. PRINCIPAL S/N STA ELENA - COLONCHE,-2.0481,-80.715,,
Narciso Dias & Filhos,Portugal,"9J3M+7X Peniche, Portugal",39.3532,-9.3651,Leiria District,Peniche
Deltagen Ecuador S.A.,Ecuador,km 4 1/2 Sierra Hermosa el Arenal lote 3 y Panamericana norte,-0.1092,-78.4517,,
"Dalyan Su Urunleri ve Gida San. Nak. Tic. Ltd. Sti. (KOBYALAR
GROUP)",Turkey,"Güzelceçay Mevkii Karağaç Dikmen,",41.677576,35.392971,"Sinop,
Black Sea Region",57000 Sinop
DESPROCAR,Ecuador,Santa Rosa,-79.9792083,-3.4405583,,
DIBAR S.A.,Ecuador,"Calle principal, comuna El Real",-80.711625,-2.3921694,,
Dimolfin SA,Ecuador,"R6XR+WM8, San Pablo, Ecuador",-2.1499,-80.7585,Santa Elena Province,240209 Salinas
ECUAFEED S.A.,Ecuador,"PROVINCIA DE SANTA ELENA, CANTÓN SANTA ELENA, PARROQUIA COLONCHE, BARRIO VIRGEN DEL ROSARIO DE LA COMUNA JAMBELÍ, SECTOR LAS PALMAS",-2.046863,-80.714591,,
BEL MEAL,Senegal,Zone Industrielle de Sandiara,14.425794,-16.813539,Thiès Region,23000 Sandiara
Empresa Pesquera Polar S.A.,Ecuador,"Salango Puerto López, Manabí",-1.596319,-80.846835,Manabí,130315 Salango
Exu SA,Ecuador,"J74Q+W5 El Real, Ecuador",-2.3927,-80.712,Santa Elena,El Real
Fortidex S.A.,Ecuador,Km. 1.5 Vía Data Posorja,-2.703285754,-80.24412992,Guayas,Posorja
CIBEL I,Morocco,Zone Portuaire,28.47563515,-11.34286746,Guelmim-Oued Noun,Tan Tan
Khan Traders Fish Meal,Pakistan,"Plot A 342, Block 1 Gulshan-e-Iqbal, Karachi, Karachi City, Sindh, Pakistan",24.922,67.0835,Sindh,Karachi
CIBEL II,Morocco,Zone Industrielle Anza,30.45201,-9.65908,"Agadir Ida-Outanane Prefecture,
Souss-Massa",80752 Anza
Cibel S.A. (Complex Industrial et Commercial Bel Hassan S.A.),Morocco,Complexe Industriel Bel Hassan Quartier Industriel Anza,30.441088,-9.650817,Complexe Industriel Bel Hassan Quartier Industriel Anza,Agadir
Fortidex S.A.,Ecuador,Km. 1.5 De la via El Morro Data de Posorja Planta,-2.701404502,-80.29448339,Guayas,Posorja
COIP (Consortium Industriel De Pêche),Morocco,Rue G Quartier Industriel Anza B.P. 554,30.3228,-9.4894,"Taroudant Province, Souss-Massa",Agadir
Fortidex S.A.,Ecuador,km 19.5 via Durán Tambo,-2.234379972,-79.69927123,Guayas,Posorja
Complexe Industriel des Produits de la Mer (CIPMER) S.A,Morocco,Port d'Agadir B.P. 1711,30.4303,-9.6397,,
Galdecun S.A.,Ecuador,km 7.5 via Manta Mocafuerte,-0.977361,-80.637222,Manabí,Manta
Dardanel Önentaş Gıda Sanayi Anonim Şirketi Balık Unu Fabrikası,Turkey,"Cumhuriyet, İzmir Çanakkale Yolu No:4, 17100 Kepez/Çanakkale Merkez/Çanakkale",40.0921895,26.3991254,"Çanakkale, Marmara region",17100 Çanakkale
Pesquera Diamante S.A.,Peru,Complejo Pesquero S/N,-9.260056556,-78.49373626,"Barranca,
Lima",Supe
Tecnológica de Alimentos S.A. (TASA),Peru,Caleta De Chiguas S/N Km 8.5 Carretera Mollendo Matarani,-17.01571288,-72.06408595,"Barranca,
Lima",Supe
Pesquera Diamante S.A.,Peru,Av. La Marina,-10.7941,-77.7429,"Barranca,
Lima",Supe
Tecnológica de Alimentos S.A. (TASA),Peru,"Av. Los Pescadores,  Zona Industrial 27 De Octubre",-9.114718075,-78.55850777,"Barranca,
Lima",Supe
Ege İz Yem,Turkey,"Merkez Mevkii Gölyeri Sokak No:6, 64902 Kışla/Ulubey/Uşak",38.4887635,29.2437009,"Uşak, Aegean Region",64902 Uşak
GISIS,Ecuador,"R538+W6M, Unnamed Road, Durán, Ecuador
",-2.194299825,-79.83431366,Guayas,Durán
GISIS S.A.,Ecuador,KM 6.5 vía Duran - Tambo,-2.195158,-79.834442,Guayas,Durán
Gümüşdoğa Su Ürünleri Üretim İhracat Ve İthalat A.Ş.Yem Fabrikası,Turkey,dibecik mevkii akyol köyü / Akyol Mahallesi Merkez Sokak No:240/A Milas – MUĞLA,37.2235108,27.6948394,"Muğla,
Aegean Region",Milas
Grupo Varamar,Ecuador,"Q5CM+69 Santa Elena, Ecuador",-2.2294,-80.8166,Santa Elena,Santa Elena
Gürdal Yem Enerji Tarım Gıda Hayvancılık Sanayi ve Ticaret A.Ş. Yem Fabrikası,Turkey,Karacasu - Karaziyaret Mahallesi Fatih Sultan Mehmet Cad. No:26/A Gaziantep Yolu Üzeri 8. Km. Kahramanmaraş,37.54241,36.99458,,
HARINA DE CAMARON HARCAM S.A.S.,Ecuador,"SITIO PORTOVELO, CANTÓN SAN VICENTE",-3.253176,-79.986817,,
İpek Yem ve Gıda San. Tic. A.Ş.-Yem Fabrikası,Turkey,SANAYİ MAH. 60709 NOLU CADDE NO:15 ŞEHİTKAMİL - GAZİANTEP / TÜRKİYE,37.08615,37.41623,,
"New Hope Liuhe Co., Ltd.",China,"No.  1188, Baicao Road, Pixian District, Chengdu City, Sichuan Province",30.7478,103.9583,Shandong,Qingdao
Kardez Su Ürünleri San. Ve Tic. Ltd. Şti. Balık Unu Fabrikası,Turkey,Liman Mah. 2. Sinop Cad. No:124,41.170287,36.709344,"Samsun,
Black Sea Region",Yakakent
HARINA DE PESCADO DE EXPORTACION HARDEPEX CIA. LTDA.,Ecuador,km 4.5 vía Manta- Jaramijó,-0.9487944,-80.647625,,
HARINAS Y CONSERVAS DE PESCADO HARCONPEZ S.A,Ecuador,CIUDADELA URDESA CENTRAL CALLE VICTOR EMILIO ESTRADA # 1107 ENTRE JIGUAS - LAURELES,-2.149656,-80.770399,,
INASA Industrial Aceitera S.A.,Ecuador,Km. 24.5 Via Daule,-2.20188,-79.899034,Guayas,Guayaquil
Pesquera Diamante S.A.,Peru,Prolongaciòn Av. Centenarion N° 1956,-11.9994,-77.1333,"Barranca,
Lima",Supe
Industria Harinera del Pacifico S.A. (INHARIPAC S.A.),Ecuador,JARAMIJO KM 10.5  MANTA-ROCAFUERTE,-0.9939,-80.5975,Manabí,Jaramijó
Karyem Gıda San. İth. İhr. Tic. A.Ş. Yem Fabrikası,Turkey,Keşan Yolu Üzeri D-110 Karayolu 5.km Malkara/TEKİRDAĞ,37.71426,33.58454,,
Pesquera Diamante S.A.,Peru,"Quebrada Agua Lima S/N., Carr. Matarani-Mollendo, Km.6.5",-17.0142,-72.0492,"Barranca,
Lima",Supe
Dinay Bluewave,Morocco,Lot 26 Zone Industrielle Route Martil,35.60675301,-5.312058939,,
Tecnológica de Alimentos S.A. (TASA),Peru,"Panamericana Sur Km 692, Anexo La Punta",-17.686111,-71.331667,"Barranca,
Lima",Supe
Compania Pesquera del Pacifico Centro S.A.,Peru,Av. La Marina 370,-10.79391916,-77.74403856,"Barranca, Lima",11550 Supe
Kiyak Kardesler-Black Sea Co.,Turkey,"Toybelen, 1202 Sokak No:2, 55105 İlkadım/Samsun, Türkiye",41.2942,36.2483,Muğla,Milas
Kılıç Deniz Ürünleri Üretimi İhr.İth. ve Tic. A.Ş. Karma Yem Fabrikası,Turkey,"Kemikler Mahallesi, Güllük - Güvercinlik Arası - 2 Bulvar, No:15/1 Milas-MUĞLA",37.20763,27.6502,,
Koptur Balikcilik Gida San. Nak. ve Tic. Ltd. Sti.,Turkey,Yavuz Grup Yolu 2.km. Çarşıbaşı,41.0744132,39.3863906,"Trabzon,
Black Sea Region",61000 Trabzon
Koptur Balıkçılık Gıda San.Nak.ve Tic. Ltd.Şti. Balık Unu Fabrikası,Turkey,"Merkez Mah. Akmaz Küme Evleri, No:42, 61420 Çarşıbaşı/Trabzon",41.0747966,39.3862986,"Trabzon,
Black Sea Region",61420 Trabzon
ECO VERT PROD,Morocco,Zone Industrielle Gzenaya B Plot 302,35.71371483,-5.89628315,"Prefecture of Tangier - Assilah,
Tanger - Tétouan - Al Hoceima",Tangier
"Marine Acary Production Co.,Ltd",Myanmar,"Yay Kyaw Gyi Kwinn No(917),Ue Pain No(2/8) Katonkani Kyaye Ywar Oke Suu, Bogalaye Tsp, Ayeyarwaddy Region. Oke Suu, Bogalay Township, Ayeyarwaddy Region.",16.286589,95.403879,,#REF!
Min Zar Ni Co. Ltd.,Myanmar,"CJX5+599, Myeik, Myanmar (Burma)",12.4478,98.6096,Tanintharyi Region,Myeik
Industrial Pesquera Junin S.A. JUNSA,Ecuador,"Av. Real Alto, Barrio El Manantial, Chanduy, Provincia de Santa Elena",-2.395,-80.6953,Santa Elena Province,Chanduy
Min Zar Ni Co. Ltd.,Myanmar,"R3XX+9F7, Yangon, Myanmar (Burma)",16.8479,96.0987,Tanintharyi Region,Myeik
Min Zar Ni Co. Ltd.,Myanmar,"4VPP+FW4, Sittwe, Myanmar (Burma)",20.136,92.8874,Tanintharyi Region,Myeik
Lucomercon SA,Ecuador,"4FFP+HJW, Crucita, Ecuador",-0.876,-80.5134,Manabí,Crucita
Musselfeed SE,Sweden,"Hällavägen 57, 474 31 Ellös, Sweden",58.184167,11.469167,Västra Götaland,"Ellös, Orust"
LUIS ANTONIO POZO ASCENCIO,Ecuador,PARROQUIA COLONCHE RECINTO MONTEVERDE,,,,
Manabita de Comercio Mancorsacom S.A.,Ecuador,Via del Pacifico KM 7 –Via Manta – Rocafuerte.,-0.976559,-80.637526,Manabí,Jaramijó
Marine Protein Marprot S.A.,Ecuador,"Urbanización Arroyo Azul, La Pradera, dentro de las instalaciones de EUROFISH",-0.98455,-80.686572,Manabí,Manta
Hai Huong Seafood Joint Stock Company,Vietnam,"Lot No. A8-A9, An Hiep Industrial Zone, Chau Thanh District, Ben Tre Province",106.285443,10.272213,Ben Tre,Chau Thanh
Marine Protein Marprot S.A.,Ecuador,"Av. Hugo Mayo, Urb. Arroyo Azul, Manta-Prov. Manabí",-1.00845017,-80.69089061,Manabí,Manta
Scoular,Myanmar,"Thilawa Industrial Zone, Plot No- 83 & 84, Thanlyin, Kyauk Tan Township. Yangon Division, Myanmar
",16.6719,96.2936,Yangon Region,Yangon
"Vantage Co.,Ltd",Myanmar,"No. 236 Oe Loke Pyin Qr No. 181/182 A/B Inlay Myaing Industrial Zone, Myeik Township, Tanintharyi Region.",12.45677,98.62077,,#REF!
"Yangon Fishery Development Co.,Ltd",Myanmar,"No. 99/B , Seikkann Township:, Zone-3, Yangon Region.",16.79871,96.12967,,#REF!
Aker BioMarine Antarctic AS,Norway,"Anolitveien 1-3, Oslo, Ski 1400, Norway",68.12596,13.85136,,Oslo
Aquarius AS,Norway,8764 LOVUND,66.367331,12.361638,,"Lovund, Lurøy"
Cervonic Ltd.,Mauritius,"Motorway M2,Riche Terre",-20.133612,57.516067,,#REF!
BASF AS,Norway,"Framnesveien 41, 3222 Sandefjord, Norway",59.111549,10.232272,,Oslo
Berg LipidTech AS,Norway,"Sjukenesstranda 62, 6037 Eidsnes, Norway",62.42956,6.33377,,Eidsnes
MULTIPRO_YECTO S.A.,Ecuador,Septor indust. Pto Chanduy,-2.3971,-80.7034472,,
NAGRO S.A.,Ecuador,2kl antes de llegar a Huaquillas,-3.5167806,-80.1804778,,
Negocios Industriales Real S.A. (NIRSA),Ecuador,"7QG4+959, Posorja, Ecuador",-2.724,-80.2445,Guayas,Posorja
Negocios Industriales Real S.A. (NIRSA),Ecuador,"7QJ3+HCM, Posorja, Ecuador",-2.718605,-80.246737,Guayas,Posorja
ECB Company SRL,Italy,"Via Calvenzano, 10, 24047 Treviglio BG, Italy; GH6P+G7 Treviglio, Province of Bergamo, Italy",45.511334,9.585646,Bergamo,Treviglio
Bioceval GmbH & Co KG,Denmark,"Lundagervej 25A, 8722 Hedensted, Denmark",55.7941,9.6711,Hedensted,Hedensted
Generale Conserve S.p.A.,Italy,"Via Corea, 15/17, 07026 Olbia SS; WGR7+6G Olbia, Provincia di Sassari",40.940552,9.513789,Sassari,Olbia
NIRSA S.A.,Ecuador,"Malecón Carlos Baidal Tirsio y Av. Carvajal, Barrio 12 de abril. Posorja",-2.171454,-79.887926,Guayas,Posorja
Kauluan Sdn Bhd,Malaysia,"F-2-15, Blok F, Tingkat 2, Lorong Inanam Kapital 5, Inanam Kapital, 88450 Kota Kinabalu, Sabah
(Factory): Kampung Lubok Poring, Sepanggar, Kota Kinabalu, Sabah, Malaysia",5.98795,116.13058,,#REF!
QL Marine Products Sdn.Bhd.,Malaysia,"Kampung Bolong, P.O.Box 502, 89208, Tuaran, Sabah",6.181033925,116.2279712,,#REF!
Kim Long Fish Meal,Vietnam,"Lô C11, Phú Hài, Thành phố Phan Thiết, Bình Thuận 12000, Vietnam // W4VP+M9 Phan Thiết, Bình Thuận, Vietnam",10.944137,108.135906,Binh Thuan,Phan Thiet
Camau Seafood Processing & Service Joint Stock Corporation,Vietnam,"04, Nguyen Cong Tru Str., Ward 8, Ca Mau City, Ca Mau Province, Vietnam",,,Ca Mau,Ca Mau City
GIL COMES M'LALEH 2,Morocco,Nouveau Port,35.19107619,-6.133722109,"Larache Province,
Tanger - Tétouan - Al Hoceima",92000 Larache
Lucky Fish Uğurlu Balık Üretim Sanayi ve Ticaret A.Ş.,Turkey,"Denizköy, 25 Atanaj Deresi Mevkii, 09270 Didim/Aydın, Türkiye",37.4357874,27.3628227,"Aydın, Aegean Region",09270 Aydın
Nektar Yem ve Yem Katkı Maddeleri Gıda Hayvancılık Sanayi Ticaret Limited Şirketi-Tire,Turkey,"İbni Melek OSB Mah. Tosbi Yol 13 Sk. No: 1/1
Merkez – Tire / İZMİR",38.11476,27.70352,,
Noordzee Su Ürünleri İhracat Sanayi ve Ticaret Anonim Şirketi Yem ve Kedi Köpek Maması Fabrikası,Turkey,Noordzee Su Ürünleri A.Ş. Kocakışla Mahallesi / Güllük / Muğla / TÜRKİYE,37.24186,27.63353,,
NU MEGA INGREDIENTS ECUADOR NMI S.A.,Ecuador,KM 5.5 VIA MANTA - ROCAFUERTE - CANTON JARAMIJO,,,,
NUTRIFISHING S.A,Ecuador,AV. ISIDRO AYORA Y AV. JOSE LUIS TAMAYO CC. POLARIS BLOQUE#3 PISO 1 OF. 11,-2.240198,-80.816212,,
Noordzee Su Ürünleri Söke Yem Fabrikası,Turkey,"Söke OSB, 09220 Söke/Aydın, Türkiye",37.7552987,27.4400928,"Aydın, Aegean Region",Aydın
Golden Lead Import and Export Trade Co. Ltd.,Gambia,Kajabang Quarter,13.1547,-16.7788,Brikama,Gunjurr Bato Sateh (Kajabang)
Ch. Daudruy Van Cauwenberghe,France,"253 Rue Georges Vancauwenberghe, 59640 Dunkerque, France",51.0029,2.3241,Hauts-de-France,Dunkerque
Copalis Industrie,France,"220 Rue du Petit Port, 62480 Le Portel, France",50.7198,1.5787,Hauts-de-France,Le Portel
Groupe Adrien,France,"35 Rue des Émeraudes, 38280 Villette-d'Anthon, France",45.7949,5.1331,Auvergne-Rhône-Alpes,Villette-d'Anthon
Independent Fisheries Limited,New Zealand,"64 Broad Street, Woolston,Christchurch 8023",-43.560995,172.689339,,#REF!
Setalg,France,"83 Rue de Pen Lan, 22610 Pleubian, France",48.857,-3.0773,Bretagne,Pleubian
P D-PESCA,Ecuador,Jaramijó,-0.9747944,-80.6574917,,
Vietnam Food Joint Stock Company,Vietnam,"4573+VQ, Cái Nước District, Ca Mau, Vietnam // KCN Hòa Trung, ấp Hòa Trung, Lương Thế Trân, Cái Nước, Cà Mau, Vietnam",9.1161,105.1524,Ca Mau,Hoa Trung
OLVEA Omega Solutions,France,"110 Rte de Valmont, 76400 Fécamp, France",49.7564,0.3946,Normandie,Fécamp
PEANDRES S.A,Ecuador,Pto Chanduy,-2.3997694,-80.7008639,,
Sealord Group Limited,New Zealand,"149 Vickerman Street, Port Nelson, Nelson 7010, New Zealand",-41.2569,173.2796,Nelson,Nelson
Sing Viet Song Doc Fish Meal Company Limited,Vietnam,"Khóm 7, Trần Văn Thời District, Ca Mau 98406, Vietnam",9.04188,104.835977,Ca Mau,Tran Van Thoi
Biomega AS,Norway,"Skaganeset 15, 5382 Skogsvåg, Norway",60.2689,5.1052,Vestland,Skogsvag
C & H Fish S.A.C.,Peru,"Playa Oquendo N° 657, Fundo San Agustõn",-12.0157,-77.1361,Callao,Callao
Pesquera Centromar S.A.,Ecuador,"J73W+J5V, Chanduy, Ecuador ",-80.70461171,-2.395808541,,
Andecorp S.A.C.,Peru,Av Prolongacion Centenario N° 600,-12.0164,-77.136,Callao,Callao
BLT Berg LipidTech AS,Norway,"Sjukenesstranda 62, 6037 Veibust, Norway",62.430152,6.3345172,,Veibust
ALIMENTOS LOS FERROLES S.A.C.,Peru,Av Prolongacion Centenario N° 1960,-11.986113,-77.133409,"Callao,
Constitutional Province of Callao",Callao
Inversiones Pesqueras Liguria S.A.C.,Peru,"Av. Los Ferroles S/N, Parcela C, Zona Industrial Santo Domingo De Bocanegra",-12.00242174,-77.1308898,"Callao,
Constitutional Province of Callao",Callao
Phuong Dong Seafood Limited,Vietnam,"Lot 17D, Street 05, Tra Noc Industrial Zone, Can Tho City",10.106574,105.704386,Can Tho,Can Tho
Normfeed Su Ürünleri Yem Sanayi Ticaret A.Ş.,Turkey,Subaşı Mah. 229. Sok. No:12 Merkez Torbalı,38.1032219,27.4229919,"Izmir,
Aegean Region",Izmir
King Car Industrial,Vietnam,"Lô A3, Phân khu Formosa, KCN Nhơn Trạch III, Nhơn Trạch, Đồng Nai, Vietnam",10.71908372,106.9328918,Chang Wat Samut Sakhon,Tambon Bang Kachao
Calanus AS,Norway,"Lilandveien 20, 8407 Sortland, Norway / Postboks 207, 8401 SORTLAND",68.7356,15.5191,Nordland,Sortland
Compania Pesquera del Pacifico Centro S.A.,Peru,Av.Industrial Lado Oeste S/N.,-13.44907222,-76.18590845,"Chincha, Ica",11702 Chincha Alta
Pesquera Herco SA,Ecuador,"Parroquia Chanduy, Canton Santa Elena, Provincia de Santa Elena",-2.3956,-80.7071,Santa Elena,Chanduy
Chau Do Joint Stock Company,Vietnam,"Area B5, ThoQuang storm shelter and anchoring of boats, ThoQuang ward, Son Tra district, Da Nang city, Viet Nam",16.101588,108.242181,Da Nang,Tho Quang
Özpekler Insaat Taahhüt Dayanikli Tüketim Mallari Su Ürünleri San. Ve Tic. Ltd. Sti.,Turkey,Deri İhtisas Organize Sanayi Bölgesi Kaklık Mah. 8. Sokak No:2 Honaz /Denizli,37.861793,29.388432,"Denizli,
Aegean Region",Denizli
PINDHAGON S.A.,Ecuador,Comuna Jambelí,-2.0479944,-80.7150861,,
Viet Truong Seafood Processing and Import-Export Co. Ltd,Vietnam,"RMHF+V5R, Vĩnh Niệm, Lê Chân, Hai Phong, Vietnam",20.828641,106.672436,Dong Thap,Lấp Vò District
Asia Fish Oil Corporation,Vietnam,"8FQV+FP7, Bình Thành, Lấp Vò District, Dong Thap, Vietnam",10.3383,105.4945,Dong Thap,Sa Đéc
Mavin Austfeed Joint Venture Company Limited - Mavin Group,Vietnam,"7V78+FJR, Cụm CN Cái Tàu Hạ An Nhơn, Châu Thành, Đồng Tháp, Vietnam",10.262537,105.866249,Dong Thap,Vinh Long
Epax Norway AS,Norway,"Aarsæthervegen 17, 6006 Ålesund, Norway
",62.463747,6.11954,,Ålesund
GC Rieber VivoMega AS,Norway,"Teistholmsundet 5, 6512 Kristiansund, Norway
",63.120016,7.757345,,Kristiansund
Fish oil refinery company IDI,Vietnam,"Bình Thành, Lấp Vò District, Dong Thap, Vietnam // 8FQV+8R Lấp Vò District, Dong Thap, Vietnam",10.338232,105.494598,Đồng Tháp,Lấp Vò
Prometa Yem ve Endüstriyel Yağ San. Tic. A.Ş.,Turkey,İstiklal Kurtpınar OSB Mah. Atatürk Cad. No:20/1 Merkez Muratlı,41.1945297,27.5151371,"Tekirdağ,
Marmara Region",Tekirdağ
Samsun Balıkçılık Su Ürünleri Hayv. İnş. Tur.Plas. Meş. San. Tic. Ltd. Şti.,Turkey,"Aktekke, Bafra OSB, Bafra/Samsun",41.5070293,35.8495787,"Samsun,
Black Sea Region",Samsun
Samsun Balıkçılık Su Ürünleri San. Tic. Ltd. Şti.- Yem Fabrikası,Turkey,Kıran Mah. Toybelen Yolu 11. Km No:328/2 ilkadım Samsun,41.30415,36.2506,,
Serhan Company Tar. Gıda İnş. Pet. Kuyumculuk San. ve Tic. Ltd. Şti-Yem Üretimi,Turkey,"Organize sanayi bölgesi 1. Bulvar No: 24/2, Artuklu/Mardin",37.28218,40.67082,,
LTD MBM,Georgia,,,,,
Sibal Plastik ve Su Ürünleri Değerl. San. ve Tic. A.Ş. Yem Fabrikası,Turkey,Birlik Cad. No:18 Beysan San.Sit. Beylikdüzü / İSTANBUL,41.00262,28.68168,,
IDI Corporation,Vietnam,"8FPV+P9V, Bình Thành, Lấp Vò, Đồng Tháp, Vietnam",10.336663,105.493303,Đồng Tháp,Lấp Vò
Procesadora Exportadora del Pacifico S.A. PROEXPCSA,Ecuador,"Juan Pereira, y, Pedernales 131001, Ecuador; XVPR+RQ Pedernales, Ecuador",-0.0134874,-80.1082993,Manabí,Pedernales
TRISEDCO - Fish Meal Fish Oil Factory Pangasius,Vietnam,"Bình Thành, Lấp Vò District, Dong Thap, Vietnam",10.338818,105.495325,Đồng Tháp,Lấp Vò
M/s. A-ONE FISH MEAL,Pakistan,"Plot No.  C-6, C-8, Ibrahim Hyderi, Industrial Area, Korangi Creek, Karachi, Pakistan.",24.82471,67.17456,,Karachi
Kovie Vina Co. Ltd.,Vietnam,"Lot D, Binh Long industrial zone, Binh Long commune, ChauPhu district, An Giang province, Viet Nam",10.564946,105.250693,Đồng Tháp,Lấp Vò District
Productora Marvivo S.A. PROMARVI,Ecuador,"El Real, Chanduy",-2.3919528,-80.7148194,,
Productos Pesqueros S.A. Produpes,Ecuador,Km 3 1/2 Via Barranco Prieto Manta-Manabi,-1.0122,-80.6888,Manabí,Manta
Proteina de Ecuador Ecuaprotein S.A.,Ecuador,Lotización Fincas Vacacionales Las Brisas Solar 19,-2.203728,-79.829393,Guayas,Durán
Proveedores de la Costa Provecosta CIA. LTDA.,Ecuador,BARRIO CONCHA ALVAREZ (VIA PANAMERICANA) - CANTON SANTA ROSA - EL ORO,,,,
REMO ROHN S.A.,Ecuador,Anconcito,-2.3355556,-80.8911444,,
Sibal Pls. ve Su Ürn.Değ.San.ve Tic. A.Ş. Balık Unu Fabrikası,Turkey,"Lala Mevkii, Gerze / SİNOP",41.870172,35.1032721,"Sinop,
Black Sea Region",Sinop
Hawkes Bay Protein Limited,New Zealand,"50 Waitangi Road, Awatoto, Napier 4110, New Zealand",-39.5425,176.9186,Hawke's Bay,Napier
VinhHoan Corporation,Vietnam,"National Road 30, Ward 11, Cao Lanh City, Dong Thap, Viet Nam",10.5034318,105.5652277,Dong Thap Province,Cao Lanh
Fish meal and fish oil procesing factory- Vinh Phuoc Food Company Limited.,Vietnam,"7V77+64V, Ấp An Phú, Xã, An Nhơn, Châu Thành, Đồng Tháp, Vietnam",10.263003,105.863862,Dong Thap Province,Chau Thanh
Pesquera 2020 S.A.C.,Peru,Av. La Marina S/N,-10.7499,-77.7597,Gobierno Regional de Lima,Barranca
Skretting Yem Üretim Tic. A.Ş,Turkey,"Kocakışla Mahallesi, Hocatönü Mevkii Güllük, 48670 Milas/Muğla, Türkiye / Ekinanbarı Mah. Kocakışla Sokak No:5 48670
Güllük Milas, Muğla - Türkiye",37.2369091,27.6561108,"Muğla,
Aegean Region",Güllük
Sursan Aqua,Turkey,8G996JQX+78,37.2382,27.6483,Samsun,Samsun
Rosmei SA,Ecuador,"“Manantial de Chanduy” Enclosure, Chanduy Parish, Santa Elena Canton, Santa Elena Province",-2.4064,-80.6925,Santa Elena,Chanduy
ROSMEY S.A.,Ecuador,"Barrio Pto. Nuevo, Canduy",-2.3890611,-80.6951056,,
M/S Balochistan Marines Products，Pakistan,Pakistan,"Village Shanka Nidar, Main Coastal Highway, Gwadar,Pakistan. Plot#389/390,Main Ibrahim Hyderi, Industrial, Korangi, Karachi,Pakistan",24.82471,67.17456,,Gwadar
Segundo Felipe Asecncio Rivera,Ecuador,Comuna Jambelí,-2.0464194,-80.714675,,
Industrial Don Martin S.A.C.,Peru,Av. Pedro Luna Arrieta N° 479,-11.1211,-77.6123,Gobierno Regional de Lima,Huacho
Pioneer Fishing (Pty) Ltd,South Africa,SANDY POINT HARBOUR ST HELENA BAY,-33.9209,18.4236,Western Cape,St Helena Bay
Pesquera Nemesis S.A.C.,Peru,Av. Bahia De Marineros S/N,-11.4978,-77.2151,Gobierno Regional de Lima,Huaral
TASA,Peru,Caleta Végueta S/N,-17.0158,-72.0636,Gobierno Regional de Lima,Supe
TASA,Peru,Caleta Cata Cata Alt. Km 4.5 De La Carretera Costanera Sur,-9.2579,-78.4963,Gobierno Regional de Lima,Supe
Pak China Fish Meal,Pakistan,"K.E-01,Sachay Dino Syed Para Rehare Landhi,Karachi ,Pakistan",24.84462,67.20139,,Karachi
TASA,Peru,Carretera Pisco Paracas Km. 17.1 / Km. 15.5 De La Carretera Pisco-Paracas,-11.00693173,-77.65232602,Gobierno Regional de Lima,Supe
TASA,Peru,Caleta Chiguas Km. 8.5,-17.6757,-71.3637,Gobierno Regional de Lima,Supe
TASA,Peru,"Sub Lt. 3A -1B, Zona Industrial",-13.7975,-76.2428,Gobierno Regional de Lima,Supe
TASA,Peru,"Av. Nestor Gambeta Km. 14.1-Ex Fundo Márquez, Callao Norte",-11.9566,-77.1334,Gobierno Regional de Lima,Supe
Tecnológica de Alimentos S.A. (TASA),Peru,Tierra Colorada,-7.694242105,-79.43461271,Gobierno Regional de Lima,Supe
TripleNine,Denmark,"Sydhalevej 14, 7680 Thyborøn, Denmark",56.6992,8.2195,Thyborøn,Thyborøn
TripleNine,Denmark,"Fiskerihavnsgade 35, 6700 Esbjerg, Denmark",55.4688,8.4338,Thyborøn,Thyborøn
C.P. Vietnam Corporation,Vietnam,"C.P. Vietnam Corporation, 2, 2A Street , Bien Hoa Industrial Zone II ,Bien Hoa City, Dong Nai Province, Long Bình Tân, Biên Hòa, Đồng Nai, Vietnam",10.9094,106.8534,Hải Phòng,Lê Chân
Vietnam Food Hau Giang Joint Stock Company,Vietnam,"Khu công nghiệp, Đông Phú, Châu Thành, Hậu Giang, Vietnam",9.961263,105.849413,Hau Giang,Dong Phu
Pesquera Juanita S.R.L.,Peru,Calle Siete S/N Lt. 1,-11.0874,-77.628,"Huaural,
Lima",Caleta de Carquín
Industrial Maule Ltda,Chile,"AV FORESTAL 1100 PARQUE INDUSTRIAL,
CORONEL, REGION DEL BIO",-36.97598,-73.17365,,
Seimar,Ecuador,"Q57H+HJ Santa Elena, Ecuador",-2.236,-80.821,Santa Elena,Santa Elena
Industrial Maule Ltda,Chile,"Av. Golfo De Arauco 3638, 4191781 Concepción, Coronel, Bío Bío, Chile",-36.9698,-73.1677,,
Industrias Isla Quihua S.A.,Chile,AV MATTA 203 LOTA REGION DEL BIOBIO,-37.09485,-73.15792,"Provincia de Concepción,
Biobío Region",Lota
Procesadora del Campo S.A.C.,Peru,Av. San Martín N° 680,-11.08838643,-77.62748243,"Huaural,
Lima",Caleta de Carquín
Pesca Peru Tambo De Mora Norte S.A.,Peru,Av. Industrial S/N,-13.4195,-76.1337,Ica,Chincha Alta
Transmarina Del Peru Sociedad Anonima Cerrada - Transmarina Del Peru S.A.C.,Peru,"Mz. E Lt.s 01 Y 02, Urbanizacion Lotizacion Industrial Santa Elena De Paracas",-13.7786,-76.2372,Ica,Pisco
TECNOLOGICA DE ALIMENTOS S.A.,Peru,Carretera Costanera Sur Km. 4.5,-17.6794,-71.3633,"Ilo,
Moquegua",18601 Ilo
Biomar Ercilla,Chile,"Ruta 5 Km 1076 Pargua, Calbuco, Región de Los Lagos",-73.42621805,-41.77939111,"Provincia de Llanquihue,
Los Lagos Region",Bahía Pargua
Sardinas de Sonora SA de CV,Mexico,"Calle sin nombre, Lote 2 Manzana B D, Parque Industrial Pesquero Rodolfo Sánchez Taboada, C.P. 85489, Guaymas, Sonora, México.",27.8767,-110.8728,Sonora,Guaymas
Grontvedt Nutri,Norway,"Havneveien 1, 7142 Uthaug, Norway",63.7276,9.591,Trøndelag,Uthaug
Ecopelag AB,Sweden,"Båtvägen 6, 593 50 Västervik, Sweden",57.74757548,16.67361185,Kalmar,Västerviks Kommun
TECNOLOGICA DE ALIMENTOS S.A.,Peru,Carretera Panamericana Sur Km. 692,-16.2287793,-73.69521877,"Ilo,
Moquegua",18601 Ilo
Corporacion Pesquera Inca S.A.C.,Peru,"Caleta Cata Cata, Parcela A-1",-17.68423,-71.36815883,"Ilo,
Moquegua",18601 Ilo
Corporacion Pesquera Inca S.A.C.,Peru,"Calle Alcatraz N° 177, Distrito Chancay",-11.57884194,-77.26743359,"Ilo,
Moquegua",18601 Ilo
Corporacion Pesquera Inca S.A.C.,Peru,"Sub-Lt. B S/N, Puerto Malabrigo",-7.708495413,-79.410536,"Ilo,
Moquegua",18601 Ilo
Productos Pesqueros de Guaymas,Mexico,"R. Sanches, Lote 3 y 4 manzana H, Sánchez Taboada s/n, Gral Rodolfo Sánchez Tabo, 85486 Guaymas, Son., Mexico",27.87967,-110.87012,Baja California,Guaymas
Corporacion Pesquera Inca S.A.C.,Peru,"Calle 2 (Calle El Milagro) N° 101, Mz. E, Lt. O, Zona Lotizacion Industrial Gran Trapecio",-9.1092,-78.5614,"Ilo,
Moquegua",18601 Ilo
Hofseth BioCare,Norway,Stormyrvegen 52,62.690981,6.669082,Møre og Romsdal,Midsund
Africa Peche,Mauritania,Zone Industrielle De Bountiya,20.9128,-17.0308,Dakhlet Nouadhibou,Nouadhibou
Africa Proteine,Mauritania,Lot 27 Zone Industrielle De Bountiya,20.913856,-17.031879,Dakhlet Nouadhibou,Nouadhibou
Al Watania Pour la Peche,Mauritania,PK 65,18.5978,-16.0992,Nouakchott,North Nouakchott
Alfa Service Ltd,Mauritania,Ilot 37/39 Zone Industrielle De Bountiya,20.9139878,-17.0279578,Dakhlet Nouadhibou,Nouadhibou
Pesquera Rubi S.A.,Peru,Caleta De Cata Cata Carretera Costanera Sur,-17.68258771,-71.37146203,"Ilo, Moquegua",18601 Ilo
Hordafor AS,Norway,"Fiskerihamnvegen 42 Salthella, 5397 Bekkjarvik",60.00317,5.11618,,Bekkjarvik
Long Sinh Company Limited,Vietnam,Factory address: Lot B5 & B6 - Suoi Dau Industrial Park - Suoi Tan Commune - Cam Lam District - Khanh Hoa Province,12.150785,109.06992,Khanh Hoa,Cam Lam
ATLANTIC PECHE,Mauritania,Zone Industrielle De Bountiya,20.91251471,-17.03355516,Dakhlet Nouadhibou,Nouadhibou
Atlantic Protein,Mauritania,Zone Industrielle De Bountiya,20.91251471,-17.03355516,Dakhlet Nouadhibou Region,Nouadhibou
Qingdao Kangjing Marine Biotechnology Co. Ltd.,China,,,,,#REF!
Minh Tam Fish Meal Processing Company Limited,Vietnam,"V47J+GC8, QL63, Bình An, Châu Thành, Kiên Giang, Vietnam",9.863827,105.131206,Kien Giang,Chau Thanh
Karmsund Protein AS,Norway,"Husøyvegen 141, 4262 Avaldsnes",59.33793,5.29159,,Avaldsnes
Atyfen SARL,Mauritania,Zone Industrielle De Bountiya,20.9146,-17.028453,Dakhlet Nouadhibou,Nouadhibou
"Tac Cau Fish Meal Processing Area
",Vietnam,"V44M+GVG, Bình An, Châu Thành, Kiên Giang, Vietnam",9.856337,105.13505,Kien Giang,Chau Thanh
"Minh Tâm Fishmeal Co.,Ltd",Vietnam,"X49C+4HM, Phường An Bình, Rạch Giá, Kiên Giang, Vietnam",9.967822,105.121462,Kien Giang,Rach Gia
Pesquera Z Y T S.A.C.,Peru,"Panamericana Norte Km. 191.3, Sub Lt. No 2, Fundo San Jose, Barrio Reparticion",-7.3395,-79.5033,La Libertad,San Martín de Porres
Fishpro Nor Peru S.A.C.,Peru,Zona Industrial Km. 45.3 Carretera Sullana-Paita,-8.138,-79.0272,La Libertad,Trujillo
Alimentos Finos Del Pacifico S.A.,Peru,"Calle Bahía Paracas S/N Zona Industrial, Los Ferroles",-12.002401,-77.128718,Lima,Callao
Fiordo Austral S.A,Chile,"Loteo Ruze Canadon 33, Porvenir Chile",-70.3891,-53.2908,Magallanes y la Antártica Chilena,Porvenir
Fiordo Austral S.A,Chile,"Jose María Caro N° 600 Puerto Chacabuco, Chile",-72.8202,-45.4569,Magallanes y la Antártica Chilena,Porvenir
Fiordo Austral S.A,Chile,"42°22'33.7""S 73°45'42.1""W, Castro, Los Lagos, Chile",-73.7617,-42.376,Magallanes y la Antártica Chilena,Porvenir
Fiordo Austral S.A,Chile,"Sector La Campana S/N, Calbuco, Region De Los Lagos, Chile",-73.1953,-41.6657,Magallanes y la Antártica Chilena,Porvenir
Aussie Group SARL,Mauritania,Zone Industrielle De Bountiya,20.912161,-17.029783,Dakhlet Nouadhibou Region,Nouadhibou
Fiordo Austral S.A,Chile,"Parque Industrial Escuadron, Primera Etapa, Sitio 14, Coronel, Region del Bio Bio, Chile",-73.1617,-36.9533,Magallanes y la Antártica Chilena,Porvenir
C.P.A.A. Sarl (Coopérative de Produits Artisanaux de l’Atlantique),Mauritania,Zone Industrielle De Bountiya,20.91251471,-17.03355516,Zone Industrielle De Bountiya,Nouadhibou
Cofrima Proteine,Mauritania,Lot 23 zone Bountiya-Nouadhibou-Mauritanie,20.9121661,-17.0326748,Dakhlet Nouadhibou,Nouadhibou
Comapeche Farine S.A.,Mauritania,Lot 13 Zone Industrielle De Bountiya,20.9121661,-17.0326748,Dakhlet Nouadhibou,Nouadhibou
Fiordo Austral S.A,Chile,"Av. Esq. Blanca 1117, 9260032 Maipú, Región Metropolitana, Chile",-70.7316,-33.5117,Magallanes y la Antártica Chilena,Porvenir
Princess Brand Processing,Namibia,"98 Ben Amathila, Walvis Bay, Namibia",-22.9364,14.5128,Erongo Region,Walvis Bay
Fiordo Austral S.A,Chile,"Arturo Prat 1131, 9380162 Lampa, Región Metropolitana, Chile",-70.8698,-33.2882,Magallanes y la Antártica Chilena,Porvenir
Fiordo Austral S.A.,Chile,"Parque Industrial Escuadrón, Primera Etapa, Sitio 14, Coronel, BioBio Region",-73.17365,-36.97598,,
Pesquera Exalmar S.A.,Peru,"Av. Industrial N° 690 Zona Industrial, Caleta Carquin",-11.08797664,-77.62594234,Lima,Callao
Continental Sea Food SA,Mauritania,Zone Industrielle De Bountiya,20.911688,-17.031606,Dakhlet Nouadhibou,Nouadhibou
Sanford Limited,New Zealand,11 Madden St,-36.841388,174.754927,Auckland,2583 Auckland
Edayre,Mauritania,Zone Industrielle De Bountiya,20.91251471,-17.03355516,South Nouakchott,South Nouakchott
Faro Farine SARL,Mauritania,Lot 8 Zone Industrielle De Bountiya,20.9128,-17.0308,Dakhlet Nouadhibou,Nouadhibou
FH Procurement SARL (connected to SICOP),Mauritania,"Lot 05, Zone Industrial, Bountiya Nouadhibou",20.907726,-17.042176,,Nouadhibou
Sanford Limited,New Zealand,"23 Vernon Street, Riverlands",-41.531188,174.012085,Auckland,2583 Auckland
FIMOL SARL,Mauritania,"Beach Trail, Tamzakt",17.758733,-16.0415,South Nouakchott,South Nouakchott
Sanford Limited,New Zealand,"20 Hall Street, Timaru Port, Timaru 7910, New Zealand",-44.3853,171.2582,Auckland,2583 Auckland
Sociedad Pesquera Landes S.A.,Chile,"Isla Rocuant S/N, Talcahuano, Bío Bío, Chile",-73.1036,-36.7285,Bío Bío,Talcahuano
"Hongdong International (Mauritania) Fishery Development Co.,Ltd., Mauritania",Mauritania,Zone Industrielle De Bountiya,20.91251471,-17.03355516,Dakhlet Nouadhibou,Nouadhibou
IDAYRA PECHE Sarl,Mauritania,Pole Halieutique Vernana PK 28,17.9939,-16.025,Nouakchott,Nouakchott
Corpesca S.A.,Chile,"Av. Arturo Prat 32, Barrio Industrial, Iquique, . Chile / Av. Arturo Prat 33, Barrio Industrial, Iquique, . Chile",-70.14016,-20.21266,"Provincia de Iquique,
Tarapacá Region",Iquique
Corpesca S.A.,Chile,"Av Costanera Norte 1050, Sector Barrio Industrial, Mejillones, Chile",-70.39378,-23.07762,"Provincia de Iquique,
Tarapacá Region",Iquique
Sanford Limited,New Zealand,"North Mole, Hall Street, Timaru (Home port)",-44.3853,171.2582,Auckland,2583 Auckland
Inchiri Entreprenariat Sarl,Mauritania,Lot 64 Zone PK 28,17.9939,-16.025,Nouakchott,Nouakchott
Industrielle Proteine Magrebine,Mauritania,Zone PK 28,17.9939,-16.025,South Nouakchott,South Nouakchott
Trio SpA,Chile,"Av. Esq. Blanca 1117, 9260032 Maipú, Región Metropolitana, Chile",-33.5118,-70.7316,Región Metropolitana,Maipú
Janatha Inter Fish Protein,Mauritania,Zone Industrielle De Bountiya,20.91251471,-17.03355516,Dakhlet Nouadhibou,Nouadhibou
CSF Proteins Pty Ltd,Australia,"4777 Old Northern Rd, Maroota NSW 2756, Australia",-33.4335,150.9982,Victoria,Laverton North
Bakels Edible Oils (NZ) Limited,New Zealand,"5 Hutton Place, Mount Maunganui 3116, New Zealand",-37.6613,176.2,Bay of Plenty,Mount Maunganui
Alimentos Marinos S.A. ALIMAR,Chile,"Malaquías Concha 1260, 4261459 Talcahuano, Bío Bío, Chile",-36.7258,-73.1274,Bío Bío,Talcahuano
Jin Zhuang Fishing Company,Mauritania,PK 65,18.5978,-16.0992,Nouakchott,Nouakchott
Lemseafood,Mauritania,Lot 22 Zone Industrielle De Bountiya,20.9131784,-17.0314566,Dakhlet Nouadhibou,Nouadhibou
M.O.C.V Sarl,Mauritania,"Beach Trail, Tamzakt",17.751662,-16.041612,Dakhlet Nouadhibou,Nouadhibou
Mah el Turk SARL,Mauritania,Lot 10 Zone Industrielle Bountiya,20.9128,-17.0308,Dakhlet Nouadhibou,Nouadhibou
Bluff Proteins Limited,New Zealand,"284 Foreshore Road, Bluff 9814, New Zealand",-46.5955,168.3292,Southland,Bluff
Los Glaciares S.A.,Chile,"RUTA V 815 KM. 52, SECTOR PANITAO ALTO. Chile",-41.520025,-73.042483,"Provincia de Llanquihue,
Los Lagos Region",Puerto Montt
Blumar SA,Chile,"Avenida Bernardo O'Higgins No 300, Corral, Region de Los Rios, Chile",-39.8913,-73.4246,Los Ríos,Corral
PVL Proteins Limited,New Zealand,"851 Great South Road, Mount Wellington, Auckland 1060, New Zealand",-36.9339,174.8344,Auckland,Auckland
Blumar SA,Chile,"Av. las Industrias 1190, Burro Muerto, Caldera, Atacama, Chile",-27.0516,-70.8061,Los Ríos,Corral
Siquality S.A.,Ecuador,km 110 vía Guayaquil - Salinas,-2.11609,-79.938515,,
Seadragon Marine Oils Limited,New Zealand,"12 Nayland Road, Stoke, Nelson 7011, New Zealand",-41.2992,173.2384,Nelson,Nelson
Sealord Group Limited,New Zealand,"149 Vickerman Street, Port Nelson, Nelson 7010, New Zealand",-41.2569,173.2796,Nelson,Nelson
Blumar SA,Chile,"Gran Bretaña 1055, 4271543 Talcahuano, Bío Bío, Chile",-36.7381,-73.1148,Los Ríos,Corral
Blumar SA,Chile,"PEDRO MONTT 667 SAN VICENTE
TALCAHUANO
REGION DEL BIOBIO",-36.7246,-73.1304,Los Ríos,Corral
The New Zealand King Salmon Co. Limited,New Zealand,"17 Bullen Street, Tāhunanui, Nelson 7011, New Zealand",-41.2931,173.2446,Nelson,Nelson
Pro Fishmeal and Oil- Eesti Kalatootjate Keskuhistu,Estonia,"Kadaka tee 10, Paldiski, 76806 Harju maakond, Estonia",59.3796,24.0788,Harju maakond,Paldiski
Salmonfarm,Finland,"Kasnäsintie 1294, 25930 Kemiönsaari, Finland",59.9217,22.412,Varsinais-Suomi,Kasnäs
Compania Pesquera Camanchaca S.A,Chile,"Av. Carlos Prats 80, Coronel, Bío Bío, Chile",-37.0234,-73.1531,Bío Bío,Coronel
Gold Fin International L.L.C. (this row is a duplicate),Oman,"Head Office: P.O. Box 2582, P.C. 130, Azaibah, Oman ( Note the PO Box)
Factory:
Plot No. 25 & 28, Fisheries Zone, Special Economic Zone Authority Duqm
P.O. Box 128, P.C. 700, Al Duqm, Oman (Another note this address listed on the
website does not match exactly the Geo-coordinates via Google Earth)",19.4511,57.7103,Al Wusta Governorate,Shuwayr
Procesadora Bayano S.A.,Panama,"Manzana 080501 3-575, Provincia de Panamá, Panama",9.1311,-79.0619,,#REF!
Promarina SA,Panama,"Jose Maria Castañon 1-338, Puerto Caimito, Provincia de Panamá Oeste, Panama",8.8712,-79.711,Panamá Oeste Province,Puerto Caimito
Paradise Fish Meal,Pakistan,"R42X+538, Ibrahim Hyderi, Karachi, Karachi City, Sindh, Pakistan",24.7999,67.1472,Sindh,Karachi
Pesquera Exalmar S.A.,Peru,"Playa Lado Norte S/N, Zona Industrial, Sub Lt. 01, Puerto Malabrigo",-7.686584005,-79.43354373,Lima,Callao
Compania Pesquera Camanchaca S.A,Chile,"Sotomayor 256, 1100272 Iquique, Tarapacá, Chile",-20.2104,-70.152,Bío Bío,Coronel
Pesquera la Portada SA,Chile,Cruce el Empalme Km 3 S/n Salto Grande Pto Montt,-41.4567,-72.9361,Los Lagos,Puerto Montt
Sociedad Pesquera Landes S.A.,Chile,"J86H+2J El Astillero, Castro, Chile",-42.3899,-73.671,Bío Bío,Talcahuano
Said Al Butheeni International Trading LLC,Oman,"29HH+8RC, Jalan Bani Buali, Oman",22.0286,59.3782,Maskat Governorate,Jalan Bani Buali
Said Al Butheeni International Trading LLC,Oman,"29QF+V6V, Jalan Bani Buali, Oman",22.0406,59.3722,Maskat Governorate,Jalan Bani Buali
Son of the Sea,Pakistan,"VMHR+Q83, Goth Manjar, Sindh, Pakistan",24.8795,66.6908,Sindh,Goth Manjar
Nambawan Seafoods PNG Ltd.,Papua New Guinea,"8229+8FW Independence Drive Lae +675, Lae Morobe Province, Papua New Guinea",-6.6993,147.0187,Morobe Province,Lae
RD Tuna Canners PNG,Papua New Guinea,"RQGG+GQ Nagada Mission, Papua New Guinea",-5.1737,145.777,Madang Province,Nagada Mission
Pesquera Exalmar S.A.,Peru,"Carretera Panamericana Norte Km. 441, Sector La Primavera, Huamanchacate",-13.4394,-76.1885,Lima,Callao
Sea Pride LLC,Oman,"الشرخة, Oman ",22.63298644,59.43003577,Ash Sharqiyah,Balad Bani Bu Hassan
Pelagia Bressay,United Kingdom,"5VC5+JJ Heogan, Shetland, UK",60.1716,-1.141,"Shetland Islands,
Scotland",ZE2 Lerwick
Lofoten Biomarine AS,Norway,"Røstnesvågen 26, 8063 Værøy, Norway",67.6534,12.7206,Nordland,Rossnesvag
MBP Bio Production AS,Norway,"Greåkervejen 127, 1718 Greåker",59.26383,11.0388,,"Greåker, Sarpsborg"
"SARVAL BIO-INDUSTRIES, S.L.U",Spain,"Plá de Begudà S/N, 17857 Sant Joan les Fonts, Girona, Spain 
",42.19697503,2.543224988,"Girona,
Catalonia",17857 Sant Joan les Fonts
Mowi Markets Norway AS,Norway,"Valsnesveien 260, 7165 Oksvoll, Norway",63.818,9.6343,Trøndelag,Val
Mowi Nutrition Hjelmeland,Norway,4130 HJELMELAND / Hundsnesvegen 151,59.233622,6.1729,Rogaland,Hjelmeland
Nordlaks Produkter AS avd Stokmarknes.,Norway,"Industriveien 14, 8450 Stokmarknes",68.57374,14.9542,,Stokmarknes
"SARVAL BIO-INDUSTRIES, S.L.U.",Spain,"San Martín de, Tr.ª de Suevos, s/n, 15140, A Coruña, Spain
",43.3519221,-8.478728004,"A Coruña,
Galicia",15142 Arteixo
Nutrimar AS,Norway,"Biorefinery: Frøya Industriveien 23, 7266 Kverva
Head office: Havnegata 7, 7010 Trondheim, Norway",63.70906,8.5637,Trøndelag,Nordskaget
STOLLER ECUADOR S.A.,Ecuador,km 7.5 via Manta Mocafuerte,-0.9771139,-80.6370944,,
Nutrishell AS,Norway,"Hitra Fiskerihavn, Gnr 87 Bnr 187, 7241 Ansnes, Norway",63.65511436,9.023873456,Trøndelag,7241 Ansnes
Pelagia AKVA REN AS Avd. Fabrikk - Djupvik,Norway,"Djupvik Havn, 9146 Djupvik, Norway
",69.44172077,20.15497013,Troms,9146 Olderdalen
Pelagia Bodo Sildoljefabrikk,Norway,"Burøyveien 27, 8012 Bodø, Norway",67.29,14.379,Nordland,Bodo
Pelagia Egersund Sildoljefabrikk,Norway,"Åsaneveien 103, 4373 EGERSUND",58.451,5.9921,Rogaland,Egersund
PELAGIA HORDAFOR SALTHELLA,Norway,"Fiskerihamnvegen 42, 5397 Bekkjarvik",60.00305,5.116335,Hordaland,5397 Bekkjarvik
Pelagia Karmsund Fiskemel,Norway,"Husøyvegen 283, 4262 AVALDSNES",59.3365,5.3019,Rogaland,Havik
Ecopelag AB,Sweden,"Draguddsvägen 4, 139 51 Värmdö, Sweden",59.346932,18.467762,Kalmar,Västerviks Kommun
Pelagia Karmsund Protein,Norway,"Ulvesundveien 77, 6718 DEKNEPOLLEN",59.3374,5.2914,Rogaland,Vage
PELAGIA MÅLØY HEALTH,Norway,"Ulvesundvegen 85, 6718 Deknepollen, Norway; W4PP+VF Degnepoll, Norway",61.937192,5.136197,Vestland,Kinn Municipality
Pelagia Maloy Sildoljefabrikk,Norway,"Ulvesundvegen 77, 6718 Deknepollen, Norway",61.9331,5.1373,Vestland,Degnepoll
Pesquera Exalmar S.A.,Peru,Av. Salaverry S/N,-8.2207,-78.9759,Lima,Callao
South African Fishmeal and Protein Company (Pty) Ltd,South Africa,"139 Neil Hare Rd, Atlantis, Cape Town, 7349, South Africa",-33.6094,18.4696,Western Cape,Cape Town
PELAGIA MÅLØY SILDOLJEFABRIKK,Norway,Postboks 444,61.933069,5.137204,Sogn og Fjordane,6718 Deknepollen
ST HELENA BAY,South Africa,"1 Main Road, Stompneus Bay, S.Africa, Rep 7382 ",-32.724661,17.976367,Western Cape,7365 Velddrif
Pelagia Protein AS,Norway,"Varbergveien, 4371 Egersund, Norway
",58.43777647,5.990230058,Rogaland,4371 Egersund
British Aquafeeds Ltd,United Kingdom,"Unit F, New Potter Grange Road Goole DN14 6BZ",53.7036,-0.8972,"East Riding of Yorkshire,
Yorkshire and the Humber,
England",DN14 Goole
Talley's Group Limited,New Zealand,"1 Ward Street, Motueka 7120, New Zealand",-41.137467,173.021593,Tasman,Motueka
Talley's Group Limited,New Zealand,"287 Akersten Street, Port Nelson, Nelson 7010, New Zealand",-41.2558,173.2838,Tasman,Motueka
Talley's Group Limited,New Zealand,"3 Chamberlain Street, Westport 7825, New Zealand
",-41.746457,171.59706,Tasman,Motueka
Pelagia (UK) Ltd,United Kingdom,Gilbey Road Pyewipe Grimsby DN31 2SL,57.126916,-2.075221,"North East Lincolnshire,
Yorkshire and the Humber,
England",DN31 Grimsby
Mauritania Business SARL,Mauritania,Zone PK 28,17.9939,-16.025,Nouakchott,South Nouakchott
"SARVAL BIO-INDUSTRIES, S.L.U.",Spain,"Camino de Pajares, 21, 28500 Arganda del Rey (Madrid)
",40.29777326,-3.486132089,"A Coruña,
Galicia",15142 Arteixo
Tadel SA,Ecuador,Km. 7 1/2 vía Manta - Rocafuerte,-0.9732,-80.6345,Manabí,Manta
Pesquera Exalmar S.A.,Peru,A. Prolongación Centenario N° 2576-Los Ferroles,-11.9952,-77.133,Lima,Callao
Pesquera Exalmar S.A.,Peru,"La Zona Industrial De Paita, Tierra Colorada S/N",-5.087,-81.1003,Lima,Callao
Pesquera Exalmar S.A.,Peru,Av. Alfonso Ugarte S/N,-13.4122,-76.1303,Lima,Callao
Pharma Marine AS,Norway,"Terøy Industriområde 3, 6280 Søvik, Norway",62.55853477,6.265085558,,Soevik
"SARVAL BIO-INDUSTRIES, SLU",Spain,"Camí del Placita de Museros, s/n, 12550 Almassora, València, Spain",39.97212643,-0.1117908502,"Castelló / Castellón,
Valencian Community",12549 Almassora
SARVAL BIOINDUSTRIES SLU,Spain,"Arribes del río Pirón, s/n, 40295 San Martín y Mudrián (Segovia)
",41.19789262,-4.340377108,"Segovia,
Castile and León",40295 Mudrián
"SARVAL BIOINDUSTRIES, S.L.U.",Spain,"C. de Griñon, 83, 28970 Humanes de Madrid, Madrid, Spain 
",40.23684866,-3.838459683,"Community of Madrid,
Community of Madrid",28970 Humanes de Madrid
PESQUERA 2020 S.A.C,Peru,Prolongacion Centenario N° 602-Acapulco,-12.0155628,-77.13696464,Lima,Callao
Pesquera Exalmar S.A.,Peru,"Av. Brea y Pariñas S/N, Mz. C, Zona Industrial Gran Trapecio",-9.1045,-78.5637,Lima,Callao
Inversiones Pesqueras Liguria S.A.C.,Peru,"Lt.s 1-2-3- 4A, Mz. C, Zona Industrial Gran Trapecio",-9.1052079,-78.5638031,Lima,Callao
ESMERALDA CORP S.A.C.,Peru,"Av. Autopista Panamericana Sur Km 18.5 Mz. G Lt. 1, Zona Industrial La Concordia",-12.212579,-76.976416,"Lima,
Lima",15023 San Juan de Miraflores
CORPORACIÓN PESQUERA INCA S.A.C,Peru,Km 57.8 Carretera Sechura Bayóvar,-5.826351851,-81.03303302,"Lima,
Lima",Bayovar
Pacific Natural Foods S.A.C.,Peru,"Pasaje Virgen De Guadalupe S/N, Sector San Bartolo",-8.9916,-78.6213,"Lima,
Lima",San Bartolo
West Point Processors (Pty) Ltd,South Africa,"52 MAIN ROAD, LAINGVILLE ST HELENA BAY",-32.7777,18.0494,Western Cape,Saint Helena Bay
C.I. Naturmega S.A.,Colombia,"Cra. 82 #8075 a 80-189, Riomar, Barranquilla, Atlántico, Colombia",11.02421919,-74.80153129,,Barranquilla
Mauritania Fish Meal SARL,Mauritania,Lot 1 Zone Industrielle De Bountiya,20.9128,-17.0308,Dakhlet Nouadhibou,Nouadhibou
Sociedad Pesquera Landes S.A.,Chile,"Itata 1181, Puerto Varas, Los Lagos, Chile",-41.3231,-72.9767,Bío Bío,Talcahuano
Ger Export S.A.,Peru,"Sub Lt. 2A, Pasaje Santa Marta, Zona Industrial 27 De Octubre",-9.1146,-78.5617,Moquegua,Ilo
JXYG,Gambia,Kartong Beach,13.0727,-16.7525,Brikama,Kartong
"Hai An Co., Ltd",Vietnam,"LachQuen Port, Duc Long hamlet, QuynhThuan commune, QuynhLuu district, Nghe An province, Viet Nam",19.1043,105.713648,Nghe An,Lu'u District
Levo Alimentos,Brazil,"R. Machado de Assis, 401 - Enéas Marques, PR, 85630-000, Brazil",-25.9456,-53.1712,Paraná,Enéas Marques
Corpesca S.A.,Chile,57CFJMM7+HM,-21.3661,-70.3358,"Provincia de Iquique,
Tarapacá Region",Iquique
INDUSTRIAS BIOACUATICAS TALARA S.A.C.,Peru,Zona Industrial Km 45.3 De La Carretera Sullana,-4.57051,-81.271991,"Paita,
Piura",20701 Colán
Corpesca S.A.,Chile,"HX25+CG Quiuna Alto, Huara, Chile",-19.449,-70.0412,"Provincia de Iquique,
Tarapacá Region",Iquique
Nutrivil,Brazil,"MXR7+XC Caruaru, State of Pernambuco, Brazil",-8.3075,-36.0365,State of Pernambuco,Caruaru
Corpesca S.A.,Chile,"Av. Comandante San Martín 3000 al 3600,Arica, Chile",-18.5175,-70.3173,"Provincia de Iquique,
Tarapacá Region",Iquique
Patense,Brazil,"Estr. do Pico, Itaboraí - Mutuapira, Tanguá - RJ, 24890-000, Brazil",-22.7727,-42.7774,Rio de Janeiro,Itaboraí
Sursan Aqua,Turkey,8G997MHC+55,37.2775,27.6675,Samsun,Samsun
Camanchaca Pesca Sur S.A.,Chile,"Av. Carlos Prats 80, Coronel, Bío Bío, Chile",-37.0234,-73.153,Bío Bío,Coronel
"RONG CHANG SARLU, Republic of Congo(Brazzaville)",Republic of Congo,"Thissanga, Loango District, Kouilou Province, Republic of Congo(Brazzaville)",11.97451,105.71274,,
Protein Meal Tec,Brazil,"Rod. do Café, 1740 - Nova Esperança, PR, 87600-000, Brazil",-23.1771,-52.2297,Paraná,Nova Esperança
Indian Ocean Tuna Factory,Seychelles,"Victoria Fishing Port Bus Stop, Seychelles",-4.6225,55.4593,,
King Pelagique,Morocco,234 Zone Industrielle Hay Asalam,23.68629669,-15.96256489,Casablanca-Settat,Casablanca
Universal de Comercio S.A. UNICORSA,Ecuador,"SITIO COOPERATIVA HUAQUILLAS, DE LA PARROQUIA CHACARAS, JURISDICCIÓN DEL CANTÓN ARENILLAS, PROVINCIA EL ORO",-3.512146,-80.188885,,
"MARUBENI NISSHIN FEED CO., LTD. CHITA FEED MILL",Japan,"12 Kitahamamachi, Chita, Aichi 478-0046, Japan; 2R4W+52 Chita, Aichi, Japan",35.005627,136.84508,"Aichi Prefecture,
Chubu Region",Chita
UNITED FISH LLC,Oman,"Plot No: 16, Block 03, PO Box 126, Duqm Fisheries Zone Special Economic Zone Duqm OM، 700, Oman",19.44693951,57.70717201,Al Wusta,Duqm
Aqua Export S.A.C.,Peru,Mz. Z Lt. 03 La Zona Industrial De Paita,-5.0826,-81.0851,"Paita,
Piura",20701 Paita
Hijos de Emilio Ramirez SA – Pescave,Spain,"Potential (1): Barrio de La Estación S/N.
39760 Treto (Cantabria) España
Potential (2): C/ La Ronda nº 7 - Entreplanta Castro Urdiales , Spain
",43.39455,-3.46799,Cantabria,Bárcena de Cicero
Industrias Afines S.L.,Spain,"Cam. das Lagoas, 5, 36416, Pontevedra, Spain",42.1865,-8.6178,Mos,Pedrapinta
Sarval Bio-Industries S.L.U,Spain,"CP-0503, 20, 15142 Arteixo, La Coruña, Spain / Lugar San Martin de Suevos 15140 ARTEIXO A CORUÑA",43.3518,-8.4787,"A Coruña,
Galicia",15141 Arteixo
Solutex GC SL,Spain,"Polígono Industrial “El Zafranar”, 22, 50550 Mallén, Zaragoza, Spain; VHXV+G7 Mallén, Spain",41.899009,-1.406766,Zaragoza,Mallen
"SARVAL BIO - INDUSTRIES, S.L.U.",Spain,"Ctra. Vic a Olot, Pol. Ind. la Serra, 17176 Sant Esteve d'en Bas, Girona, Spain
",42.12729614,2.453288034,"Girona,
Catalonia",17176 Sant Esteve d'en Bas
Aterimar,Spain,"Rector Triado, 55 , 11e, 1a, Distrito de Sants-Montjuïc, 08014 Barcelona, Spain",41.3779,2.1431,Cataluña,Barcelona
"BARNA, S.A.",Spain,"PUNTA LAMIAREN, S/N",43.417167,-2.709339,"Biscay,
Basque Country",48360 Mundaka
Bioceval GmbH & Co. KG.,Spain,"Lugar Porto, 49, 15142, A Coruña, Spain",43.3524,-8.4797,Niedersachsen,Cuxhaven
Sursan Aqua,Turkey,Ekinanbarı Mah. Kocakışla Sok. No:26 Muğla - Türkiye,41.2934357,36.3334226,Samsun,Samsun
Sürsan Su Ürünleri,Turkey,"Güzelceçay, Sinop Gerze Yolu, 57662 Karaağaç/Dikmen/Sinop, Türkiye",41.641816,35.4926679,"Sinop, Black Sea Region",Sinop
Mauritania Sea Food Solube,Mauritania,"Zone Industrielle Bountiya, Lot 6 et 7 Extension EPBR, Nouadhibou-Maritanie ",20.910663,-17.035397,Nouakchott Mauritania,Nouadhibou
Conserveros Reunidos SL (CONRESA),Spain,"Lugar de Couso s/n, 15965 Ribeira, A Coruña, Spain",42.5266001,-9.0392987,Lugo,Couso
MCF SARL,Mauritania,Lots 45-47 Zone Industrielle De Bountiya,20.9128,-17.0308,Dakhlet Nouadhibou,Nouadhibou
HARINAS DE ANDALUCIA S.L.,Spain,CAMINO DE LA DEHESILLA PARCELA 18A,36.160189,-5.771483,"Cádiz,
Andalusia",11392 Tahivilla
Armadores Y Congeladores Del Pacifico S.A.,Peru,"Av. A N°4041, Mza F, La Zona Industrial De Paita",-5.0828,-81.0857,"Paita,
Piura",20701 Paita
MMOA Peche Farine et Huile,Mauritania,Zone Industrielle De Bountiya,20.912997,-17.030391,Dakhlet Nouadhibou Region,Nouadhibou
MOUHIT AL BARAKA SA,Mauritania,Lots 36 and 38 Zone Industrielle De Bountiya,20.9121661,-17.0326748,,
Moumina Fishing,Mauritania,"Beach Trail, Tamzakt",17.758733,-16.0415,South Nouakchott,South Nouakchott
IMPORT EXPORT PESCA Y AGRICULTURA S.R.L.,Peru,"La Zona Industrial De Paita, Mz. Z, Lt. 03",-5.084989079,-81.08791203,"Paita,
Piura",20701 Paita
NUTRIFISH S.A.C.,Peru,"Calle Los Diamantes, Lt. 16, Mz. C, La Zona Industrial De Paita",-5.076680253,-81.07981878,"Paita,
Piura",20701 Paita
CAMANCHACA S A,Chile,"RECINTO PORTUARIO S N IQUIQUE
REGION DE TARAPACA",-20.206908,-70.157532,"Provincia de Iquique,
Tarapacá Region",Iquique
Malufra 2,Morocco,Ilot 364/365 Zone Industrielle,34.39372832,-2.904795655,,
Urisa S.A.,Ecuador,Km 1 Via Pozo la Sabana via Manta-Rocafuerte,-0.979,-80.6365,Manabí,Jaramijó
Prima Protein AS,Norway,"Hovlandsveien 64, 4374 EGERSUND",58.438,5.9786,Rogaland,Egersund
Industrial Pesquera Santa Monica S.A.,Peru,"Tierra Colorada S/N,. La Zona Industrial De Paitai",-5.087,-81.1003,"Paita,
Piura",20701 Paita
Pesquera Shanel S.A.C.,Peru,Calle Los Diamantes Mz. C Lt. 16,-5.0852,-81.0856,"Paita,
Piura",20701 Paita
Scanbio Ingredients AS,Norway,"Bjugnveien 245, N-7160 Bjugn",63.7631,9.7591,Trøndelag,Nordskaget
Scanbio Ingredients AS avd Lysøysundet,Norway,"Strandgata 11, 7168 Lysøysundet",63.886849,9.869564,Trøndelag,7168 Lysøysundet
SeaGarden AS,Norway,"Husøyvegen 278, 4262 Avaldsnes, Norway
",59.33724334,5.304273642,Rogaland,4262 Avaldsnes
BASF AS,United Kingdom,"Breasclete, Callanish, Isle of Lewis HS2 9ED, United Kingdom",58.217113,-6.756516,,Oslo
TripleNine,Norway,"Veddevegen 40, 6030 Vedde, Norway / Rasmusbakken 26, 6030 LANGEVÅG",62.4361,6.2435,Thyborøn,Thyborøn
Vesteraalens AS,Norway,"Havnegata 17, 8400 Sortland, Norway
",68.69976589,15.41671736,,Sortland
Vital Rorvik,Norway,"Stakkskaret, 7900 RØRVIK /Kråkøyveien 66
7900 Rørvik",64.9015,11.3014,Trøndelag,Nordskaget
Amawandle Pelagic (Pty) Ltd,South Africa,"2 RIVER STREET, LAAIPLEK VELDDRIF",-32.77576,18.153,Western Cape,Velddrif
Lucky Star Ltd,South Africa,"MAIN ROAD, STOMPNEUS BAY",-32.77531,18.15638,Western Cape,Velddrif
"AK Biopharm Co., Ltd",South Korea,"81 Sanggae-ro, Nam-gu, Ulsan, South Korea",35.49228958,129.3190583,,Ulsan
Eco Proyec Peru S.A.C.,Peru,"La Zona Industrial De Paita, Mz. U, Lt. 1, Sub-Lt. 1B",-5.0852,-81.0856,"Paita,
Piura",20701 Paita
Oceano Seafood S.A.,Peru,"Av. Los Pescadores N° 994, Zona Industrial",-5.0852,-81.0856,"Paita,
Piura",20701 Paita
Biovast,Lithuania,"Kulių g. 2, 90312 Rietavas, Lithuania",55.7284,21.9271,Saldus novads,Saldus
Proveedora De Productos Marinos S.A.C.,Peru,"Mza. A. Lt. 3 Y 4, La Zona Industrial De Paita",-5.0852,-81.0856,"Paita,
Piura",20701 Paita
FRIOMAR S.A.C.,Peru,"La Zona Industrial De Paita Calle Los Opalos, Mz. G Lt. N° 01",-5.076519,-81.075333,"Paita,
Piura",20701 Paita
Pesquera Ribaudo S.A.,Peru,"Sub Lt. B1, C1 Mz H Lt. 1, La Zona Industrial De Paita",-5.1531,-80.7611,"Paita,
Piura",20701 Paita
PESQUERA ABC S.A.C.,Peru,"Calle Los Pescadores N° 994, Zona Industrial",-5.07472,-81.1236479,"Paita,
Piura",20701 Paita
"Suchato Fishmeal
Factory Part., Ltd.",Thailand,"262/1 Moo 4 West Pakpanang Subdistrict,
Pakpanang District, Nakorn
Si Thamarat, Thailand",6.63647,100.07445,,
Pattani Fishmeal (1988) Company Limited,Thailand,"143 Moo 8, Tambon Bana, Amphur Muang, Pattani Province 94000, Thailand",6.89061,101.26013,Samut Sakhon,Amphur Muang
"Chaicharoen Marine (2002) Co.,Ltd.",Thailand,"364 m.8, Bana",6.89789,101.267987,Pattani,Mueang Pattani
"Phatanakarn Pramong Pattany Co., Ltd.",Thailand,97/16 m.8 Bana,6.898585,101.26301,Pattani,"Mueang Pattani, Pattani"
"Kasemkit Pattani Fishmeal Co., Ltd.",Thailand,"283 m.8 Na Kluea Rd., Bana",6.899645,101.26252,Pattani,Muang Pattani
"Southern Fishmeal Factory (1969) Co., Ltd.",Thailand,"628/2 Kanjanavanich Rd, Ban Phru",6.9139,100.4661,Songkhla,"Hat Yai District,"
TCF Co. Ltd.,Thailand,"628/1 Kanjanavanich Road, Banpru, Hatyai, Songkhla Province, 90250 Thailand",6.9141,100.4687,,Songkhla
Chotiwat Manufacturing Public Co. Ltd.,Thailand,"1069 Asia Highway Rd, Kho Hong, Songkhla, Thailand,90110",6.9727,100.4924,Chang Wat Samut Sakhon,Songkhla
Jana Fish Industries Limited,Thailand,"Factory :
200 Moo 11 Chanong
Chana, Songkhla 90130
Thailand
Office :
289 Rachada Pisek Rd. (Thapra-Taksin), Bukkhalo, Thonburi, Bangkok 10600
Thailand",7.014,100.66784,,
"Samila Fish Meal Co., Ltd.",Thailand,88/8 m.1 Na Thap,7.055384,100.674932,Songkhla,Chana
"Srinakorn Fishmeal Factory Part., Ltd.",Thailand,"105 m.9 Thawi Thai Alley, Kanchanawanit Rd., Nam Noi",7.100626,100.564895,Songkhla,Hat Yai
"Songkhla Marine Products Co., Ltd.",Thailand,"51 m.9 Thawi Thai Alley, Kanjanavanich Rd, Nam Noi",7.1075,100.5617,Songkhla,Hat Yai
"Yormarine Part., Ltd.",Thailand,97 m.9 Thung Wang,7.1111971,100.6327969,Songkhla,Mueang Songkhla
"Patthana Charoen Powder Fish Factory Part., Ltd.",Thailand,"5004 Rural Highway, Khao Rup Chang",7.149343,100.641729,Songkhla,Mueang Songkhla
"Saengcharoen Wattana Fishery Co., Ltd.",Thailand,"68 Moo.7, Tambon Khaoroopchang, Amphur Muang, Songkhla Province 90000 Thailand",7.1516,100.6355,Songkhla,Khao Rup Chang
BVP Marine Product Co. Ltd.,Thailand,99 Khao Rup Chang,7.152608,100.634198,Songkhla,Mueang Songkhla
"Kanthaksin Fish Powder Industrial Co., Ltd.",Thailand,83/3 Khao Rup Chang,7.154149,100.635397,Songkhla,Mueang Songkhla
"Paechae Songkhla Co., Ltd.",Thailand,"111 m.9 Thawi Thai Alley, Kanchanawanit Rd., Nam Noi",7.184143,100.591488,Songkhla,Hat Yai
J D P COMPANY LIMITED,Thailand,.,7.417242,99.511136,Trang Province,Amphur Kantang
PACIFIC FISHMEAL INDUSTRIAL COMPANY LIMITED,Thailand,2 Kantang Tai,7.4181,99.5353,Trang,Kantang
Kantang Fishmeal Industry Part. Ltd.,Thailand,"32/50 Limskul Alley, Kuena Rd.",7.4186,99.5125,Trang,Kantang
"J. D. P. Co., Ltd.",Thailand,"3 Kai Pitak Rd., Kantang",7.429685,99.514659,Trang,Muang Kantang
"Phuket Fishmeal Industrial Co.,ltd",Thailand,"60/5 m.7, Srisena Rd., Ratsada",7.8792,98.415,Phuket,Mueang Phuket
"Sinphiboonchai Fishmill Part., Ltd.",Thailand,"62/1 m.7 Tha Ruea Mai Rd., Rachada",7.879765,98.413134,Phuket,Mueang Phuket
Choke Udom Pattana Fishmeal Limited Partnership,Thailand,"10/4 Moo 2,Tambon Bangmuang, Amphoe Takuapa, Phang-Nga 82190, Thailand",8.47557,98.52672,Phangnga Province,Amphur Takuapa
"Mit Khanom Fish Meal (1997) Co., Ltd.",Thailand,8/1 m.13 Thung Prang,9.005773,99.923241,Nakhon Si Thammarat,Sichon
"Witchu Industry Co., Ltd.",Thailand,1/1 m.13 Thung Prang,9.006394,99.900955,Nakhon Si Thammarat,Sichon
"Sichon Fishmeal Factory Part., Ltd.",Thailand,"519 m.1, Thung Sai",9.0178,99.9131,Nakhon Si Thammarat,Sichon
"Chaweng Watana Fishmeal Factory Part., Ltd.",Thailand,"359 m.1, Pak Nakhon Rd.",9.1093084,99.2485584,Nakhon Si Thammarat,Mueang
Orizon S.A.,Chile,"AV PEDRO AGUIRRE
CERDA 719 LO ROJAS
CORONEL REGION
DEL BIOBIO",-36.7693,-73.1125,Bío Bío,Talcahuano/Coronel
Malayan Fish Oil Sdn Bhd,Malaysia,"JALAN FZ8-P3 PKFZ /KS 12, 42920 Pulau Indah, Selangor, Malaysia",2.9022,101.2947,Selangor,Pulau Indah
Orizon S.A.,Chile,ARTURO GODOY S N PLAYA BLANCA GUAYACAN PAMPILLA PARTE ALTA COQUIMBO REGION DE COQUIMBO,-29.9632,-71.3605,Bío Bío,Talcahuano/Coronel
QL Endau Marine Products Sdn. Bhd.,Malaysia,"No. 11, Jalan Merlimau,86900
Endau,Johor",2.6551,103.625,Johor,Endau
Tak Chua Brothers Sdn Bhd,Malaysia,"Lot 120, Jalan Tepi Sungai, 36400, Hutan Melintang, Perak, Malaysia",3.871105177,100.9248628,Perak,Hutan Melintang
CORPESCA S A,Chile,AV ARTURO PRAT 93,-20.20466138,-70.14222523,"Provincia de Iquique,
Tarapacá Region",Iquique
"Hyundai Special Feed IND Co., LTD.",South Korea,"19-5 Mojeon-ri, Gangdong-myeon, Gangneung, Gangwon-do, South Korea",37.7083,128.9866,Gangwon-do,Gangneung
Ard mahi khazar,Iran,"9W8W+QQH, Deh Sar, Gilan Province, Iran",37.3669,49.947,Gilan Province,Deh Sar
Industrial del Pacifico S.A de C.V.,Mexico,"Alvaro Obregón 72, Yavaros, 85252 Yavaros, Son., Mexico",26.7049,-109.5109,Sonora,Yavaros
BLUMAR S A,Chile,"Av. Carlos Prats 60, Coronel, Bío Bío, Chile",-37.02516856,-73.15069925,"Provincia de Concepción,
Biobío Region",Coronel
Alimentos Pesqueros SpA,Chile,"Pedro Aguirre Cerda 639, Coronel, Bío Bío, Chile",-37.0225,-73.1612,Bío Bío,Coronel
QL Fishmeal Sdn. Bhd.,Malaysia,"Lot 164, 2647 & 3314, Jalan Tepi Sungai, 36400, Hutan Melintang, Perak",3.8722,100.9444,Perak,Hutan Melintang
Alimentos Pesqueros SpA,Chile,"Av. Pedro Aguirre Cerda Nº 639, Lo Rojas - Coronel. Chile",-37.02204,-73.16041,Bío Bío,Coronel
Maz Industrial SA de CV,Mexico,"V4QJ+54 Guaymas, Sonora, Mexico",27.8879,-110.8697,Sinaloa,82000 Mazatlán
Pacifico Industrial S.A. de C.V.,Mexico,"Alvaro Obregón 72, Yavaros, 83224 Yavaros, Son., Mexico / Parque Fondeport S/N, Localidad de Yavaros, C.P. 85252, Huatabampo, Sonora",26.7059,-109.5148,Sonora,Yavaros
Sandakan Fishmeal Sdn. Bhd.,Malaysia,"Mile 6, Batu Sapi Road, P.P.M.681, 90000 Sandakan, Sabah, Malaysia",5.8059,118.0541,Sabah,Sandakan
Industria Procesadora de Aceites y Grasas S.A.,Chile,"Calle E, lote 17-A-1, Parque Industrial Escuadrón, Coronel. Chile",-36.97598,-73.17365,,
"Woojin Feed Co., Ltd",South Korea,"178-30 Gajwa-dong, Seo-gu, Incheon, South Korea",37.4912,126.6564,,#REF!
"Chok Anavin Fishery Co., Ltd.",Thailand,"91 m.8, Thong Nian",9.2247226,99.8586182,Nakhon Si Thammarat,Khanom
"Panichprapon Co., Ltd.",Thailand,86/6 m.8 Tong Nean,9.2258,99.8547,Nakhon Si Thammarat,Khanom
"Charoensinwaree Co., Ltd.",Thailand,5 Phornutthaphon Fish Market 9,9.2292,98.3767,Phang Nga,Khura Buri
Kantang KSC Part. Ltd.,Thailand,1 m.3 Hrura,9.237069,98.393879,Phang Nga,Krura Buri
Charoen Kijjakarn Ranong Fish Meal Factory Part. Ltd.,Thailand,"19 m.2, Phetkasem Rd., Ratchakrut",9.7471,98.5857,Ranong,Mueang Ranong
"Siamchai Pokpan Co., Ltd",Thailand,"73/3 M.2
Petkasem Road,
Bangrin, Muang,
Ranong 85000
Thailand",9.92732,98.63191,Ranong,Mueang Ranong
"Mahatasinwaree Co., Ltd.",Thailand,"95/16 m.1, Saphan Pla Rd., Paknam",9.936913432,98.59241474,Ranong,Mueang Ranong
"Saha Pramong Fish Meal Ranong Co., Ltd.",Thailand,"303/4-5 m.5 Nok Khao Alley, Bang Rin",9.95527,98.609679,Ranong,Mueang Ranong
"Teppama Fishmeal Co., Ltd",Thailand,71/7 Pak Nam Road,9.9783,98.6106,Ranong,Mueang Ranong
"Suk Ruang Kaew Fish Meal (2004) Co., Ltd.",Thailand,"59/1 m.2, Bang Non",9.9833,98.6211,Ranong,Mueang Ranong
Ranong Food Products Part. Ltd.,Thailand,"133/2 m. 5, Pak Nam",10.0244,98.6206,Ranong,Mueang Ranong
"Krungdhep Mahakij Co., Ltd.",Thailand,"67/1 Moo 5, Tambon Pak-Nam, Amphur Muang Ranong, Ranong 85000 Thailand",10.05203,98.63761,Ranong,Mueang Ranong
Teppama Fishmeal Company Limited,Thailand,"71/7 Moo5,Tambon Paknam,Amphoe Mueng,Ranong Provine Thailand 85000",10.28167,98.75726,,#REF!
"Tungka Fishmeal
Part.,Ltd.",Thailand,"197 Moo.5, Tumbol
Tungka, Amphoe Mueang, Chumphon 86100, Thailand",10.377366,99.122845,,#REF!
"Siam Fishmeal Factory Co., Ltd. (Part. Ltd.)",Thailand,"174-175 m.8, Pak Nam",10.4341889,99.23856213,Chumphon,Mueang Chumphon
"Klong Yai Fishmeal Co., Ltd.",Thailand,"36 m.1, Khlong Yai",11.774941,102.881698,Trat,Khlong Yai
"Wasan Samut Fish Meal Part., Ltd.",Thailand,"57/3, m. 4, Khlong Yai",12.1853,102.38,Trat,Laem Ngop
"Saengcharoen Products part., Ltd.",Thailand,"99/9 m.1 Cholpratan Rd., Wangkrajae",12.212654,102.496979,Trat,Mueang Trat
"San-nguansin Fish Meal Part., Ltd.",Thailand,61 m.4 Ko Proet,12.4084,102.1261,Chanthaburi,Laem Sing
"Ban Klaeng Industry Part., Ltd.",Thailand,97/1 m.6 Klaeng,12.634697,101.499931,Rayong,Mueang Rayong
"Eastern Fishmeal Co.,Ltd.",Thailand,"49/1 Moo6, Mueang Rayong District, Rayong Province 21160",12.643982,101.453738,,#REF!
Sürsan Su Ürünleri San. ve Tic. A.Ş. Yem Fabrikası,Turkey,"Bankalar Cad. Ferah Sok. No:5
Samsun - Türkiye",37.23825,27.64809,,
Sürsan Su Ürünleri Sanayi ve Ticaret A.Ş. Balık Unu Fabrikası,Turkey,Karaağaç Köyü Dip Mevkii,41.641979,35.492498,"Sinop,
Black Sea Region",Dikmen
Uğurlu Balık Üretim Sanayi ve Ticaret A.Ş. Yem Fabrikası,Turkey,Fevzipasa Mah. Cumhuriyet Cad. No: 346/40 Didim 09270 Aydın / Türkiye,37.43578,27.36273,,
Unifeed Su Ürünleri Yem Sanayi ve Ticaret Anonim Şirketi,Turkey,Subaşı Mah. 229 Sok. No:26/1 Merkez,38.1010761,27.4181455,"Izmir,
Aegean Region",Torbalı
Sté Marocaine de Traitement de Poisson Sud (Somatraps)  S.A.R.L.,Western Sahara,Saad Zone Industrielle B.P. 71,27.07860415,-13.41689191,Laayoune Province,El Marsa
Ste de Traitement et de Congelation de Poissons (SOTRAGEL),Western Sahara,Lot 53 Zone Industrielle,27.07854593,-13.41527515,Lot 53 Zone Industrielle,El Marsa
Afropesca,Western Sahara,Saad Zone Industrielle,27.0567,-13.4225,,
Atlantic Tank Terminal,Western Sahara,"Lot 89, Zone Industrielle, El Marsa, Laayoune, Western Sahara",27.0414,-13.4328,Laayoune Province,El Marsa
Copelit,Western Sahara,Saad Zone Industrielle,27.0958,-13.4255,Laayoune Province,El Marsa
CPD FARINE,Western Sahara,Lot 2 Zone Industrielle,23.68859362,-15.95246182,Dakhla - Oued Ed-Dahab,Dakhla
Damsa SA,Western Sahara,"Lot A 59, Zone Industrielle Laâyoune, El Marsa, Laâyoune, Western Sahara",27.0756,-13.4136,Laayoune Province,El Marsa
DELTA OCEAN,Western Sahara,Saad Zone Industrielle B.P. 16,27.07679369,-13.41713894,Laayoune Province,El Marsa
Global Fish Trading Sarl,Western Sahara,Avenue 21 Number 21 Hay El Fath,27.0959,-13.4255,Laayoune Province,El Marsa
K.B. Fish,Western Sahara,Zone Industrielle,27.0957572,-13.42522856,Laayoune Province,Laayoune
Laayoune Elevage,Western Sahara,Saad Zone Industrielle B.P. 13,27.0764,-13.4161,,
Laayoune Proteins S.A.R.L.,Western Sahara,Zone Industrielle,27.0957572,-13.42522856,Laayoune Province,Laayoune
"Thai Luxe Enterprises PCL, Thailand",Thailand,"62 m.2, Nong Chumphon",13.2878,99.8022,Phetchaburi,Khao Yoi
Ban Bueng Plapon Co Ltd,Thailand,"165/2 m.2 Ban Bueng – Nong Bon Daeng St., Nong Bon Daeng",13.35,101.1583,Chon Buri,Ban Bueng
"Panus Feed Mill Co., Ltd.",Thailand,"888 m.7, Tha Bunmee",13.3947,101.3858,Chonburi,Ko Chan
Omicron Dephaa S.L.,Spain,"C. la Folia, 38639, Santa Cruz de Tenerife, Spain; 394P+H8 Ten-Bel, Spain",28.056496,-16.614208,Santa Cruz de Tenerife,Santa Cruz
Vital Seafood AS,Norway,"Kyrkjegata 57, 6200 STRANDA",62.3131,6.9455,Møre og Romsdal,Stranda
Productos Pesqueros de Guaymas,Mexico,"Lote 5 Manzana B, Colonia Parque Industrial Pesquero Rodolfo Sánchez Taboada, C.P. 85460, Guaymas, Sonora, México.",27.8825,-110.8709,Baja California,Guaymas
Productos Pesqueros de Guaymas,Mexico,"5VXH+26 Puerto Adolfo López Mateos, B.C.S., Mexico",25.1975,-112.1217,Baja California,Guaymas
Productos Pesqueros de Guaymas,Mexico,"Puerto Vallarta 75, Polígono Núm. 1, 23740 Puerto San Carlos, B.C.S., Mexico",27.881914,-110.870897,Baja California,Guaymas
"Nikko Oil & Fat Co., Ltd.",Japan,"1-87 Higashikaiganchō, Amagasaki, Hyogo 660-0843",34.69776545,135.4061412,,#REF!
Sanki Shiryo Kogyo Ltd.,Japan,"3-13-9 Matsue, Soka City, Saitama Prefecture; 340-0013",35.83703872,139.8106117,,#REF!
"Fishmeal Marketing Development Co., Ltd.",Thailand,"52 Moo 6, Praram 2 Rd., Km 72 Tambol Klorngkhon, Amphur Muang, Samut Songkram 75000, Thailand",13.411654,100.025572,,#REF!
"Taweelarp Fish Meal Part., Ltd.",Thailand,"61 Kittikhun Rd., Kantang",13.4608,100.0983,Trang,Kantang
SIAM PROTEINS COMPANY LIMITED,Thailand,"2/8 m. 5, Bang Torad",13.49387584,100.1677144,Samut Sakhon,Mueang Samut Sakhon
"Klongdan Fish Meal (2530) Co., Ltd.",Thailand,"207 m.6, Wat Sang Sok Alley, Sukhumvit Road, Khlong Dan",13.5047,100.8172,Samut Prakan,Bang Bo District
Thai Union Feedmill PCL.,Thailand,"89/1 m.2 Rama II Rd, Kalong",13.5072,100.1328,Samut Sakhon,Mueang Samut Sakhon
Asian Alliance International Co. Ltd.,Thailand,"8/9 Moo.3, Rama 2 Road, Banbor, Muang, Samutsakhon, 74000, Thailand",13.5189,100.1721,Samut Sakhon,Samutsakorn
"SIAM PRECIOUS FEEDS CO., LTD.",Thailand,"5/7 MOO 3, TAMBOL BANG THO RAT, AMPHOE MUEANG, SAMUT SAKHON 74000",13.521709,100.138465,Samut Sakhon,Amphoe Muang
Nutritech Co. Ltd.,Thailand,"68/7 Moo.8, Bangkrachao, Mueang Samut Sakhon, Samut Sakhon 74000, Thailand",13.5371,100.2017,Samut Sakhon,Samutsakorn
"Aquabest Group Co., Ltd.",Thailand,"45/6 m.9, Bang Krachao",13.5372,100.2011,Samut Sakhon,Mueang Samut Sakhon
TC Union Agrotech Co. Ltd.,Thailand,"68 Moo.8 Rama 2 Road, Bang krachao, Mueang Samut Sakhon, Samut Sakhon 74000 Thailand",13.5373,100.2015,Samut Sakhon,Samutsakorn
"Rungsin Pokphand Co., Ltd.",Thailand,"71 m. 8, Rama 2 Road, Bangkrachao",13.5383,100.2008,Samut Sakhon,", Mueang Samut Sakhon"
SPF Diana (Thailand) Co. Ltd,Thailand,"68/5 Moo.8 Bangkrachao, Muangsamutsakhon, Samutsakhon Province 74000 Thailand",13.5386,100.2019,,#REF!
"T.C. Union Agrotech Co., Ltd",Thailand,"Factory :
68 Moo8, Bangkrachao,
Mueang, Samutsakorn
74000 Thailand",13.54123,100.23496,,#REF!
Golden Prize Canning Co. Ltd.,Thailand,"55/4 Moo 3, Kok-Kham Road, Bangyapreak, Muang, Samuthsakron, 74000, Thailand",13.5442,100.285,Chang Wat Samut Sakhon,Samutsakorn
"Starfish Co.,Ltd.",Thailand,"79/26 Moo1 Bangtorud
Amphor Muang
Samutsakhon 74000
Thailand",13.544866,100.273828,,#REF!
Siirisaengarumpee Company Limited,Thailand,"69/16, Lane/Alley: Wat Sri Maeng, Setthakit 1 Road, Tha-Sai, Mueng Samut Sakhon, Samut Sakhon Province 74000 Thailand",13.54925,100.273625,,#REF!
"Piyo Bhokabhan Co.,Ltd",Thailand,"88 Mu 8, Wat Pak Bo Road, Bang Krachao, Mueang Samut Sakhon, Samut Sakhon, 74000, Thailand",13.5516,100.1948,Chang Wat Samut Sakhon,Samutsakorn
"Thachin Fishmill Industrial Co., Ltd.",Thailand,"57 m.5, Rama 2 Road, Tha Sai",13.5528,100.2456,Samut Sakhon,Mueang Samut Sakhon
Anusorn Mahachai Surimi,Thailand,"59/7 Moo8, Tambol Tasai, Amphur Muang , Samut Sakorn Provine 74000, Thailand",13.55362,100.23357,,#REF!
"Patthriya Thanit Co., Ltd.",Thailand,"194/49, Doembang, Mahachai",13.55898685,100.298202,Samut Sakhon,Mueang Samut Sakhon
Apitoon Fish Meal Company Limited,Thailand,"5/3 Moo 5, Tambon Thasai,
Amphur Muang
Samutsakhon,
74000 Thaii.And",13.565555,100.222005,,#REF!
Thai Union Ingredients Co. Ltd.,Thailand,"Site 30/24, Moo 8, Rama 2 Road, Tarsrai Sub-district, Mueang Samut Sakhon District, Samut Sakhon, Thailand, 74000 // HQ 979/33-44, 17th Floor, S.M. Tower, Phaholyothin Road, Phayathai Sub-district, Phayathai District, Bangkok 10400, Thailand",13.571,100.279,Tunis Governorate,Samutsakorn
Sirisaeng Arumpee Co. Ltd.,Thailand,"69/16 Mu.3,Soi Wat Si Mueang,Setthakit 1 Road,Tha Sai Sup-District,Mueang Samut Sakhon District,Samut Sakhon,Thailand, 74000",13.5713,100.2429,Phichit,Samutsakorn
"SR Biomarine Co., Ltd.",Thailand,"69/16 m.3, Wat Alley, Tha Sai",13.579167,100.244797,Samut Sakhon,Mueang Samut Sakhon
South East Asian Packaging and Canning Ltd. (SEAPAC),Thailand,"1 Moo. 4 Baanplaiklongkru Rd.,Nadee, Muang, Samutsakorn 74000, Thailand",13.5809,100.2867,Chang Wat Samut Sakhon,Samutsakorn
"Sucobma Co., Ltd.",Thailand,"229/9 Soi Suksawat 78 Alley, Suksawat Rd., Samrong Tai",13.5942,100.524883,Samut Prakan,Phra Pradaeng
Nivat Fishmeal Industry Company Limited,Thailand,"62/1, Village No.  1, Ekachai Road, Thajean Sub-District, Mueang Samut Sakhon District, Samut Sakhon 74000 Thailand",13.626521,100.35819,Samut Sakhon,Amphur Muang
"Sermsin Fish Product Co., Ltd",Thailand,"69/29 Vichien Chodok Road Moo 1, Tambon Thacheen, Amphur Mueng,
Samut Sakorn Province Thailand 74000",13.64552,100.52689,,#REF!
"Chareon Sin Fish Meal Co., Ltd.",Thailand,139/132 m.3  Khura,13.6508,101.2325,Phang Nga,Khura Buri
"Betagro Feed Mill Co., Ltd.",Thailand,"1 Yukon 2 Rd., Wat Thepsirin",13.6656,100.5453,Bangkok,Pom Prap Sattru Phai
"TSDP (Thailand) Co., Ltd.",Thailand,"60/6,7,8,9m.8 Om Noi",13.68601,100.28919,Samut Sakhon,Krathum Baen
"S.K.S. Agro-Marine Co., Ltd.",Thailand,"3425 Wat Inthabanjong Alley, Rama III Rd., Bang Kho Laem",13.690273,100.49957,Bangkok,Bang Kho Laem
Biomar Pargua,Chile,"Ruta 5 sur Km 1076, Pargua",-41.778723,-73.425492,"Provincia de Llanquihue,
Los Lagos Region",Bahía Pargua
United Fishing Enterprises Pty Limited,Namibia,Erf 1239 2nd St East Walvis Bay Namibia,-22.93059157,14.52093268,,#REF!
FoodCorp Chile S.A.,Chile,"Pedro Aguirre Cerda 1014, 4200570 Coronel, Bío Bío, Chile",-37.0228,-73.1665,Bío Bío,Coronel
Foodcorp Chile S.A.,Chile,"Avda Pedro Aguirre Cerda 995, Lo Rojas, Coronel, Chile",-37.02431,-73.16526,Bío Bío,Coronel
Golden Omega SA,Chile,"Av. Cmdte. San Martín 3460, Arica, Arica y Parinacota, Chile",-18.5038,-70.318,Arica y Parinacota,Arica
Biomar Castro,Chile,"W-55 174, Castro, Los Lagos, Chile",-42.4217,-73.7481,"Provincia de Chiloé,
Los Lagos Region",Putemún
Salmonoil S.A.,Chile,Sector La Campana s/n- Calbuco. Chile,-41.66590369,-73.19611913,"Provincia de Llanquihue,
Los Lagos Region",Calbuco
Mar Fusion S.A.,Chile,"CALLE D MANZANA D SITIO 26 PARQUE INDUSTRIAL ESCUADRON II
CORONEL
REGION DEL BIOBIO",-36.93686,-73.1556,,
Trio SpA,Chile,"Av Esquina Blanca 1117, Maipu, Santiago, Chile",-33.5118,-70.73133,Región Metropolitana,Maipú
Lota Protein SA,Chile,"AV MATTA ESQUINA
VILLAGRAN S N LOTA
REGION DEL BIOBIO
CHILE",-37.0984,-73.1565,Bío Bío,Concepcion
Yong Liang Fishmeal Sdn Bhd,Malaysia,"Taman Sekinchan Jaya, 45400 Sekinchan, Selangor, Malaysia",3.499862885,101.1062994,Selangor,Sekinchan
Hup Lean Alk Feedmeal Sdn. Bhd.,Malaysia,"Lot 872, Jalan Tepi Sungai, Hutan Melintang, Perak, 36400, Malaysia",3.870651275,100.9221558,Perak,Hutan Melintang
Star Feedmills (M) Sdn Bhd,Malaysia,x,2.891939517,101.8611933,Selangor,Beranang
Amazing Desire Sdn Bhd.,Malaysia,"12 km, Jalan Kunak-Semporna, P.O. Box 371, 91207, Kunak, Sabah",2.955926,101.823822,Sabah,Kunak
Sin Hong Heng Fishmeal Sdn. Bhd.,Malaysia,"No.  11, Jalan Merlimau, 86900, Endau, Johor, Malaysia",2.65510711,103.6250453,Johor,Endau
Guan Hoe Huat Fishmeal Co. Sdn. Bhd.,Malaysia,"Km 6, Jalan Menumbok, Kampung Paringan, Sabah, 89740 Kuala Penyu, Malaysia",5.493172,115.549712,Sabah,Kota Kinabalu
Yew Seng Fishmeal Sdn. Bhd.,Malaysia,"Pelabuhan Tawau, 91000 Tawau, Sabah, Malaysia",4.245469,117.879851,Sabah,Tawau
Lucky Ocean Enterprise Sdn. Bhd.,Malaysia,"7 km, Jalan Pangi, 91209 Kunak, Sabah, Malaysia",4.657862458,118.2762061,Sabah,Kunak
Sahamitr Fish Meal Company Limited,Thailand,"20 Moo.4 Satarana Road, Tambon Tha Chin, Amphoe Mueang Samut Sakhon, Samut Sakhon 74000 Thailand",13.71192,100.32144,,#REF!
Pesca Chile S.A,Chile,"Av. Pdte. Manuel Bulnes 5075, 6210023 Punta Arenas, Magallanes y la Antártica Chilena, Chile",-53.125,-70.8697,Magallanes y la Antártica Chilena,Punta Arenas
"Wiboon Agri Supply Co., Ltd.",Thailand,"17/1 m.10, Nong Pak Long",13.9044,99.9553,Nakhon Pathom,Mueang
"Sorasak Fishmeal Co., Ltd.",Thailand,"1111m.1 Don Phuttha, Don Tum",13.935124,100.118117,Nakhon Pathom,Don Tum
SPA International Food Group Co. Ltd.,Thailand,"20/1, MOO 9 SAM-NGAM, Don Tum, Nakhon Pathom, ตำบล สามง่าม อำเภอดอนตูม นครปฐม 73150, Thailand",13.9581,100.1129,Chang Wat Songkhla,Tambon Ban Phru
"Sang Thong Saha Farm (STF) Co., Ltd.",Thailand,"43/2 m.1, Tha Yang",14.2803,101.0506,Chumphon,Mueang Chumphon
"Rakyom 2525 Co., Ltd.",Thailand,"390/12 Moo 13, Watsai",15.72215654,100.1330206,Nakhon Sawan,Muang Nakhon Sawan
INVE (THAILAND) LTD.,Thailand,"Nakhonsawan-Phitsanulok Rd, Nong Lum, Wachirabarami, Pichit 66220",16.835023,100.272421,Phichit Province,Wachirabarami
"T R F Fishmeal Co., Ltd.",Thailand,"305 Mu 8 Paknum Chumporn Rd., Tambon Paknum, Amphur Mueang, Chumporn 86120, Thailand.",18.81053,98.99631,,
National Fish Canning and Packing Factory (NAF),Yemen,"Al-Shihr, Dufayqah, International Main Street, Al-Shihr Hadhramaut, 8122 Yemen",14.77395967,49.63191922,,#REF!
Binsedoon For Fish and Marine Co.,Yemen,"Hdramout Near Al Nashama Hotel
Bara Al Seda Street
Al Shuher 0533
Hadramout Yemen",14.7742,49.6331,,Al Shuher
Al-Muhajer For Trading and Seafood Industry,Yemen,,,,,
Albahsani Bin Sadoon,Yemen,,,,,
The Arab Company for Canning and Packaging,Yemen,,,,,
"Oceans Fish Factory, Ltd.",Yemen,,,,,
Botin Globe Company,Yemen,,,,,
King Future Factory,Yemen,,,,,
Bin Saldoun Grinding Factory,Yemen,,,,,
Gulf Protein Factory,Yemen,,,,,
Arabian Peninsula Company for Marine Products,Yemen,,,,,
Al-Nawras Company,Yemen,,,,,
Tuna Factory for Fish Canning and Packaging,Yemen,,,,,
Saba’a Factory for Fish Products,Yemen,,,,,
Al-Ghoweizi Fish Canning Factory,Yemen,,,,,
ardmahikhazar,Iran,"M5H8+W79, Abbasabad, Mazandaran Province, Iran",36.679699,51.165722,Mazandaran,Abbasabad
Babolsar Fish Powder and Oil Production Cooperative,Iran,"Mazandaran Province, Babolsar, Felestin St, PJ5X+6W6 شرکت تعاونی مصرف ماهیان خاویاری استان مازندران, Iran",36.70808,52.64967,Mazandaran,Babolsar
Behdaneh Shomal,Iran,"Iran,Babolsar,Meyrood",36.725443,52.775894,Mazandaran,Mirud
Chilan Pishbin Fish Meal Production Factory,Iran,"Beris-e-kohne، چابهار، استان سیستان و بلوچستان،، 55F4+9QH, Iran",25.17348,61.1569,Sistan and Baluchestan,Beris
Fanavaran Darya Co Ltd,Iran,"Hormozgan Province, Bandar-e-Jask, Fanavarandarya, PX76+864, Iran",25.7133,57.96054,Hormozgan,Bandar-e-Jask
Fish Lantern / Lanternfish of Qeshm / Fanous Mahiyan Qeshm / فانوس ماهیان,Iran,"Hormozgan Province, Suzā، Unnamed Road، Q2JP+886, Iran",26.78068,56.03581,Hormozgan,Qeshm
Golden Clean Industry Qeshm Fish Meal Factory / Zarin Sanat Pak Qeshm Fish Powder Factory / کارخانه پودر ماهی زرین صنعت پاک قشم,Iran,x,26.71006,55.8065,Hormozgan,Qeshm
Khazar Kilka Processing Company / شرکت کیلکا فرآور خزر,Iran,"Gilan Province, Astara County, Lavandevil District, Chelvand Rural District, Ghareh Soo Village, No Neighborhood, Ghareh Soo Road, Shahid Shafiee Dead End, No.  0, Ground Floor",,,,
Marine Products of Kimia-ye Jask / فرآورده های دریائی کیمیای جاسک,Iran,"Hormozgan Province, 98, PX73+GJJ, Iran",25.71352,57.95403,Hormozgan,Bandar-e-Jask
Pesquera Bahía Caldera S.A.,Chile,"Avda. Las Industrias 1190, Caldera. Chile",-27.064498,-70.832559,"Provincia de Copiapó,
Atacama Region",Caldera
Mazandaran Animal and Aquatic Feed Company (MANAQUA),Iran,"H598+29F, Badeleh, Mazandaran Province, Iran",36.56765,53.16588,Mazandaran,Badeleh
Navid Daneh Khazar Company,Iran,"Khuzestan Province, Ahvaz, Albaji Industrial Town, Ahvaz-Shush Expy, FJF5+RVF, Iran",31.4743,48.60977,Khuzestan,Ahvaz
Nazdane Sepahan Co,Iran,"Isfahan Province، بزرگراه شهرک صنعتی جی-نرسیده به پل، فرودگاه-جاده، PW6P+GMJ کشتارگاه مرغ, Iran",32.71125,51.93658,,#REF!
Negin Feed,Iran,"C9VJ+8R Jahliyān, Sistan and Baluchestan Province, Iran",36.445,59.6578,Sistan and Baluchestan Province,Jahliyān
Partsirang,Iran,"9CW7+FG4, Konarak, Sistan and Baluchestan Province, Iran",25.3964,60.4138,Sistan and Baluchestan Province,Konarak
Podre Mahi,Iran,,,,Tehran,Tehran
Podre Mahi,Iran,,35.53822,51.61083,Tehran,Tehran
Sayadan Javan Jask,Iran,"Unit 3, Second Floor, Shams Builidng, Damahi Street, Golshahr, Bandar Abbas, Iran",27.21642,56.34511,Hormozgan,Bandar Abbas
Southern Fish Powder Company,Iran,"883H+XPQ, Bandar Abbas, Hormozgan Province, Iran",27.30497,56.32934,Hormozgan,Bandar Abbas
Tabai Fish Powder Factory (Mohammad Tabaei Fish Powder and Oil Factory),Iran,"Semnan-Tehran Road, Mian Saman District, Gach Zumard Road, Seyed Abad Industrial Town, Tabai Fish Powder and Oil Factory (Factory Address)",35.26966,52.6689,Tehran,Tehran
Pars Kilka,Iran,"Mazandaran, City: Babolsar, Mirood Industrial and Fishery District, Pars Kilka Marine Products Company",36.72523,52.77724,Mazandaran,Mirud
پودر زرین / Golden Powder / Zarrin Powder,Iran,"FHJQ+78, Moqsam, Hormozgan Province, Iran",27.47318,56.58784,,
Mahdaneh South Fish Meal,Iran,"Tehran, Shahryar, Rabat Karim Road, in front of Mehstan gas station, Yekeh, after Imamzadeh St., Thramari St., Koi Hasht Metri I (Haj Hossein), No.  1",35.56485,51.03338,Tehran,Robat-Karim
fish powder of sahil kar anzali / Fish Powder of Kar Beach Anzali,Iran,"Anzali, 10 km on the Roudasht Road, Aliabad",,,Gilan,Anzali
Sayyad Qeshm Fish Meal,Iran,Kilometer 4 of the Souza to Ramkan Road,26.81366,56.06875,Hormozgan,Qeshm
Mafan Anzali Fish Meal,Iran,"F7JJ+M2X, اشپلا, Gilan Province, Iran",37.48147,49.2809,Gilan,Maaf
Roshd Dorna,Iran,"Kerman - Khadra Industrial Town, Kerman",,,,
Baran Rize Silk Road Company / Sherkat Baran Rize Rah Abrisham,Iran,"Gilan Province, Rasht County, Central District, Rasht City, Motahari Neighborhood (Chahar Baradaran), Shahid Motahari Boulevard, Hesam Street, No.  0, Novin Complex, Third Floor.",,,,
"International Fish Meal Company Mato Fish, Shahre Aftab, and Mahakood Fish Fertilizer / Mato Fish International Fish Meal Company, Shahre Aftab, and Mahakood Fish Fertilizer / Aftab Shahr Mahkod Fish Fertilizer International Co., Ltd / Mato Qeshm Fish Meal",Iran,"P3GQ+2J, Bandar Aftab, Hormozgan Province, Iran",26.725,54.08909,Hormozgan,Bandar Aftab
Persian Chabahar Fish Meal Company,Iran,"Sistan and Baluchestan Province, Konarak، Unnamed Road، CC26+37F, Iran",25.40019,60.41047,Sistan and Baluchestan,Konarak
Golden Seed Chabahar Fish Meal Company,Iran,"Sistan and Baluchestan Province, Konarak، Unnamed Road، 9CW7+CQ6, Iran",25.39611,60.41429,Sistan and Baluchestan,Konarak
"Saba Majd Qeshm Fish Meal Cooperative Company / Qeshm Cooperative Fish Meal Company, Saba Majd",Iran,"Suzā، جزیره قشم،، Q2JM+3WX, Iran",26.78015,56.03471,Hormozgan,Qeshm
Aras Marine Products Co,Iran,"F9FQ+GR7, Bandar Anzali, Gilan Province, Iran",37.47336,49.38942,Gilan,Bandar Anzali
Kilka Powder Sahar Company / Sherkat Kilka Poodar Sahar,Iran,"Rasht, Bosar Bridge, across from Moradian Alley, Bahar Alley, No.  7.",,,,#REF!
Gulshan Asur Company,Iran,"Mazandaran Province, Mostafa Khomeini Industrial Town",36.72273,53.04712,,#REF!
Motavakesham Company,Iran,km 2 of Sousa to Remkan road,26.80635,56.07157,Hormozgan,Qeshm
Qeshm Fish Processing /Faravari Mahi Qeshm / Sherkat Faravari Mahi Qeshm,Iran,"Suzā، Unnamed Road، Q392+PWX, Iran",26.76925,56.05223,Hormozgan,Qeshm
Ghaem Seaside Powder / Qam Sahal Powder,Iran,"Bandar Anzali, 7 km on the Zibakenar Road, Beach Street",35.26962,52.66897,Gilan,Anzali
Tiyab Fish Meal Factory,Iran,"985J+GX Pozm Tiyab, Sistan and Baluchestan Province, Iran",25.35875,60.33255,,#REF!
Yazdan Darya Bostaneh Fish Meal Factory / Karkhaneh Poodar Mahi Yazdan Darya Bostaneh,Iran,"Hormozgan Province, Bandar Lengeh County, Central District, Bostaneh Village, Main Street, Kazem Mosque Alley, No.  0, Ground Floor",,,Hormozgan,Bostaneh
"Pacific Marine Food Products Co.,Ltd",Thailand,"75/12 Moo 5 Soi Wat Sopanaram, Kokkham, Muang, Samutsakorn Province 74000 Thailand",19.27484,97.951,,
"Advance Agro and Technology Part., Ltd.",Thailand,"230 m.5 Nong Phai Lom Village, Nong Bua Yai",15.51058,101.88449,Chaiyaphum,Chatturat
"Anusorn Aquatic Industry Co., Ltd.",Thailand,"1100 Wichian Chodok Rd., Mahachai, Mueang Samut Sakhon, Samut Sakhon Province",13.535905,100.262531,Samut Sakhon,Mueang Samut Sakhon
"Aquatic Deal Co., Ltd.",Thailand,"6/39 Liap Khlong Song 25 Alley, Bang Chan",13.86266,100.71629,Bangkok,Khlong Sam Wa
"Bangsaphan Union Fishmeal Co., Ltd. / Company Limited Fishmeal Bridges",Thailand,4056 Maeramphueng,11.21603,99.57135,Prachuap Khiri Khan,"Bang Saphan, Prachuap Khiri Khan"
"Densamut Fishmeal Factory Part., Ltd.",Thailand,"62/1 Tharuamai Rd., Ratsada",7.88028,98.41233,Phuket,Mueang Phuket
"K-Pro (Thailand) Co., Ltd.",Thailand,"Unit C (No. 10), Chaemchan Alley, Klongton-Nua",13.73883103,100.5873032,Bangkok,Watthana
"Khantichai Fishmeal Co.,Ltd.",Thailand,203 m.1 Bang Chakreng,13.37365,99.996,Samut Songkhram,Mueang Samut Songkhram
"Khuraburi Fishmeal Industry Co., Ltd.",Thailand,"5/1 m.10, Phetkasem Rd., Khura",9.24535,98.39798,Phang Nga,Khura Buri
"N.K. Fishmeal Co., Ltd.",Thailand,"18/134 m.8 Jamjun Alley, Kaset-Navamin Rd., Klongkum",13.640668,100.431734,Bangkok,"Buengkun, Bangkok"
"Nang Yon Fishmeal Industry Co., Ltd.",Thailand,120/125 m.1 Khura,9.245935603,98.41859726,Phang Nga,Khura Buri
"Our Leader Office Co., Ltd.",Thailand,27/1 m.2 Chai Mongkol,13.60604,100.31054,Samut Sakhon,Mueang Samut Sakhon
Frabelle PNG Limited,Papua New Guinea,"7X5V+F55, Lae Morobe Province, Papua New Guinea",-6.741352532,146.9929866,Morobe Province,Lae
International Food Corporation Ltd (IFC),Papua New Guinea,"Malahang Industrial Centre, Independence Dr, Lae Morobe Province, Papua New Guinea",-6.704437463,147.0269012,Morobe Province,Lae
South Seas Tuna Corporation Limited,Papua New Guinea,"1st Wharf Road Wewak East Sepik Province, 531, Papua New Guinea",-3.571757372,143.6425009,East Sepik Province,Wewaj
Majestic Seafood Corporation,Papua New Guinea,"822F+RF5, Lae Morobe Province, Papua New Guinea",-6.697957946,147.0237135,Morobe Province,Lae
PESQUERA FIORDO AUSTRAL S A,Chile,PARQUE INDUSTRIAL PRIMERA ETAPA SITIO 14,-36.953342,-73.161694,"Provincia de Concepción,
Biobío Region",Coronel
Química Industrial SPES S.A.,Chile,"Panamericana Norte 5299, Conchalí, Santiago, Chile.",-33.36791,-70.69657,,
Setop SA,Chile,"C. E 226, Coronel, Bío Bío, Chile",-36.9501,-73.1615,Bío Bío,Coronel
Setop SA,Chile,"C. D 4, Coronel, Bío Bío, Chile",-36.9368,-73.1554,Bío Bío,Coronel
MTP Fish SARL,Mauritania,Zone PK 28,17.9939,-16.025,South Nouakchott,South Nouakchott
Ocean Fish Export,Mauritania,Zone Industrielle De Bountiya,20.91251471,-17.03355516,,Nouadhibou
Ocean Proteine,Mauritania,Zone Industrielle De Bountiya,20.913897,-17.031913,Dakhlet Nouadhibou,Nouadhibou
Omaurci SA,Mauritania,Zone Industrielle De Bountiya,20.91251471,-17.03355516,Dakhlet Nouadhibou,Nouadhibou
Proteine Seafood,Mauritania,Zone PK 28,17.9939,-16.025,South Nouakchott,South Nouakchott
Ocean Products Seychelles Ltd,Seychelles,"Victoria Fishing Port North ESTE POINTE Mahe Island, Seychelles",-4.622075465,55.4594432,,
Speed Pial Fishmeal and Fish Oil,United Arab Emirates,1907 Burj Khalifa Blvd - Business Bay - Dubai - United Arab Emirates,25.18578249,55.27570515,,
"P.S.P. Fishmeal Co., Ltd.",Thailand,297 m.2 Om Noi,13.70576562,100.3045717,Samut Sakhon,Krathum Baen
"Pattani Industry Fishery Co., Ltd.",Thailand,"284 m.8 Na Kluea Rd., Bana",6.89704,101.265566,Pattani,Mueang Pattani
"Pornjeerasak Co., Ltd.",Thailand,"139/132 m.3, Kura",9.242441917,98.41910904,Phang Nga,Kuraburi
"Rung Ruang Fish Works Co.,Ltd.",Thailand,171 m.8 Pak Nam,10.434649,99.240597,Chumphon,Mueang Chumphon
"Sahacharoenkit Industry (1978) Part., Ltd.",Thailand,94/4 m.7 Setthakit 1 Rd.,13.56910558,100.2637399,Samut Sakhon,Mueang Samut Sakhon
"Sakol Fishmeal Co., Ltd.",Thailand,"96/28 m.8, Na Kluea Rd., Bana",6.890643,101.257467,Pattani,Mueang Pattani
"Samutprakarn Fish Meal Co., Ltd.",Thailand,"4 m.14 Had Amara Alley, Taiban Rd., Taiban, Mueang Samut Prakan",13.505178,100.817267,Samut Prakan,Mueang Samut Prakan
"Siam Eastern Industry Co., Ltd.",Thailand,"51/33 m.5, Laem Ngop-Bang Kradan Rd., Laem Ngop",12.17813051,102.4049293,Trat,Laem Ngop
"Thai Pattana Feed Co., Ltd.",Thailand,"25/9 m.3, Tha Sai",13.547239,100.216357,Samut Sakhon,Mueang Samut Sakhon
"Thungca Fish Meal Part., Ltd.",Thailand,197 Thung Kha,10.40148,99.128071,Chumphon,Mueang Chumphon
Rim Fish Meal,Mauritania,B.P 431 N°29 Bountiya,20.9121661,-17.0326748,Dakhlet Nouadhibou,Nouadhibou
Sahara Peche,Mauritania,"Beach Trail, Tamzakt",17.751662,-16.041612,South Nouakchott,South Nouakchott
"United Marine Products Co., Ltd.",Thailand,"79/26 m.1, Bang Torad",10.396002,99.146388,Samut Sakhon,Mueang Samut Sakhon
"Woraphan Ice and Fishmeal Part., Ltd",Thailand,"32/50 Limsakun Alley, Khuna Rd., Kantang, Kantang District, Trang Province 92110",7.40266,99.509535,Trang,Kantang District
CORPORACION FRUTOS DEL MAR S.A.C.,Peru,"Av. Los Martillos, Km. 15.5 De La Carretera Pisco-Paracas",-13.783192,-76.23939641,"Pisco,
Ica",11601 Pisco
Sea Food Trading S.A.,Peru,"Lotización Industrial Santa Elena, Lt.s 2 Y 3 De La Mz E Altura Km 16.85 De La Carreteras Pisco Paracas",-13.7969597,-76.24086764,"Pisco,
Ica",Paracas
Tecnologias en Favor del Medio Ambiente S.A.C.,Peru,Av. Los Martillos En El Km. 15.5 De La Carretera Pisco-Paracas,-13.783192,-76.23939641,"Pisco, Ica",11550 Paracas
Epesca Pisco S.A.C.,Peru,"Mz. G, Lt. 4 y Sub Lt. 1, Lotización Industrial Santa Elena, Carretera Pisco-Paracas Km 15.5",-13.77862,-76.23719,"Pisco, Ica",11550 Paracas
Peruvian Sea Food S.A.,Peru,Mz. K Lt. 1-2. La Zona Industrial De Paita,-5.087,-81.1003,Piura,Paita
Pacific Freezing Company S.A.C.,Peru,Mz. B Lt. 4 La Zona Industrial De Paita,-5.0852,-81.0856,Piura,Paita
Dexim Srl,Peru,"Mza. A Lt. 7, 8 Y 9. La Zona Industrial De Paita",-5.0852,-81.0856,Piura,Paita
Seafrost S.A.C.,Peru,La Zona Industrial De Paita Mz. D Lt. 1,-5.087,-81.1003,Piura,Paita
Pesquera Altair S.A.C.,Peru,"Sub Lt. A, La Zona Industrial De Paita",-5.081096,-81.081532,Piura,Paita
Cnc S.A.C.,Peru,Mz. E Lt.s 03 Y 04 De La Zona Industrial De Paita,-5.073662,-81.073065,Piura,Paita
ECONORT GROUP S.A.C.,Peru,"Mz. D Sub Lt. 2, Zona Industrial Parachique",-5.69976,-80.85163,Piura,Sechura
Econort Group S.A.C.,Peru,"Km. 17 Y 18 Carretera Sechura-Bayóvar, Zona Industrial De Constante",-5.5551,-80.8169,Piura,Sechura
Corporacion Pesquera Coishco S.A.,Peru,"Km. 18.5 Carretera Sechura, Bayóvar",-5.5555,-80.8179,Piura,Sechura
Unknown,Peru,El Rosario 1077,-4.9109,-80.6966,Piura,Sullana
Atlantic Fish S.R.L.,Peru,"Km 4.5 De La Carretera Sullana-Paita Mz. L-3, Lt. 1, Sector Maria Auxiliadora, Centro Poblado Jibito",-4.913961,-80.748702,Piura,Sullana
Pesquera Caral S.A.,Peru,"Av. Las Canarias S/N, Puerto Chancay",-11.585,-77.27,"Province of Huaral,
Lima",Chancay
Pacific Deep Frozen S.A.,Peru,Av. Celestino Zapata N° 101-103,-9.95,-78.2216,"Province of Huarmey,
Ancash",Culebras
Marine Industrial Corporation S.A.C. - Marincorp,Peru,Km. 15.5 Carretera Pisco-Paracas,-13.783192,-76.23939641,Provincia de Lima,Ate
Soraya S.A.C.,Peru,Carretera Panamericana Sur Km 18.5,-12.1903,-76.9731,Provincia de Lima,Lima
Natural Protein Technologies S.A.C.,Peru,"Lt. 02, Predio N° 52 Sector San Bartolo",-12.3843,-76.784,Provincia de Lima,San Bartolo
Pesquera Pelayo S.A.C.,Peru,Av. La Marina 121,-12.0706,-77.0978,Provincia de Lima,San Miguel
Pesquera Maress S.A.C,Peru,Zona Primavera C La Huaca,-9.013774122,-78.6220921,Provincia de Lima,Villa María del Triunfo
Pesquera Conservas De Chimbote La Chimbotana S.A.C.,Peru,"Calle 3 N° 264, Zona Industrial Gran Trapecio",-9.0845,-78.5715,"Santa,
Ancash",02800 Chimbote
Concentrados De Proteinas S.A.C,Peru,"Mz. A Lt. No. 4, Zona Industrial 27 De Octubre",-9.113242763,-78.55904674,"Santa,
Ancash",02800 Chimbote
Vlacar S.A.C.,Peru,Zona Industrial 27 De Octubre N° 1200,-9.113557,-78.558264,"Santa,
Ancash",02800 Chimbote
CORPORACION PESQUERA 1313 S.A.,Peru,"Calle 3, Mz. A, Lt. 4, Zona Industrial Gran Trapecio",-9.108235,-78.563008,"Santa,
Ancash",02800 Chimbote
Protefish S.A.C.,Peru,"Mz. B1, Lt. 5, Zona Industrial De Gran Trapecio",-9.107037,-78.561857,"Santa,
Ancash",02800 Chimbote
Pesquera Centinela S.A.C.,Peru,Km. 62.5 De La Antigua Carretera Panamerica Norte,-11.5776,-77.2691,"Santa,
Ancash",02800 Chimbote
Pesquera Centinela S.A.C.,Peru,"Av. Industrial S/N, Sector Canchamana",-13.44966018,-76.18557952,"Santa,
Ancash",02800 Chimbote
Pesquera Centinela S.A.C.,Peru,"Calle 3, N° 264, Zona Industrial Gran Trapecio",-9.109598541,-78.56311603,"Santa,
Ancash",02800 Chimbote
PROTEINAS DEL PERU S.A.C.,Peru,"Av. Brea Y Pariñas Mz. A Lt. 3-8, Zona Industrial Gran Trapecio, Parcela 3",-9.102327205,-78.56097762,"Santa,
Ancash",02800 Chimbote
Corporacion Marqueza S.A.C.,Peru,"Lt.s 1-2-3-4A, Mz. C, Zona Industrial Gran Trapecio",-9.0561,-78.5767,"Santa,
Ancash",02800 Chimbote
Don Fernando Sac,Peru,"Av. Los Pescadores Nº 354,",-9.1107,-78.5598,"Santa,
Ancash",02803 Chimbote
ALIMENTOS CONSERVADOS EL SANTA S.A.,Peru,"Zona Primavera C, La Huaca",-9.013774122,-78.6220921,"Santa,
Ancash",Coishco
Pesquera Cantabria S.A.,Peru,Carretera Panamericana Norte Km. 439,-9.016011649,-78.62005851,"Santa,
Ancash",Coishco
Inversiones Quiaza S.A.C.,Peru,"Av. Los Pescadores Lt.s 5 Y 5-1 Mz D, Zona Industrial Gran Trapecio",-9.0845,-78.5715,"Santa,
Ancash",Santa
INGENIEROS PESQUEROS CONSULTORES S.A.C.,Peru,"Predio La Primavera S/ N, Sector La Huaca",-9.01023962,-78.62334119,"Santa,
Ancash",Santa
Compania Pesquera del Pacifico Centro S.A.,Peru,"Calle El Milagro N° 252, Gran Trapecio, Zona Industrial 27 De Octubre",-9.109537008,-78.56033955,"Santa, Áncash",02800 Chimbote
Inversiones Prisco S.A.C.,Peru,Av. Victor Temoche S/N,-5.5606,-80.82,"Sechura,
Piura",20071 Sechura
Khanh Hoang Seaprexco Ltd,Vietnam,"Cang Hamlet, Tran De Town, Tran De District, Soc Trang Province",9.530656,106.199311,Soc Trang,Tran De
Agropesca Del Peru S.A.C.,Peru,"Mz. L Lt. 7,8,9,10 Y 11. Zona Industrial",-4.9164,-80.6751,"Sullana,
Piura",Sullana
Song Viet Thanh Hoa Joint Stock Company,Vietnam,"CQ5G+MJR, Hải Bình, Nghi Sơn, Thanh Hoá, Vietnam",19.409378,105.776254,Thanh Hoa,Nghi Som
Long Hai Seafood Processing and Transport Trading Joint Stock Company,Vietnam,"Hai Binh Village, Tinh Gia Dist., Thanh Hoa Province, Vietnam",19.408573,105.778606,Thanh Hoa,Tinh Gia
"Thien Phat Manufacturing and Trading Co., Ltd",Vietnam,"Tan Thuan Hamlet, Binh Duc commune, Chau Thanh district, Tien Giang province, Vietnam",10.3394,106.3039,Tien Giang,Chau Thanh
"Dai Thanh Seafoods Co., Ltd",Vietnam,"Dong Hoa hamlet, Song Thuan village, ChauThanh district, TienGiang province, Viet Nam",10.335962,106.284454,Tien Giang,Song thuan
Van Duc Tien Giang Food Export Company,Vietnam,"Dong Hoa Hamlet, Song Thuan Commune, Chau Thanh District, Tien Giang Province",10.3342224,106.276152,Tien Giang,
Ngoc Dung Trading and Production Co. Ltd.,Vietnam,"Tan Binh hamlet, HoaThanh village, Lai Vung district, Dong Thap province, Viet Nam",10.281065,105.706154,Tiền Giang,Thành phố Mỹ Tho
Marina De Guerra Del Peru,Peru,Playa Seca S/N,-8.3762,-74.5335,Ucayali,Pucallpa
Industria Atunera S.A.C.,Peru,Tierra Colorada S/N,-8.3762,-74.5335,Ucayali,Pucallpa
TC Union Vietnam Co. Ltd,Vietnam,"88XP+CQM, ĐT864, Trung An, Mỹ Tho, Tiền Giang, Vietnam",10.3485,106.337,,
Thanh Khoi Company Ltd,Vietnam,"724A, PhuLoi Hamlet,  Tan PhuThanh Commune, ChauThanh A District, HauGiang Province, Viet Nam",9.9467,105.7302,,
Xuri Viet Trung Aquatic Products Processing Limited Company,Vietnam,"Hamlet 10, Dien Hung Village, Dien Chau District, Nghe An Province, Viet Nam // 3J7P+77V, Xóm 8, Hương Sơn, Hà Tĩnh, Vietnam",105.635896,19.063417,,
Kien Hung Joint Stock Company,Vietnam,"Group 8, An Binh ward, Binh An village, ChauThanh district, KienGiang province, Viet Nam",9.983838,105.131643,,
Thuan An Production Trading and Service Company,Vietnam,"478 QL91, TT. An Châu, Châu Thành, An Giang, Vietnam",10.4467,105.3777,,
"An Lac Corporation,Vietnam",Vietnam,"PhongThuan Hamlet, Tan My Chanh Village, My Tho City, TienGiang Province, Viet Nam",9.973765,106.345617,,
Nguyet Trang Producing Trading Ltd Company,Vietnam,"Block 2.10A3. TraNoc Industrial Zzone II, Phuoc Thoi ward, O Mon District, Can Tho city, Viet Nam",10.111672,105.696815,,
Phuc Loc Vung Tau Company Ltd.,Vietnam,"F4V2+G37, Tân Hải, Bà Rịa–Vũng Tàu, Tân Thành, Ba Ria - Vung Tau, Vietnam",10.4932,107.1004,,
Thien Quynh Co. Ltd,Vietnam,"RG63+XJ2, Đức Hòa Đông, Đức Hòa, Long An, Vietnam",10.8125,106.504,,
Tri Hung Producing Trading Import-Export Company Ltd,Vietnam,"Hamlet Lang Ham C, Thanh Xuan Commune, Chau Thanh A District, Hau Giang",9.9047,105.6798,,
Food Joint Stock Company,Vietnam,"4573+VQ, Cái Nước District, Ca Mau, Vietnam",9.1161,105.1524,,
Nam Hoa Y Factory - Van Don Company Limited,Vietnam,"7 Hamlet, Song Khoai commune, Quang Yen town, QuangNinh province, Viet Nam",,,,
Mien Thang Sa Dec Company Ltd.,Vietnam,"8QG2+9W9, Tân Khánh Đông, Sa Đéc Province, Dong Thap, Vietnam",10.3259,105.7524,,
Minh Thang Sa Dec Company Limited,Vietnam,"8QG2+9W9, Tân Khánh Đông, Sa Đéc Province, Dong Thap, Vietnam",10.3259,105.7524,,
Tri Hung Producing Trading Import-Export Company Ltd,Vietnam,"Lang Ham C Hamlet, ThanhXuan Commune, ChauThanh A, HauGiang Province,Viet Nam",,,,
Sao Mai An Giang; Travel Investment and Seafood Development Corp. (Trisedco),Vietnam,"QL 80,Cụm Công Nghiệp Vàm Cống, An Thạnh, Bình Thành, Lấp Vò, Đồng Tháp, Vietnam",10.33428841,105.494496,,
Sao Mai An Giang; Travel Investment and Seafood Development Corp. (Trisedco),Vietnam,"National Road 80,Vam Cong Industrial Area, BinhThanh, Lap Vo, Dong Thap, Viet Nam",,,,
Sao Mai An Giang; Travel Investment and Seafood Development Corp. (Trisedco),Vietnam,"National Road 80,Vam Cong Industrial Area, BinhThanh, Lap Vo, Dong Thap, Viet Nam",,,,
"Thien Phat Manufacturing and Trading Co., Ltd",Vietnam,"87H7+JQW, Song Thuận, Châu Thành, Tiền Giang, Vietnam",10.32901871,106.2644404,,
Thien Quynh Khanh Hoa Sole Member Limited Liability Company,Vietnam,"3564+WMP, Bãi Giếng 2, Cam Đức, Cam Lâm, Khánh Hòa, Vietnam",12.143871,109.067886,,
"Thuy Hai Seafood Processing Co., Ltd.",Vietnam,"Lot 50,476m2, Thuy Tan Intrustrial Zone, Thuy Tan commune, Thai Thuy district, Thai Binh province, Viet Nam",20.633128,106.601602,,
"Honoroad Vietnam Aquatic Feed Ingredient Processing Co., Ltd.",Vietnam,"Plot 2.19A5, TraNoc II Industrial Park, PhuocThoi Ward, O Mon Dist., Can Tho City, Viet Nam",10.1133805,105.6918303,,
"Hong DucVuong Viet Nam Co., Ltd",Vietnam,"QuanNgang Industrial Zone, GioLinh district, Quang Tri province, Viet Nam",16.88976711,107.0875516,,
Công ty TNHH Thủy sản Bắc Miền Trung,Vietnam,,,,,
Sahel Proteine,Mauritania,Zone Industrielle De Bountiya,20.89668219,-17.05677535,The city or province in which the site is located is known and the coordinates for the city/province are used OR the geocode confidence score for the address is 0.5 or below (typically depicting that the address could only be matched to the city/province level.,Nouadhibou
"Weng Cheaglee Fish Powder Industry Part., Ltd.",Thailand,"140/233 m.8 Udomporn 3 Alley, Khao Rup Chang",7.167971,100.629471,Songkhla,Mueang Songkhla
"Nissui (Thailand) Co., Ltd.",Thailand,"118/1 Moo 1, Kanchanawanit Road, Tha Kham Subdistrict, Hat Yai District, Songkhla Province 90110
",,,,
SAMAK - Arab Mauritanian Fish Company,Mauritania,Zone Industrielle De Bountiya,20.91251471,-17.03355516,,Nouadhibou
Sen Sea,Mauritania,Rte de Keur Yakham,14.77574141,-17.10955317,Rte de Keur Yakham,Keur Moussa
Seph S.A. (Société d’Élaboration de Produits Halieutiques),Mauritania,Zone Industrielle De Bountiya,20.90628319,-17.04995832,Zone Industrielle De Bountiya,Nouadhibou
SFHP SARL,Mauritania,Lot 33 Zone Industrielle De Bountiya,20.913567,-17.030886,Dakhlet Nouadhibou,Nouadhibou
SGIP,Mauritania,Zone PK 28,17.9939,-16.025,South Nouakchott,South Nouakchott
NDAM,Senegal,"RVM6+MWR, Mbirdiam-Kayar Rd, Bayakh, Senegal ",14.834422,-17.13772,Thiès Region,Cayar
Sino-Rim,Mauritania,Lot 35 Zone Industrielle De Bountiya,20.914194,-17.030829,Dakhlet Nouadhibou,Nouadhibou
SMPC SARL,Mauritania,Lot 26 Zone Industrielle De Bountiya,20.913194,-17.029583,Lot 26 Zone Industrielle De Bountiya,Nouadhibou
Nessim,Gambia,Sanyang,13.2653,-16.7889,"Banjul,
Banjul City Council",Banjul
SMVP Sa,Mauritania,.,,,Nouakchott,Nouakchott
Nouvelle Démarche Avicole et Martime (NDAM),Senegal,"Mbirdiam-Kayar Road, Bayakh",14.86725283,-17.14853277,"Mbirdiam-Kayar Road, Bayakh",Kayar
Nouvelle Ougala,Morocco,Zone Portuaire,28.4814,-11.3487,Guelmim-Oued Noun,El Ouatia
Sunrise Oceanic Resources Exploitation Company SA,Mauritania,Ilot 27 28 29 30,20.9128,-17.0308,Dakhlet Nouadhibou,Nouadhibou
Winterisation Mauritania SARL,Mauritania,Zone Industrielle Extension R,20.91251471,-17.03355516,Dakhlet Nouadhibou Region,Nouadhibou
Xiangheshun-Mauritanie S.A.,Mauritania,Zone Industrielle De Bountiya,20.911882,-17.031234,Dakhlet Nouadhibou,Nouadhibou
KP Peche Sarl,Mauritania,Fisherman's Beach,18.10318,-16.02627,Nouakchott,Nouakchott
Olvea Atlantic,Morocco,Lot 631 Avenue Al Atlas,30.3235,-9.4894,Souss-Massa,Aït Melloul
Olvea Atlantic 2,Morocco,Zone Industrielle,30.32343127,-9.489289213,,
Ostrovnoy Fish Processing Plant LLC (ООО РЫБОКОМБИНАТ «ОСТРОВНОЙ»),Russia,"1,2, Sovetskaya str. v. Malokurilskoye",61.03465,30.11984,,
Omega Fishing,Senegal,"14 Quai De Peche, Joal-Fadiout",14.18466301,-16.86077512,Fatick Region,23000 Joal
Ostrovnoy Fish Processing Plant LLC (ООО РЫБОКОМБИНАТ «ОСТРОВНОЙ»),Russia,"off.1, Liter V, 8, Sovetskaya str. v. Malokurilskoye",43.866218,146.82675,,
Fish plant “Krabozavodsk” branch “Krabozavodsk”JSC «Kurilskiy Rybak»,Russia,"1, Torgovaya Street, v. Krabozavodskoe Yuzhno-Kurilskiy district",43.828102,146.749886,Sakhalin Oblast,Krabozavodskoye
Pescasud SARLAU,Morocco,Zone Industrielle,30.322,-9.49,Souss-Massa,Aït Melloul
Fish Plant “Yasnyy” JSC “Kurilskiy Rybak”,Russia,"Ulitsa Karla Marksa, 20, Ofis 112, 1 Etazh, Yuzhno-Sakhalinsk, Sakhalin Oblast, Russia, 693011",46.957879,142.734556,"Sakhalin Oblast,
Far Eastern Federal District",Kitovyy
"JSC ""Yuzhmorrybflot""",Russia,"16, Zavodskaya str., Livadiya Sub-District Nakhodka",42.78083,133.03437,,
[OLD NAME: NBAMR] JSC Nakhodka Active Marine Fishery Base (NBAMR),Russia,"Ulitsa Makarova, 85, Nakhodka, Primorskiy kray, Russia, 692929",42.7905,132.8842,Primorskiy kray,Nakhodka
"Ozernovsky Fish Canning Plant № 55, JSC (Ozernovsky FCP №55)",Russia,"1 A, Oktyabrskaya str., v.Ozernovsky, Ust'-Bolsheretsky district",52.358063,157.107237,,
"PCF ""Yuzhno-Kyrilsky Ryiboсombinat"" Co., Ltd.",Russia,"17, Zavodskaya str., v. Yuzhno-Kurilsk",44.034652,145.858041,,
Russian Fishery Company (RFC),Russia,"Ulitsa Metallistov, д.3, Vladivostok, Primorskiy kray, Russia, 690001",43.115314,131.91257,Primorskiy kray,Vladivostok
"[OLD NAME: FPP ""Socra"" Co., Ltd.] RPZ Sokra LLC",Russia,"1A, Lesnaya str. Viluchinsk",52.94,158.407222,,
VI Lenin Fishing Collective,Russia,"40 Kosmonavtov Street, Petropavlovsk-Kamchatskiy",53.052842,158.609283,Kamchatka Krai,Petropavlovsk-Kamchatskiy
Rybolovetskaya artel (kolkhoz) im. 50 let Oktyabrya,Russia,"4, Naberezhnaya Street, v. Datta, Vaninskiy District",49.2842,140.3686,Khabarovsk Krai,Vaninskiy District
Production Association Sakhalinrybaksoyuz LLC,Russia,"15, Altayskiy Lane, Yuzhno-Sakhalinsk",47.0189,142.7133,Sakhalin Oblast,Yuzhno-Sakhalinsk
JSC Tralflot,Russia,"680038, Khabarovsk Territory, Khabarovsk city, Serysheva street, house number 34, office 34",48.48347,135.05945,Khabarovsk Krai,Khabarovsk
JSC Turnif,Russia,"ul Pogranichnaya 15V, Vladivostok, Primorskiy kray, 690091, Russia",43.11508,131.91185,Primorsky Krai,Vladivostok
"JSC Holding Company ""Dalmoreproduct""  ",Russia,"53, Pologaya Street, Vladivostok, Primorskiy Kray",43.12108,131.88721,Primorskiy kray,Vladivostok
S.P.P. (Sous Produits du Poisson),Morocco,Route du Jorf El Youdi B.P. 13,32.2814667,-9.248463886,,
PJSC “Preobrazhenskaya Base of Trawling Fleet”,Russia,"1, Portovaya str., v. Preobrazhenie, Lazovskiy district",49.057363,44.039251,Primorsky Krai,Preobrazheniye
Dalryba PJSC,Russia,"51-A, Svetlanskaya str., Vladivostok",43.11526,131.89377,Primorskiy kray,Vladivostok
SAINT LOUIS SEA PRODUCTION,Senegal,Gandiol,15.96249088,-16.4907142,"Saint-Louis,
Saint-Louis Region",32000 Saint-Louis
"JSC ""ASK"" aka Agency Selkhozkorma",Russia,"Office 4, 67 Pobedy Avenue",59.22411,39.871286,Vologodskaya oblast,Vologda
"LLC ""Kamchattralflot""",Russia,"Chavychnaya St., 19",53.055592,158.587925,Kamchatka Krai,Petropavlovsk-Kamchatsky
NordFeed LLC,Russia,"Redtechenskaya Str, 31, Office 403",59.216109,39.894578,Vologodskaya oblast,Vologda
"[OLD NAME: Tymlatsky Rybokombinat Co., Ltd. Fish Factory] Tymlatsky Fish Factory",Russia,"688710, Kamchatka Krai, Karaginsky District, Tymlat village, Naberezhnaya St., 30",50.92928,38.66745,,#REF!
Vityaz-Avto Co Ltd. Fish-Processing Work-Shop,Russia,"48, Oktyabrskaya str. v. Ustevoe",53.063227,158.62085,,#REF!
Sepomer (alt name: Sepomer Sahara II),Western Sahara,23 Avenue Oum Saad Zone Industrielle,27.0567,-13.4225,Laayoune Province,Laayoune
JSC Murmansk Region Fleet,Russia,"43, Shmidta Street, Murmansk, Murmanskaya Oblast",68.9663,33.06865,Murmansk Oblast,Murmansk
PJSC Murmansk Trawling Fleet,Russia,"43, Shmidta Street, Murmansk, Murmanskaya Oblast",68.9663,33.06865,Murmansk Oblast,Murmansk
Silver Food,Morocco,Douar Bouhala,33.4561,-7.7567,,
JSC Akros,Russia,"Ulitsa Mishennaya, 131, Building 13, Petropavlovsk-Kamchatskiy, Kamchatka Krai, Russia, 683980; ul Shturmana Yelagina 43, Petropavlovsk-Kamchatskiy, Kamchatskiy kray, 683013, Russia",53.04809046,158.6153535,Kamchatka Krai,Petropavlovsk-Kamchatskiy
JSC Akros,Russia,"ul Shturmana Yelagina 43, Petropavlovsk-Kamchatskiy, Kamchatskiy kray, 683013, Russia",52.9772,158.6775,Kamchatka Krai,Petropavlovsk-Kamchatskiy
LLC Roliz,Russia,"Ulitsa Mishennaya, д.131, Petropavlovsk-Kamchatskiy, Kamchatka Krai, Russia, 683016",53.04616,158.61661,Kamchatka Krai,Petropavlovsk-Kamchatskiy
LLC Roliz,Russia,"ul Nekrasovskaya 50A, Vladivostok, Primorskiy kray, 690014, Russia",43.1212,131.90666,Kamchatka Krai,Petropavlovsk-Kamchatskiy
Sogenco,Morocco,Route Jorf El Youdi,32.287,-9.2466,Marrakech-Safi,Safi
Sopasen,Senegal,"Môle 10, Port de Dakar",14.683652,-17.43547,"Môle 10, Port de Dakar",00000 Dakar
Sovapec,Morocco,Zone Portuaire,28.4784,-11.3461,Guelmim-Oued Noun,El Ouatia
JSC Akros-3,Russia,"ul Shturmana Yelagina 43, Petropavlovsk-Kamchatskiy, Kamchatskiy kray, 683013, Russia",53.04808,158.61534,Kamchatka Krai,Petropavlovsk-Kamchatskiy
LLC Vostokrybprom,Russia,"Office 410, 14, Pionerskaya Street, Sovetskaya Gavan",48.96733,140.28413,Khabarovsk Krai,Sovetskaya Gavan
OOO RK Luntos,Russia,"11, Ozernovskaya Kosa str, Petropavlovsk-Kamchatskiy",53.02913,158.63935,Kamchatka Krai,Petropavlovsk-Kamchatskiy
Tan Tan Sardine,Morocco,Zone Portuaire,28.48240593,-11.34773681,,
Tantasar,Morocco,Zone Portuaire,28.4824,-11.3477,Guelmim-Oued Noun,El Ouatia
Touba Protein Marine,Senegal,Mbirdiam-Kayar Road,14.898092,-17.127159,Thiès Region,Kayar
Unimer Proteins,Morocco,Route du Jorf El Youdi,32.2636,-9.2553,,
Mercury Co Ltd,Russia,"ul Dalnyaya 28/1, Petropavlovsk-Kamchatskiy, Kamchatskiy kray, 683042, Russia",53.057406,158.68094,Kamchatka Krai,Petropavlovsk-Kamchatskiy
"Sofco Co., Ltd",Russia,"Office 16, 80/1, Dzhambula Street, Khabarovsk",48.4948,135.04905,Khabarovsk Krai,Khabarovsk
Interrybflot,Russia,"6В, Dubovaya str. Vladivostok",43.097837,131.886141,Primorskiy kray,Vladivostok
JSC North-Kurilsk Base of Seiner Fleet (NBSF),Russia,"ul Naberezhnaya, 2, Severo-Kurilsk, Sakhalin Oblast, Russia, 694550",50.6775,156.1403,Sakhalin Oblast,Severo-Kurilsk
Protein and Oil Industry,Western Sahara,,,,,Boujdour
JSC Ostrov Sakhalin,Russia,"15, Altayskiy Lane, Yuzhno-Sakhalinsk",46.96201,142.75808,Sakhalin Oblast,Yuzhno-Sakhalinsk
Công ty TNHH Dịch vụ và Sản xuất Tam Phát,Vietnam,"Tien Phong Village, Thanh Trach Commune, Bo Trach District, Quang Binh Province, Vietnam",,,,
,Vietnam,"Hamlet 7, Rach Goc Town, Ngoc Hien District, Ca Mau Province, Vietnam",,,,
DSM Marine Lipids Perú SAC,Peru,Q84M+Q6P,-5.243028,-80.666909,,Piura
Sa Kỳ Công ty Cổ phần bột cá Thanh Hoa,Vietnam,,,,,